[
	{
		"id": 1,
		"zip": "9420",
		"name": "Aaigem"
	},
	{
		"id": 2,
		"zip": "8511",
		"name": "Aalbeke"
	},
	{
		"id": 3,
		"zip": "9300",
		"name": "Aalst"
	},
	{
		"id": 4,
		"zip": "3800",
		"name": "Aalst (Limb.)"
	},
	{
		"id": 5,
		"zip": "9880",
		"name": "Aalter"
	},
	{
		"id": 6,
		"zip": "3200",
		"name": "Aarschot"
	},
	{
		"id": 7,
		"zip": "8700",
		"name": "Aarsele"
	},
	{
		"id": 8,
		"zip": "8211",
		"name": "Aartrijke"
	},
	{
		"id": 9,
		"zip": "2630",
		"name": "Aartselaar"
	},
	{
		"id": 10,
		"zip": "4557",
		"name": "Abée"
	},
	{
		"id": 11,
		"zip": "4280",
		"name": "Abolens"
	},
	{
		"id": 12,
		"zip": "3930",
		"name": "Achel"
	},
	{
		"id": 13,
		"zip": "5590",
		"name": "Achêne"
	},
	{
		"id": 14,
		"zip": "5362",
		"name": "Achet"
	},
	{
		"id": 15,
		"zip": "4219",
		"name": "Acosse"
	},
	{
		"id": 16,
		"zip": "6280",
		"name": "Acoz"
	},
	{
		"id": 17,
		"zip": "9991",
		"name": "Adegem"
	},
	{
		"id": 18,
		"zip": "8660",
		"name": "Adinkerke"
	},
	{
		"id": 19,
		"zip": "1790",
		"name": "Affligem"
	},
	{
		"id": 20,
		"zip": "9051",
		"name": "Afsnee"
	},
	{
		"id": 21,
		"zip": "5544",
		"name": "Agimont"
	},
	{
		"id": 22,
		"zip": "4317",
		"name": "Aineffe"
	},
	{
		"id": 23,
		"zip": "5310",
		"name": "Aische-en-Refail"
	},
	{
		"id": 24,
		"zip": "6250",
		"name": "Aiseau"
	},
	{
		"id": 25,
		"zip": "6250",
		"name": "Aiseau-Presles"
	},
	{
		"id": 26,
		"zip": "5070",
		"name": "Aisemont"
	},
	{
		"id": 27,
		"zip": "3570",
		"name": "Alken"
	},
	{
		"id": 28,
		"zip": "5550",
		"name": "Alle"
	},
	{
		"id": 29,
		"zip": "4432",
		"name": "Alleur"
	},
	{
		"id": 30,
		"zip": "1652",
		"name": "Alsemberg"
	},
	{
		"id": 31,
		"zip": "8690",
		"name": "Alveringem"
	},
	{
		"id": 32,
		"zip": "4540",
		"name": "Amay"
	},
	{
		"id": 33,
		"zip": "6680",
		"name": "Amberloup"
	},
	{
		"id": 34,
		"zip": "4770",
		"name": "Amblève"
	},
	{
		"id": 35,
		"zip": "6953",
		"name": "Ambly"
	},
	{
		"id": 36,
		"zip": "4219",
		"name": "Ambresin"
	},
	{
		"id": 37,
		"zip": "4770",
		"name": "Amel"
	},
	{
		"id": 38,
		"zip": "6997",
		"name": "Amonines"
	},
	{
		"id": 39,
		"zip": "7750",
		"name": "Amougies"
	},
	{
		"id": 40,
		"zip": "4540",
		"name": "Ampsin"
	},
	{
		"id": 41,
		"zip": "5300",
		"name": "Andenne"
	},
	{
		"id": 42,
		"zip": "1070",
		"name": "Anderlecht"
	},
	{
		"id": 43,
		"zip": "6150",
		"name": "Anderlues"
	},
	{
		"id": 44,
		"zip": "4821",
		"name": "Andrimont"
	},
	{
		"id": 45,
		"zip": "4031",
		"name": "Angleur"
	},
	{
		"id": 46,
		"zip": "7387",
		"name": "Angre"
	},
	{
		"id": 47,
		"zip": "7387",
		"name": "Angreau"
	},
	{
		"id": 48,
		"zip": "5537",
		"name": "Anhée"
	},
	{
		"id": 49,
		"zip": "6721",
		"name": "Anlier"
	},
	{
		"id": 50,
		"zip": "6890",
		"name": "Anloy"
	},
	{
		"id": 51,
		"zip": "5537",
		"name": "Annevoie-Rouillon"
	},
	{
		"id": 52,
		"zip": "4430",
		"name": "Ans"
	},
	{
		"id": 53,
		"zip": "5500",
		"name": "Anseremme"
	},
	{
		"id": 54,
		"zip": "7750",
		"name": "Anseroeul"
	},
	{
		"id": 55,
		"zip": "5520",
		"name": "Anthée"
	},
	{
		"id": 56,
		"zip": "4520",
		"name": "Antheit"
	},
	{
		"id": 57,
		"zip": "4160",
		"name": "Anthisnes"
	},
	{
		"id": 58,
		"zip": "7640",
		"name": "Antoing"
	},
	{
		"id": 59,
		"zip": "2000",
		"name": "Antwerpen 1"
	},
	{
		"id": 60,
		"zip": "2018",
		"name": "Antwerpen 1"
	},
	{
		"id": 61,
		"zip": "2020",
		"name": "Antwerpen 2"
	},
	{
		"id": 62,
		"zip": "2030",
		"name": "Antwerpen 3"
	},
	{
		"id": 63,
		"zip": "2040",
		"name": "Antwerpen 4"
	},
	{
		"id": 64,
		"zip": "2050",
		"name": "Antwerpen 5"
	},
	{
		"id": 65,
		"zip": "2060",
		"name": "Antwerpen 6"
	},
	{
		"id": 66,
		"zip": "7910",
		"name": "Anvaing"
	},
	{
		"id": 67,
		"zip": "8570",
		"name": "Anzegem"
	},
	{
		"id": 68,
		"zip": "9200",
		"name": "Appels"
	},
	{
		"id": 69,
		"zip": "9400",
		"name": "Appelterre-Eichem"
	},
	{
		"id": 70,
		"zip": "7811",
		"name": "Arbre (Ht.)"
	},
	{
		"id": 71,
		"zip": "5170",
		"name": "Arbre (Nam.)"
	},
	{
		"id": 72,
		"zip": "4990",
		"name": "Arbrefontaine"
	},
	{
		"id": 73,
		"zip": "7910",
		"name": "Arc-Ainières"
	},
	{
		"id": 74,
		"zip": "1390",
		"name": "Archennes"
	},
	{
		"id": 75,
		"zip": "7910",
		"name": "Arc-Wattripont"
	},
	{
		"id": 76,
		"zip": "8850",
		"name": "Ardooie"
	},
	{
		"id": 77,
		"zip": "2370",
		"name": "Arendonk"
	},
	{
		"id": 78,
		"zip": "4601",
		"name": "Argenteau"
	},
	{
		"id": 79,
		"zip": "6700",
		"name": "Arlon"
	},
	{
		"id": 80,
		"zip": "7181",
		"name": "Arquennes"
	},
	{
		"id": 81,
		"zip": "5060",
		"name": "Arsimont"
	},
	{
		"id": 82,
		"zip": "6870",
		"name": "Arville"
	},
	{
		"id": 83,
		"zip": "3665",
		"name": "As"
	},
	{
		"id": 84,
		"zip": "9404",
		"name": "Aspelare"
	},
	{
		"id": 85,
		"zip": "9890",
		"name": "Asper"
	},
	{
		"id": 86,
		"zip": "7040",
		"name": "Asquillies"
	},
	{
		"id": 87,
		"zip": "1730",
		"name": "Asse"
	},
	{
		"id": 88,
		"zip": "8310",
		"name": "Assebroek"
	},
	{
		"id": 89,
		"zip": "9960",
		"name": "Assenede"
	},
	{
		"id": 90,
		"zip": "6860",
		"name": "Assenois"
	},
	{
		"id": 91,
		"zip": "3460",
		"name": "Assent"
	},
	{
		"id": 92,
		"zip": "5330",
		"name": "Assesse"
	},
	{
		"id": 93,
		"zip": "9800",
		"name": "Astene"
	},
	{
		"id": 94,
		"zip": "7800",
		"name": "Ath"
	},
	{
		"id": 95,
		"zip": "7387",
		"name": "Athis"
	},
	{
		"id": 96,
		"zip": "6791",
		"name": "Athus"
	},
	{
		"id": 97,
		"zip": "3404",
		"name": "Attenhoven"
	},
	{
		"id": 98,
		"zip": "3384",
		"name": "Attenrode"
	},
	{
		"id": 99,
		"zip": "6717",
		"name": "Attert"
	},
	{
		"id": 100,
		"zip": "7941",
		"name": "Attre"
	},
	{
		"id": 101,
		"zip": "6790",
		"name": "Aubange"
	},
	{
		"id": 102,
		"zip": "7972",
		"name": "Aubechies"
	},
	{
		"id": 103,
		"zip": "4880",
		"name": "Aubel"
	},
	{
		"id": 104,
		"zip": "5660",
		"name": "Aublain"
	},
	{
		"id": 105,
		"zip": "6880",
		"name": "Auby-sur-Semois"
	},
	{
		"id": 106,
		"zip": "1160",
		"name": "Auderghem"
	},
	{
		"id": 107,
		"zip": "7382",
		"name": "Audregnies"
	},
	{
		"id": 108,
		"zip": "7040",
		"name": "Aulnois"
	},
	{
		"id": 109,
		"zip": "6706",
		"name": "Autelbas"
	},
	{
		"id": 110,
		"zip": "1367",
		"name": "Autre-Eglise"
	},
	{
		"id": 111,
		"zip": "7387",
		"name": "Autreppe"
	},
	{
		"id": 112,
		"zip": "5060",
		"name": "Auvelais"
	},
	{
		"id": 113,
		"zip": "5580",
		"name": "Ave-et-Auffe"
	},
	{
		"id": 114,
		"zip": "8630",
		"name": "Avekapelle"
	},
	{
		"id": 115,
		"zip": "8580",
		"name": "Avelgem"
	},
	{
		"id": 116,
		"zip": "4260",
		"name": "Avennes"
	},
	{
		"id": 117,
		"zip": "3271",
		"name": "Averbode"
	},
	{
		"id": 118,
		"zip": "4280",
		"name": "Avernas-le-Bauduin"
	},
	{
		"id": 119,
		"zip": "4280",
		"name": "Avin"
	},
	{
		"id": 120,
		"zip": "4340",
		"name": "Awans"
	},
	{
		"id": 121,
		"zip": "6870",
		"name": "Awenne"
	},
	{
		"id": 122,
		"zip": "4400",
		"name": "Awirs"
	},
	{
		"id": 123,
		"zip": "6900",
		"name": "Aye"
	},
	{
		"id": 124,
		"zip": "4630",
		"name": "Ayeneux"
	},
	{
		"id": 125,
		"zip": "4920",
		"name": "Aywaille"
	},
	{
		"id": 126,
		"zip": "9890",
		"name": "Baaigem"
	},
	{
		"id": 127,
		"zip": "3128",
		"name": "Baal"
	},
	{
		"id": 128,
		"zip": "9310",
		"name": "Baardegem"
	},
	{
		"id": 129,
		"zip": "2387",
		"name": "Baarle-Hertog"
	},
	{
		"id": 130,
		"zip": "9200",
		"name": "Baasrode"
	},
	{
		"id": 131,
		"zip": "9800",
		"name": "Bachte-Maria-Leerne"
	},
	{
		"id": 132,
		"zip": "4837",
		"name": "Baelen (Lg.)"
	},
	{
		"id": 133,
		"zip": "5550",
		"name": "Bagimont"
	},
	{
		"id": 134,
		"zip": "6464",
		"name": "Baileux"
	},
	{
		"id": 135,
		"zip": "6460",
		"name": "Bailièvre"
	},
	{
		"id": 136,
		"zip": "5555",
		"name": "Baillamont"
	},
	{
		"id": 137,
		"zip": "7730",
		"name": "Bailleul"
	},
	{
		"id": 138,
		"zip": "5377",
		"name": "Baillonville"
	},
	{
		"id": 139,
		"zip": "7380",
		"name": "Baisieux"
	},
	{
		"id": 140,
		"zip": "1470",
		"name": "Baisy-thy"
	},
	{
		"id": 141,
		"zip": "5190",
		"name": "Balâtre"
	},
	{
		"id": 142,
		"zip": "9860",
		"name": "Balegem"
	},
	{
		"id": 143,
		"zip": "2490",
		"name": "Balen"
	},
	{
		"id": 144,
		"zip": "9420",
		"name": "Bambrugge"
	},
	{
		"id": 145,
		"zip": "6951",
		"name": "Bande"
	},
	{
		"id": 146,
		"zip": "6500",
		"name": "Barbençon"
	},
	{
		"id": 147,
		"zip": "4671",
		"name": "Barchon"
	},
	{
		"id": 148,
		"zip": "5570",
		"name": "Baronville"
	},
	{
		"id": 149,
		"zip": "7534",
		"name": "Barry"
	},
	{
		"id": 150,
		"zip": "5370",
		"name": "Barvaux-Condroz"
	},
	{
		"id": 151,
		"zip": "6940",
		"name": "Barvaux-sur-Ourthe"
	},
	{
		"id": 152,
		"zip": "7971",
		"name": "Basècles"
	},
	{
		"id": 153,
		"zip": "4520",
		"name": "Bas-Oha"
	},
	{
		"id": 154,
		"zip": "4983",
		"name": "Basse-Bodeux"
	},
	{
		"id": 155,
		"zip": "4690",
		"name": "Bassenge"
	},
	{
		"id": 156,
		"zip": "9968",
		"name": "Bassevelde"
	},
	{
		"id": 157,
		"zip": "7830",
		"name": "Bassilly"
	},
	{
		"id": 158,
		"zip": "6600",
		"name": "Bastogne"
	},
	{
		"id": 159,
		"zip": "7784",
		"name": "Bas-Warneton"
	},
	{
		"id": 160,
		"zip": "3870",
		"name": "Batsheers"
	},
	{
		"id": 161,
		"zip": "4651",
		"name": "Battice"
	},
	{
		"id": 162,
		"zip": "7130",
		"name": "Battignies"
	},
	{
		"id": 163,
		"zip": "7331",
		"name": "Baudour"
	},
	{
		"id": 164,
		"zip": "7870",
		"name": "Bauffe"
	},
	{
		"id": 165,
		"zip": "7604",
		"name": "Baugnies"
	},
	{
		"id": 166,
		"zip": "1401",
		"name": "Baulers"
	},
	{
		"id": 167,
		"zip": "9520",
		"name": "Bavegem"
	},
	{
		"id": 168,
		"zip": "8531",
		"name": "Bavikhove"
	},
	{
		"id": 169,
		"zip": "9150",
		"name": "Bazel"
	},
	{
		"id": 170,
		"zip": "4052",
		"name": "Beaufays"
	},
	{
		"id": 171,
		"zip": "6500",
		"name": "Beaumont"
	},
	{
		"id": 172,
		"zip": "5570",
		"name": "Beauraing"
	},
	{
		"id": 173,
		"zip": "6980",
		"name": "Beausaint"
	},
	{
		"id": 174,
		"zip": "1320",
		"name": "Beauvechain"
	},
	{
		"id": 175,
		"zip": "6594",
		"name": "Beauwelz"
	},
	{
		"id": 176,
		"zip": "7532",
		"name": "Beclers"
	},
	{
		"id": 177,
		"zip": "3960",
		"name": "Beek"
	},
	{
		"id": 178,
		"zip": "9630",
		"name": "Beerlegem"
	},
	{
		"id": 179,
		"zip": "8730",
		"name": "Beernem"
	},
	{
		"id": 180,
		"zip": "2340",
		"name": "Beerse"
	},
	{
		"id": 181,
		"zip": "1650",
		"name": "Beersel"
	},
	{
		"id": 182,
		"zip": "8600",
		"name": "Beerst"
	},
	{
		"id": 183,
		"zip": "1673",
		"name": "Beert"
	},
	{
		"id": 184,
		"zip": "9080",
		"name": "Beervelde"
	},
	{
		"id": 185,
		"zip": "2580",
		"name": "Beerzel"
	},
	{
		"id": 186,
		"zip": "5000",
		"name": "Beez"
	},
	{
		"id": 187,
		"zip": "6987",
		"name": "Beffe"
	},
	{
		"id": 188,
		"zip": "3130",
		"name": "Begijnendijk"
	},
	{
		"id": 189,
		"zip": "6672",
		"name": "Beho"
	},
	{
		"id": 190,
		"zip": "1852",
		"name": "Beigem"
	},
	{
		"id": 191,
		"zip": "8480",
		"name": "Bekegem"
	},
	{
		"id": 192,
		"zip": "1730",
		"name": "Bekkerzeel"
	},
	{
		"id": 193,
		"zip": "3460",
		"name": "Bekkevoort"
	},
	{
		"id": 194,
		"zip": "5001",
		"name": "Belgrade"
	},
	{
		"id": 195,
		"zip": "4610",
		"name": "Bellaire"
	},
	{
		"id": 196,
		"zip": "7170",
		"name": "Bellecourt"
	},
	{
		"id": 197,
		"zip": "6730",
		"name": "Bellefontaine (Lux.)"
	},
	{
		"id": 198,
		"zip": "5555",
		"name": "Bellefontaine (Nam.)"
	},
	{
		"id": 199,
		"zip": "8510",
		"name": "Bellegem"
	},
	{
		"id": 200,
		"zip": "9881",
		"name": "Bellem"
	},
	{
		"id": 201,
		"zip": "6834",
		"name": "Bellevaux"
	},
	{
		"id": 202,
		"zip": "4960",
		"name": "Bellevaux-Ligneuville"
	},
	{
		"id": 203,
		"zip": "1674",
		"name": "Bellingen"
	},
	{
		"id": 204,
		"zip": "7970",
		"name": "Beloeil"
	},
	{
		"id": 205,
		"zip": "9111",
		"name": "Belsele"
	},
	{
		"id": 206,
		"zip": "4500",
		"name": "Ben-Ahin"
	},
	{
		"id": 207,
		"zip": "6941",
		"name": "Bende"
	},
	{
		"id": 208,
		"zip": "3540",
		"name": "Berbroek"
	},
	{
		"id": 209,
		"zip": "2600",
		"name": "Berchem (Antwerpen)"
	},
	{
		"id": 210,
		"zip": "9690",
		"name": "Berchem (O.-Vl.)"
	},
	{
		"id": 211,
		"zip": "1082",
		"name": "Berchem-Sainte-Agathe"
	},
	{
		"id": 212,
		"zip": "2040",
		"name": "Berendrecht"
	},
	{
		"id": 213,
		"zip": "1910",
		"name": "Berg (Bt.)"
	},
	{
		"id": 214,
		"zip": "3700",
		"name": "Berg (Limb.)"
	},
	{
		"id": 215,
		"zip": "4360",
		"name": "Bergilers"
	},
	{
		"id": 216,
		"zip": "3580",
		"name": "Beringen"
	},
	{
		"id": 217,
		"zip": "2590",
		"name": "Berlaar"
	},
	{
		"id": 218,
		"zip": "9290",
		"name": "Berlare"
	},
	{
		"id": 219,
		"zip": "3830",
		"name": "Berlingen"
	},
	{
		"id": 220,
		"zip": "4257",
		"name": "Berloz"
	},
	{
		"id": 221,
		"zip": "4607",
		"name": "Berneau"
	},
	{
		"id": 222,
		"zip": "7320",
		"name": "Bernissart"
	},
	{
		"id": 223,
		"zip": "6560",
		"name": "Bersillies-l'Abbaye"
	},
	{
		"id": 224,
		"zip": "3060",
		"name": "Bertem"
	},
	{
		"id": 225,
		"zip": "6687",
		"name": "Bertogne"
	},
	{
		"id": 226,
		"zip": "4280",
		"name": "Bertrée"
	},
	{
		"id": 227,
		"zip": "6880",
		"name": "Bertrix"
	},
	{
		"id": 228,
		"zip": "5651",
		"name": "Berzée"
	},
	{
		"id": 229,
		"zip": "8980",
		"name": "Beselare"
	},
	{
		"id": 230,
		"zip": "3130",
		"name": "Betekom"
	},
	{
		"id": 231,
		"zip": "4300",
		"name": "Bettincourt"
	},
	{
		"id": 232,
		"zip": "5030",
		"name": "Beuzet"
	},
	{
		"id": 233,
		"zip": "2560",
		"name": "Bevel"
	},
	{
		"id": 234,
		"zip": "1547",
		"name": "Bever"
	},
	{
		"id": 235,
		"zip": "4960",
		"name": "Bevercé"
	},
	{
		"id": 236,
		"zip": "9700",
		"name": "Bevere"
	},
	{
		"id": 237,
		"zip": "8791",
		"name": "Beveren (Leie)"
	},
	{
		"id": 238,
		"zip": "8800",
		"name": "Beveren (Roeselare)"
	},
	{
		"id": 239,
		"zip": "8691",
		"name": "Beveren-aan-den-Ijzer"
	},
	{
		"id": 240,
		"zip": "9120",
		"name": "Beveren-Waas"
	},
	{
		"id": 241,
		"zip": "3581",
		"name": "Beverlo"
	},
	{
		"id": 242,
		"zip": "3740",
		"name": "Beverst"
	},
	{
		"id": 243,
		"zip": "4610",
		"name": "Beyne-Heusay"
	},
	{
		"id": 244,
		"zip": "6543",
		"name": "Bienne-lez-Happart"
	},
	{
		"id": 245,
		"zip": "3360",
		"name": "Bierbeek"
	},
	{
		"id": 246,
		"zip": "6533",
		"name": "Biercée"
	},
	{
		"id": 247,
		"zip": "1301",
		"name": "Bierges"
	},
	{
		"id": 248,
		"zip": "1430",
		"name": "Bierghes"
	},
	{
		"id": 249,
		"zip": "4460",
		"name": "Bierset"
	},
	{
		"id": 250,
		"zip": "5380",
		"name": "Bierwart"
	},
	{
		"id": 251,
		"zip": "5640",
		"name": "Biesme"
	},
	{
		"id": 252,
		"zip": "5640",
		"name": "Biesmerée"
	},
	{
		"id": 253,
		"zip": "6531",
		"name": "Biesme-sous-Thuin"
	},
	{
		"id": 254,
		"zip": "1547",
		"name": "Biévène"
	},
	{
		"id": 255,
		"zip": "5555",
		"name": "Bièvre"
	},
	{
		"id": 256,
		"zip": "1390",
		"name": "Biez"
	},
	{
		"id": 257,
		"zip": "6690",
		"name": "Bihain"
	},
	{
		"id": 258,
		"zip": "8920",
		"name": "Bikschote"
	},
	{
		"id": 259,
		"zip": "4831",
		"name": "Bilstain"
	},
	{
		"id": 260,
		"zip": "3740",
		"name": "Bilzen"
	},
	{
		"id": 261,
		"zip": "7130",
		"name": "Binche"
	},
	{
		"id": 262,
		"zip": "3850",
		"name": "Binderveld"
	},
	{
		"id": 263,
		"zip": "3211",
		"name": "Binkom"
	},
	{
		"id": 264,
		"zip": "5537",
		"name": "Bioul"
	},
	{
		"id": 265,
		"zip": "8501",
		"name": "Bissegem"
	},
	{
		"id": 266,
		"zip": "7783",
		"name": "Bizet"
	},
	{
		"id": 267,
		"zip": "2830",
		"name": "Blaasveld"
	},
	{
		"id": 268,
		"zip": "5542",
		"name": "Blaimont"
	},
	{
		"id": 269,
		"zip": "7522",
		"name": "Blandain"
	},
	{
		"id": 270,
		"zip": "3052",
		"name": "Blanden"
	},
	{
		"id": 271,
		"zip": "8370",
		"name": "Blankenberge"
	},
	{
		"id": 272,
		"zip": "7040",
		"name": "Blaregnies"
	},
	{
		"id": 273,
		"zip": "7321",
		"name": "Blaton"
	},
	{
		"id": 274,
		"zip": "7370",
		"name": "Blaugies"
	},
	{
		"id": 275,
		"zip": "4670",
		"name": "Blégny"
	},
	{
		"id": 276,
		"zip": "7620",
		"name": "Bléharies"
	},
	{
		"id": 277,
		"zip": "4280",
		"name": "Blehen"
	},
	{
		"id": 278,
		"zip": "6760",
		"name": "Bleid"
	},
	{
		"id": 279,
		"zip": "4300",
		"name": "Bleret"
	},
	{
		"id": 280,
		"zip": "7903",
		"name": "Blicquy"
	},
	{
		"id": 281,
		"zip": "3950",
		"name": "Bocholt"
	},
	{
		"id": 282,
		"zip": "2530",
		"name": "Boechout"
	},
	{
		"id": 283,
		"zip": "3890",
		"name": "Boekhout"
	},
	{
		"id": 284,
		"zip": "9961",
		"name": "Boekhoute"
	},
	{
		"id": 285,
		"zip": "4250",
		"name": "Boëlhe"
	},
	{
		"id": 286,
		"zip": "8904",
		"name": "Boezinge"
	},
	{
		"id": 287,
		"zip": "1670",
		"name": "Bogaarden"
	},
	{
		"id": 288,
		"zip": "5550",
		"name": "Bohan"
	},
	{
		"id": 289,
		"zip": "5140",
		"name": "Boignée"
	},
	{
		"id": 290,
		"zip": "4690",
		"name": "Boirs"
	},
	{
		"id": 291,
		"zip": "7866",
		"name": "Bois-de-Lessines"
	},
	{
		"id": 292,
		"zip": "5170",
		"name": "Bois-de-Villers"
	},
	{
		"id": 293,
		"zip": "7170",
		"name": "Bois-d'Haine"
	},
	{
		"id": 294,
		"zip": "4560",
		"name": "Bois-et-Borsu"
	},
	{
		"id": 295,
		"zip": "5310",
		"name": "Bolinne"
	},
	{
		"id": 296,
		"zip": "4653",
		"name": "Bolland"
	},
	{
		"id": 297,
		"zip": "1367",
		"name": "Bomal (Bt.)"
	},
	{
		"id": 298,
		"zip": "6941",
		"name": "Bomal-sur-Ourthe"
	},
	{
		"id": 299,
		"zip": "4607",
		"name": "Bombaye"
	},
	{
		"id": 300,
		"zip": "3840",
		"name": "Bommershoven"
	},
	{
		"id": 301,
		"zip": "4100",
		"name": "Boncelles"
	},
	{
		"id": 302,
		"zip": "5310",
		"name": "Boneffe"
	},
	{
		"id": 303,
		"zip": "2820",
		"name": "Bonheiden"
	},
	{
		"id": 304,
		"zip": "5021",
		"name": "Boninne"
	},
	{
		"id": 305,
		"zip": "1325",
		"name": "Bonlez"
	},
	{
		"id": 306,
		"zip": "6700",
		"name": "Bonnert"
	},
	{
		"id": 307,
		"zip": "5300",
		"name": "Bonneville"
	},
	{
		"id": 308,
		"zip": "7603",
		"name": "Bon-Secours"
	},
	{
		"id": 309,
		"zip": "5377",
		"name": "Bonsin"
	},
	{
		"id": 310,
		"zip": "2221",
		"name": "Booischot"
	},
	{
		"id": 311,
		"zip": "8630",
		"name": "Booitshoeke"
	},
	{
		"id": 312,
		"zip": "2850",
		"name": "Boom"
	},
	{
		"id": 313,
		"zip": "3631",
		"name": "Boorsem"
	},
	{
		"id": 314,
		"zip": "3190",
		"name": "Boortmeerbeek"
	},
	{
		"id": 315,
		"zip": "1761",
		"name": "Borchtlombeek"
	},
	{
		"id": 316,
		"zip": "2140",
		"name": "Borgerhout (Antwerpen)"
	},
	{
		"id": 317,
		"zip": "3840",
		"name": "Borgloon"
	},
	{
		"id": 318,
		"zip": "4317",
		"name": "Borlez"
	},
	{
		"id": 319,
		"zip": "3891",
		"name": "Borlo"
	},
	{
		"id": 320,
		"zip": "6941",
		"name": "Borlon"
	},
	{
		"id": 321,
		"zip": "2880",
		"name": "Bornem"
	},
	{
		"id": 322,
		"zip": "1404",
		"name": "Bornival"
	},
	{
		"id": 323,
		"zip": "2150",
		"name": "Borsbeek (Antw.)"
	},
	{
		"id": 324,
		"zip": "9552",
		"name": "Borsbeke"
	},
	{
		"id": 325,
		"zip": "5032",
		"name": "Bossière"
	},
	{
		"id": 326,
		"zip": "8583",
		"name": "Bossuit"
	},
	{
		"id": 327,
		"zip": "1390",
		"name": "Bossut-Gottechain"
	},
	{
		"id": 328,
		"zip": "3300",
		"name": "Bost"
	},
	{
		"id": 329,
		"zip": "5032",
		"name": "Bothey"
	},
	{
		"id": 330,
		"zip": "9820",
		"name": "Bottelare"
	},
	{
		"id": 331,
		"zip": "6200",
		"name": "Bouffioulx"
	},
	{
		"id": 332,
		"zip": "5004",
		"name": "Bouge"
	},
	{
		"id": 333,
		"zip": "7040",
		"name": "Bougnies"
	},
	{
		"id": 334,
		"zip": "6830",
		"name": "Bouillon"
	},
	{
		"id": 335,
		"zip": "6464",
		"name": "Bourlers"
	},
	{
		"id": 336,
		"zip": "5575",
		"name": "Bourseigne-Neuve"
	},
	{
		"id": 337,
		"zip": "5575",
		"name": "Bourseigne-Vieille"
	},
	{
		"id": 338,
		"zip": "7110",
		"name": "Boussoit"
	},
	{
		"id": 339,
		"zip": "7300",
		"name": "Boussu"
	},
	{
		"id": 340,
		"zip": "5660",
		"name": "Boussu-en-Fagne"
	},
	{
		"id": 341,
		"zip": "6440",
		"name": "Boussu-lez-Walcourt"
	},
	{
		"id": 342,
		"zip": "1470",
		"name": "Bousval"
	},
	{
		"id": 343,
		"zip": "3370",
		"name": "Boutersem"
	},
	{
		"id": 344,
		"zip": "5500",
		"name": "Bouvignes-sur-Meuse"
	},
	{
		"id": 345,
		"zip": "7803",
		"name": "Bouvignies"
	},
	{
		"id": 346,
		"zip": "2288",
		"name": "Bouwel"
	},
	{
		"id": 347,
		"zip": "8680",
		"name": "Bovekerke"
	},
	{
		"id": 348,
		"zip": "3870",
		"name": "Bovelingen"
	},
	{
		"id": 349,
		"zip": "4300",
		"name": "Bovenistier"
	},
	{
		"id": 350,
		"zip": "5081",
		"name": "Bovesse"
	},
	{
		"id": 351,
		"zip": "6671",
		"name": "Bovigny"
	},
	{
		"id": 352,
		"zip": "4990",
		"name": "Bra"
	},
	{
		"id": 353,
		"zip": "7604",
		"name": "Braffe"
	},
	{
		"id": 354,
		"zip": "5590",
		"name": "Braibant"
	},
	{
		"id": 355,
		"zip": "1420",
		"name": "Braine-l'Alleud"
	},
	{
		"id": 356,
		"zip": "1440",
		"name": "Braine-le-Château"
	},
	{
		"id": 357,
		"zip": "7090",
		"name": "Braine-le-Comte"
	},
	{
		"id": 358,
		"zip": "4260",
		"name": "Braives"
	},
	{
		"id": 359,
		"zip": "9660",
		"name": "Brakel"
	},
	{
		"id": 360,
		"zip": "5310",
		"name": "Branchon"
	},
	{
		"id": 361,
		"zip": "6800",
		"name": "Bras"
	},
	{
		"id": 362,
		"zip": "7604",
		"name": "Brasmenil"
	},
	{
		"id": 363,
		"zip": "2930",
		"name": "Brasschaat"
	},
	{
		"id": 364,
		"zip": "7130",
		"name": "Bray"
	},
	{
		"id": 365,
		"zip": "2960",
		"name": "Brecht"
	},
	{
		"id": 366,
		"zip": "8450",
		"name": "Bredene"
	},
	{
		"id": 367,
		"zip": "3960",
		"name": "Bree"
	},
	{
		"id": 368,
		"zip": "2870",
		"name": "Breendonk"
	},
	{
		"id": 369,
		"zip": "4020",
		"name": "Bressoux"
	},
	{
		"id": 370,
		"zip": "8900",
		"name": "Brielen"
	},
	{
		"id": 371,
		"zip": "2520",
		"name": "Broechem"
	},
	{
		"id": 372,
		"zip": "3840",
		"name": "Broekom"
	},
	{
		"id": 373,
		"zip": "1931",
		"name": "Brucargo"
	},
	{
		"id": 374,
		"zip": "7940",
		"name": "Brugelette"
	},
	{
		"id": 375,
		"zip": "8000",
		"name": "Brugge"
	},
	{
		"id": 376,
		"zip": "5660",
		"name": "Brûly"
	},
	{
		"id": 377,
		"zip": "5660",
		"name": "Brûly-de-Pesche"
	},
	{
		"id": 378,
		"zip": "7620",
		"name": "Brunehaut"
	},
	{
		"id": 379,
		"zip": "1785",
		"name": "Brussegem"
	},
	{
		"id": 380,
		"zip": "1000",
		"name": "Brussel 1"
	},
	{
		"id": 381,
		"zip": "1120",
		"name": "Brussel 12"
	},
	{
		"id": 382,
		"zip": "1130",
		"name": "Brussel 13"
	},
	{
		"id": 383,
		"zip": "1140",
		"name": "Brussel 14"
	},
	{
		"id": 384,
		"zip": "1150",
		"name": "Brussel 15"
	},
	{
		"id": 385,
		"zip": "1160",
		"name": "Brussel 16"
	},
	{
		"id": 386,
		"zip": "1170",
		"name": "Brussel 17"
	},
	{
		"id": 387,
		"zip": "1180",
		"name": "Brussel 18"
	},
	{
		"id": 388,
		"zip": "1190",
		"name": "Brussel 19"
	},
	{
		"id": 389,
		"zip": "1020",
		"name": "Brussel 2"
	},
	{
		"id": 390,
		"zip": "1200",
		"name": "Brussel 20"
	},
	{
		"id": 391,
		"zip": "1210",
		"name": "Brussel 21"
	},
	{
		"id": 392,
		"zip": "1030",
		"name": "Brussel 3"
	},
	{
		"id": 393,
		"zip": "1040",
		"name": "Brussel 4"
	},
	{
		"id": 394,
		"zip": "1050",
		"name": "Brussel 5"
	},
	{
		"id": 395,
		"zip": "1060",
		"name": "Brussel 6"
	},
	{
		"id": 396,
		"zip": "1070",
		"name": "Brussel 7"
	},
	{
		"id": 397,
		"zip": "1080",
		"name": "Brussel 8"
	},
	{
		"id": 398,
		"zip": "1090",
		"name": "Brussel 9"
	},
	{
		"id": 399,
		"zip": "3800",
		"name": "Brustem"
	},
	{
		"id": 400,
		"zip": "1000",
		"name": "Bruxelles 1"
	},
	{
		"id": 401,
		"zip": "1120",
		"name": "Bruxelles 12"
	},
	{
		"id": 402,
		"zip": "1130",
		"name": "Bruxelles 13"
	},
	{
		"id": 403,
		"zip": "1140",
		"name": "Bruxelles 14"
	},
	{
		"id": 404,
		"zip": "1150",
		"name": "Bruxelles 15"
	},
	{
		"id": 405,
		"zip": "1160",
		"name": "Bruxelles 16"
	},
	{
		"id": 406,
		"zip": "1170",
		"name": "Bruxelles 17"
	},
	{
		"id": 407,
		"zip": "1180",
		"name": "Bruxelles 18"
	},
	{
		"id": 408,
		"zip": "1190",
		"name": "Bruxelles 19"
	},
	{
		"id": 409,
		"zip": "1020",
		"name": "Bruxelles 2"
	},
	{
		"id": 410,
		"zip": "1200",
		"name": "Bruxelles 20"
	},
	{
		"id": 411,
		"zip": "1210",
		"name": "Bruxelles 21"
	},
	{
		"id": 412,
		"zip": "1030",
		"name": "Bruxelles 3"
	},
	{
		"id": 413,
		"zip": "1040",
		"name": "Bruxelles 4"
	},
	{
		"id": 414,
		"zip": "1050",
		"name": "Bruxelles 5"
	},
	{
		"id": 415,
		"zip": "1060",
		"name": "Bruxelles 6"
	},
	{
		"id": 416,
		"zip": "1070",
		"name": "Bruxelles 7"
	},
	{
		"id": 417,
		"zip": "1080",
		"name": "Bruxelles 8"
	},
	{
		"id": 418,
		"zip": "1090",
		"name": "Bruxelles 9"
	},
	{
		"id": 419,
		"zip": "7641",
		"name": "Bruyelle"
	},
	{
		"id": 420,
		"zip": "6222",
		"name": "Brye"
	},
	{
		"id": 421,
		"zip": "3440",
		"name": "Budingen"
	},
	{
		"id": 422,
		"zip": "9255",
		"name": "Buggenhout"
	},
	{
		"id": 423,
		"zip": "7911",
		"name": "Buissenal"
	},
	{
		"id": 424,
		"zip": "5580",
		"name": "Buissonville"
	},
	{
		"id": 425,
		"zip": "1501",
		"name": "Buizingen"
	},
	{
		"id": 426,
		"zip": "1910",
		"name": "Buken"
	},
	{
		"id": 427,
		"zip": "4760",
		"name": "Bullange"
	},
	{
		"id": 428,
		"zip": "4760",
		"name": "Büllingen"
	},
	{
		"id": 429,
		"zip": "8630",
		"name": "Bulskamp"
	},
	{
		"id": 430,
		"zip": "3380",
		"name": "Bunsbeek"
	},
	{
		"id": 431,
		"zip": "2070",
		"name": "Burcht"
	},
	{
		"id": 432,
		"zip": "4210",
		"name": "Burdinne"
	},
	{
		"id": 433,
		"zip": "6927",
		"name": "Bure"
	},
	{
		"id": 434,
		"zip": "4790",
		"name": "Burg-Reuland"
	},
	{
		"id": 435,
		"zip": "9420",
		"name": "Burst"
	},
	{
		"id": 436,
		"zip": "7602",
		"name": "Bury"
	},
	{
		"id": 437,
		"zip": "4750",
		"name": "Butgenbach"
	},
	{
		"id": 438,
		"zip": "4750",
		"name": "Bütgenbach"
	},
	{
		"id": 439,
		"zip": "3891",
		"name": "Buvingen"
	},
	{
		"id": 440,
		"zip": "7133",
		"name": "Buvrinnes"
	},
	{
		"id": 441,
		"zip": "6743",
		"name": "Buzenol"
	},
	{
		"id": 442,
		"zip": "6230",
		"name": "Buzet"
	},
	{
		"id": 443,
		"zip": "7604",
		"name": "Callenelle"
	},
	{
		"id": 444,
		"zip": "7642",
		"name": "Calonne"
	},
	{
		"id": 445,
		"zip": "7940",
		"name": "Cambron-Casteau"
	},
	{
		"id": 446,
		"zip": "7870",
		"name": "Cambron-Saint-Vincent"
	},
	{
		"id": 447,
		"zip": "6850",
		"name": "Carlsbourg"
	},
	{
		"id": 448,
		"zip": "7141",
		"name": "Carnières"
	},
	{
		"id": 449,
		"zip": "7020",
		"name": "Casteau (Mons)"
	},
	{
		"id": 450,
		"zip": "7061",
		"name": "Casteau (Soignies)"
	},
	{
		"id": 451,
		"zip": "5650",
		"name": "Castillon"
	},
	{
		"id": 452,
		"zip": "7760",
		"name": "Celles (Ht.)"
	},
	{
		"id": 453,
		"zip": "4317",
		"name": "Celles (Lg.)"
	},
	{
		"id": 454,
		"zip": "5561",
		"name": "Celles (Nam.)"
	},
	{
		"id": 455,
		"zip": "4632",
		"name": "Cerexhe-Heuseux"
	},
	{
		"id": 456,
		"zip": "5630",
		"name": "Cerfontaine"
	},
	{
		"id": 457,
		"zip": "1341",
		"name": "Céroux-Mousty"
	},
	{
		"id": 458,
		"zip": "7063",
		"name": "Ch.-Notre-Dame-Louvignies"
	},
	{
		"id": 459,
		"zip": "4650",
		"name": "Chaineux"
	},
	{
		"id": 460,
		"zip": "5550",
		"name": "Chairière"
	},
	{
		"id": 461,
		"zip": "5020",
		"name": "Champion"
	},
	{
		"id": 462,
		"zip": "6971",
		"name": "Champlon"
	},
	{
		"id": 463,
		"zip": "6921",
		"name": "Chanly"
	},
	{
		"id": 464,
		"zip": "6742",
		"name": "Chantemelle"
	},
	{
		"id": 465,
		"zip": "7903",
		"name": "Chapelle-à-Oie"
	},
	{
		"id": 466,
		"zip": "7903",
		"name": "Chapelle-à-Wattines"
	},
	{
		"id": 467,
		"zip": "7160",
		"name": "Chapelle-lez-Herlaimont"
	},
	{
		"id": 468,
		"zip": "4537",
		"name": "Chapon-Seraing"
	},
	{
		"id": 469,
		"zip": "6000",
		"name": "Charleroi"
	},
	{
		"id": 470,
		"zip": "4654",
		"name": "Charneux"
	},
	{
		"id": 471,
		"zip": "6824",
		"name": "Chassepierre"
	},
	{
		"id": 472,
		"zip": "1450",
		"name": "Chastre"
	},
	{
		"id": 473,
		"zip": "5650",
		"name": "Chastrès"
	},
	{
		"id": 474,
		"zip": "1450",
		"name": "Chastre-Villeroux-Blanmont"
	},
	{
		"id": 475,
		"zip": "6200",
		"name": "Châtelet"
	},
	{
		"id": 476,
		"zip": "6200",
		"name": "Châtelineau"
	},
	{
		"id": 477,
		"zip": "6747",
		"name": "Châtillon"
	},
	{
		"id": 478,
		"zip": "4050",
		"name": "Chaudfontaine"
	},
	{
		"id": 479,
		"zip": "1325",
		"name": "Chaumont-Gistoux"
	},
	{
		"id": 480,
		"zip": "4032",
		"name": "Chênée"
	},
	{
		"id": 481,
		"zip": "6673",
		"name": "Cherain"
	},
	{
		"id": 482,
		"zip": "4602",
		"name": "Cheratte"
	},
	{
		"id": 483,
		"zip": "7521",
		"name": "Chercq"
	},
	{
		"id": 484,
		"zip": "5590",
		"name": "Chevetogne"
	},
	{
		"id": 485,
		"zip": "4987",
		"name": "Chevron"
	},
	{
		"id": 486,
		"zip": "7950",
		"name": "Chièvres"
	},
	{
		"id": 487,
		"zip": "6460",
		"name": "Chimay"
	},
	{
		"id": 488,
		"zip": "6810",
		"name": "Chiny"
	},
	{
		"id": 489,
		"zip": "4400",
		"name": "Chokier"
	},
	{
		"id": 490,
		"zip": "5560",
		"name": "Ciergnon"
	},
	{
		"id": 491,
		"zip": "5590",
		"name": "Ciney"
	},
	{
		"id": 492,
		"zip": "4260",
		"name": "Ciplet"
	},
	{
		"id": 493,
		"zip": "7024",
		"name": "Ciply"
	},
	{
		"id": 494,
		"zip": "1480",
		"name": "Clabecq"
	},
	{
		"id": 495,
		"zip": "4560",
		"name": "Clavier"
	},
	{
		"id": 496,
		"zip": "4890",
		"name": "Clermont (Lg.)"
	},
	{
		"id": 497,
		"zip": "5650",
		"name": "Clermont (Nam.)"
	},
	{
		"id": 498,
		"zip": "4480",
		"name": "Clermont-sous-Huy"
	},
	{
		"id": 499,
		"zip": "5022",
		"name": "Cognelée"
	},
	{
		"id": 500,
		"zip": "7340",
		"name": "Colfontaine"
	},
	{
		"id": 501,
		"zip": "4170",
		"name": "Comblain-au-Pont"
	},
	{
		"id": 502,
		"zip": "4180",
		"name": "Comblain-Fairon"
	},
	{
		"id": 503,
		"zip": "4180",
		"name": "Comblain-la-Tour"
	},
	{
		"id": 504,
		"zip": "7780",
		"name": "Comines"
	},
	{
		"id": 505,
		"zip": "7780",
		"name": "Comines-Warneton"
	},
	{
		"id": 506,
		"zip": "5590",
		"name": "Conneux"
	},
	{
		"id": 507,
		"zip": "1435",
		"name": "Corbais"
	},
	{
		"id": 508,
		"zip": "6838",
		"name": "Corbion"
	},
	{
		"id": 509,
		"zip": "7910",
		"name": "Cordes"
	},
	{
		"id": 510,
		"zip": "5620",
		"name": "Corenne"
	},
	{
		"id": 511,
		"zip": "4860",
		"name": "Cornesse"
	},
	{
		"id": 512,
		"zip": "5555",
		"name": "Cornimont"
	},
	{
		"id": 513,
		"zip": "5032",
		"name": "Corroy-le-Château"
	},
	{
		"id": 514,
		"zip": "1325",
		"name": "Corroy-le-Grand"
	},
	{
		"id": 515,
		"zip": "4257",
		"name": "Corswarem"
	},
	{
		"id": 516,
		"zip": "1450",
		"name": "Cortil-Noirmont"
	},
	{
		"id": 517,
		"zip": "5380",
		"name": "Cortil-Wodon"
	},
	{
		"id": 518,
		"zip": "6010",
		"name": "Couillet"
	},
	{
		"id": 519,
		"zip": "6180",
		"name": "Courcelles"
	},
	{
		"id": 520,
		"zip": "5336",
		"name": "Courrière"
	},
	{
		"id": 521,
		"zip": "6120",
		"name": "Cour-sur-Heure"
	},
	{
		"id": 522,
		"zip": "1490",
		"name": "Court-Saint-Etienne"
	},
	{
		"id": 523,
		"zip": "4218",
		"name": "Couthuin"
	},
	{
		"id": 524,
		"zip": "5300",
		"name": "Coutisse"
	},
	{
		"id": 525,
		"zip": "1380",
		"name": "Couture-Saint-Germain"
	},
	{
		"id": 526,
		"zip": "5660",
		"name": "Couvin"
	},
	{
		"id": 527,
		"zip": "4280",
		"name": "Cras-Avernas"
	},
	{
		"id": 528,
		"zip": "4280",
		"name": "Crehen"
	},
	{
		"id": 529,
		"zip": "4367",
		"name": "Crisnée"
	},
	{
		"id": 530,
		"zip": "7120",
		"name": "Croix-lez-Rouveroy"
	},
	{
		"id": 531,
		"zip": "4784",
		"name": "Crombach"
	},
	{
		"id": 532,
		"zip": "5332",
		"name": "Crupet"
	},
	{
		"id": 533,
		"zip": "7033",
		"name": "Cuesmes"
	},
	{
		"id": 534,
		"zip": "6880",
		"name": "Cugnon"
	},
	{
		"id": 535,
		"zip": "5660",
		"name": "Cul-des-Sarts"
	},
	{
		"id": 536,
		"zip": "5562",
		"name": "Custinne"
	},
	{
		"id": 537,
		"zip": "8890",
		"name": "Dadizele"
	},
	{
		"id": 538,
		"zip": "5660",
		"name": "Dailly"
	},
	{
		"id": 539,
		"zip": "9160",
		"name": "Daknam"
	},
	{
		"id": 540,
		"zip": "4607",
		"name": "Dalhem"
	},
	{
		"id": 541,
		"zip": "8340",
		"name": "Damme"
	},
	{
		"id": 542,
		"zip": "6767",
		"name": "Dampicourt"
	},
	{
		"id": 543,
		"zip": "6020",
		"name": "Dampremy"
	},
	{
		"id": 544,
		"zip": "4253",
		"name": "Darion"
	},
	{
		"id": 545,
		"zip": "5630",
		"name": "Daussois"
	},
	{
		"id": 546,
		"zip": "5020",
		"name": "Daussoulx"
	},
	{
		"id": 547,
		"zip": "5100",
		"name": "Dave"
	},
	{
		"id": 548,
		"zip": "6929",
		"name": "Daverdisse"
	},
	{
		"id": 549,
		"zip": "8420",
		"name": "De Haan"
	},
	{
		"id": 550,
		"zip": "9170",
		"name": "De Klinge"
	},
	{
		"id": 551,
		"zip": "8630",
		"name": "De Moeren"
	},
	{
		"id": 552,
		"zip": "8660",
		"name": "De Panne"
	},
	{
		"id": 553,
		"zip": "9840",
		"name": "De Pinte"
	},
	{
		"id": 554,
		"zip": "8540",
		"name": "Deerlijk"
	},
	{
		"id": 555,
		"zip": "9570",
		"name": "Deftinge"
	},
	{
		"id": 556,
		"zip": "9800",
		"name": "Deinze"
	},
	{
		"id": 557,
		"zip": "9280",
		"name": "Denderbelle"
	},
	{
		"id": 558,
		"zip": "9450",
		"name": "Denderhoutem"
	},
	{
		"id": 559,
		"zip": "9470",
		"name": "Denderleeuw"
	},
	{
		"id": 560,
		"zip": "9200",
		"name": "Dendermonde"
	},
	{
		"id": 561,
		"zip": "9400",
		"name": "Denderwindeke"
	},
	{
		"id": 562,
		"zip": "5537",
		"name": "Denée"
	},
	{
		"id": 563,
		"zip": "8720",
		"name": "Dentergem"
	},
	{
		"id": 564,
		"zip": "7912",
		"name": "Dergneau"
	},
	{
		"id": 565,
		"zip": "2480",
		"name": "Dessel"
	},
	{
		"id": 566,
		"zip": "8792",
		"name": "Desselgem"
	},
	{
		"id": 567,
		"zip": "9070",
		"name": "Destelbergen"
	},
	{
		"id": 568,
		"zip": "9831",
		"name": "Deurle"
	},
	{
		"id": 569,
		"zip": "2100",
		"name": "Deurne (Antwerpen)"
	},
	{
		"id": 570,
		"zip": "3290",
		"name": "Deurne (Bt.)"
	},
	{
		"id": 571,
		"zip": "7864",
		"name": "Deux-Acren"
	},
	{
		"id": 572,
		"zip": "5310",
		"name": "Dhuy"
	},
	{
		"id": 573,
		"zip": "1831",
		"name": "Diegem"
	},
	{
		"id": 574,
		"zip": "3590",
		"name": "Diepenbeek"
	},
	{
		"id": 575,
		"zip": "3290",
		"name": "Diest"
	},
	{
		"id": 576,
		"zip": "3700",
		"name": "Diets-Heur"
	},
	{
		"id": 577,
		"zip": "8900",
		"name": "Dikkebus"
	},
	{
		"id": 578,
		"zip": "9630",
		"name": "Dikkele"
	},
	{
		"id": 579,
		"zip": "9890",
		"name": "Dikkelvenne"
	},
	{
		"id": 580,
		"zip": "8600",
		"name": "Diksmuide"
	},
	{
		"id": 581,
		"zip": "1700",
		"name": "Dilbeek"
	},
	{
		"id": 582,
		"zip": "3650",
		"name": "Dilsen"
	},
	{
		"id": 583,
		"zip": "5500",
		"name": "Dinant"
	},
	{
		"id": 584,
		"zip": "5570",
		"name": "Dion"
	},
	{
		"id": 585,
		"zip": "1325",
		"name": "Dion-Valmont"
	},
	{
		"id": 586,
		"zip": "4820",
		"name": "Dison"
	},
	{
		"id": 587,
		"zip": "6960",
		"name": "Dochamps"
	},
	{
		"id": 588,
		"zip": "9130",
		"name": "Doel"
	},
	{
		"id": 589,
		"zip": "6836",
		"name": "Dohan"
	},
	{
		"id": 590,
		"zip": "5680",
		"name": "Doische"
	},
	{
		"id": 591,
		"zip": "4140",
		"name": "Dolembreux"
	},
	{
		"id": 592,
		"zip": "4357",
		"name": "Donceel"
	},
	{
		"id": 593,
		"zip": "1370",
		"name": "Dongelberg"
	},
	{
		"id": 594,
		"zip": "3540",
		"name": "Donk"
	},
	{
		"id": 595,
		"zip": "6536",
		"name": "Donstiennes"
	},
	{
		"id": 596,
		"zip": "5530",
		"name": "Dorinne"
	},
	{
		"id": 597,
		"zip": "3440",
		"name": "Dormaal"
	},
	{
		"id": 598,
		"zip": "7711",
		"name": "Dottenijs"
	},
	{
		"id": 599,
		"zip": "7711",
		"name": "Dottignies"
	},
	{
		"id": 600,
		"zip": "7370",
		"name": "Dour"
	},
	{
		"id": 601,
		"zip": "5670",
		"name": "Dourbes"
	},
	{
		"id": 602,
		"zip": "8951",
		"name": "Dranouter"
	},
	{
		"id": 603,
		"zip": "5500",
		"name": "Dréhance"
	},
	{
		"id": 604,
		"zip": "8600",
		"name": "Driekapellen"
	},
	{
		"id": 605,
		"zip": "3350",
		"name": "Drieslinter"
	},
	{
		"id": 606,
		"zip": "1620",
		"name": "Drogenbos"
	},
	{
		"id": 607,
		"zip": "9031",
		"name": "Drongen"
	},
	{
		"id": 608,
		"zip": "8380",
		"name": "Dudzele"
	},
	{
		"id": 609,
		"zip": "2570",
		"name": "Duffel"
	},
	{
		"id": 610,
		"zip": "3080",
		"name": "Duisburg"
	},
	{
		"id": 611,
		"zip": "3803",
		"name": "Duras"
	},
	{
		"id": 612,
		"zip": "6940",
		"name": "Durbuy"
	},
	{
		"id": 613,
		"zip": "5530",
		"name": "Durnal"
	},
	{
		"id": 614,
		"zip": "1653",
		"name": "Dworp"
	},
	{
		"id": 615,
		"zip": "4690",
		"name": "Eben-Emael"
	},
	{
		"id": 616,
		"zip": "6860",
		"name": "Ebly"
	},
	{
		"id": 617,
		"zip": "7190",
		"name": "Ecaussinnes"
	},
	{
		"id": 618,
		"zip": "7190",
		"name": "Ecaussinnes-d'Enghien"
	},
	{
		"id": 619,
		"zip": "7191",
		"name": "Ecaussinnes-Lalaing"
	},
	{
		"id": 620,
		"zip": "2650",
		"name": "Edegem"
	},
	{
		"id": 621,
		"zip": "9700",
		"name": "Edelare"
	},
	{
		"id": 622,
		"zip": "7850",
		"name": "Edingen"
	},
	{
		"id": 623,
		"zip": "9900",
		"name": "Eeklo"
	},
	{
		"id": 624,
		"zip": "8480",
		"name": "Eernegem"
	},
	{
		"id": 625,
		"zip": "8740",
		"name": "Egem"
	},
	{
		"id": 626,
		"zip": "8630",
		"name": "Eggewaartskapelle"
	},
	{
		"id": 627,
		"zip": "5310",
		"name": "Eghezée"
	},
	{
		"id": 628,
		"zip": "4480",
		"name": "Ehein (Engis)"
	},
	{
		"id": 629,
		"zip": "4120",
		"name": "Ehein (Neupré)"
	},
	{
		"id": 630,
		"zip": "3740",
		"name": "Eigenbilzen"
	},
	{
		"id": 631,
		"zip": "2430",
		"name": "Eindhout"
	},
	{
		"id": 632,
		"zip": "9700",
		"name": "Eine"
	},
	{
		"id": 633,
		"zip": "3630",
		"name": "Eisden"
	},
	{
		"id": 634,
		"zip": "9810",
		"name": "Eke"
	},
	{
		"id": 635,
		"zip": "2180",
		"name": "Ekeren (Antwerpen)"
	},
	{
		"id": 636,
		"zip": "9160",
		"name": "Eksaarde"
	},
	{
		"id": 637,
		"zip": "3941",
		"name": "Eksel"
	},
	{
		"id": 638,
		"zip": "3650",
		"name": "Elen"
	},
	{
		"id": 639,
		"zip": "9620",
		"name": "Elene"
	},
	{
		"id": 640,
		"zip": "1982",
		"name": "Elewijt"
	},
	{
		"id": 641,
		"zip": "3400",
		"name": "Eliksem"
	},
	{
		"id": 642,
		"zip": "1671",
		"name": "Elingen"
	},
	{
		"id": 643,
		"zip": "4590",
		"name": "Ellemelle"
	},
	{
		"id": 644,
		"zip": "7890",
		"name": "Ellezelles"
	},
	{
		"id": 645,
		"zip": "7910",
		"name": "Ellignies-lez-Frasnes"
	},
	{
		"id": 646,
		"zip": "7972",
		"name": "Ellignies-Sainte-Anne"
	},
	{
		"id": 647,
		"zip": "3670",
		"name": "Ellikom"
	},
	{
		"id": 648,
		"zip": "7370",
		"name": "Elouges"
	},
	{
		"id": 649,
		"zip": "9790",
		"name": "Elsegem"
	},
	{
		"id": 650,
		"zip": "4750",
		"name": "Elsenborn"
	},
	{
		"id": 651,
		"zip": "1050",
		"name": "Elsene"
	},
	{
		"id": 652,
		"zip": "9660",
		"name": "Elst"
	},
	{
		"id": 653,
		"zip": "8906",
		"name": "Elverdinge"
	},
	{
		"id": 654,
		"zip": "9140",
		"name": "Elversele"
	},
	{
		"id": 655,
		"zip": "2520",
		"name": "Emblem"
	},
	{
		"id": 656,
		"zip": "4053",
		"name": "Embourg"
	},
	{
		"id": 657,
		"zip": "8870",
		"name": "Emelgem"
	},
	{
		"id": 658,
		"zip": "5080",
		"name": "Emines"
	},
	{
		"id": 659,
		"zip": "5363",
		"name": "Emptinne"
	},
	{
		"id": 660,
		"zip": "9700",
		"name": "Ename"
	},
	{
		"id": 661,
		"zip": "3800",
		"name": "Engelmanshoven"
	},
	{
		"id": 662,
		"zip": "7850",
		"name": "Enghien"
	},
	{
		"id": 663,
		"zip": "4480",
		"name": "Engis"
	},
	{
		"id": 664,
		"zip": "1350",
		"name": "Enines"
	},
	{
		"id": 665,
		"zip": "4800",
		"name": "Ensival"
	},
	{
		"id": 666,
		"zip": "7134",
		"name": "Epinois"
	},
	{
		"id": 667,
		"zip": "1980",
		"name": "Eppegem"
	},
	{
		"id": 668,
		"zip": "5580",
		"name": "Eprave"
	},
	{
		"id": 669,
		"zip": "7050",
		"name": "Erbaut"
	},
	{
		"id": 670,
		"zip": "7050",
		"name": "Erbisoeul"
	},
	{
		"id": 671,
		"zip": "7500",
		"name": "Ere"
	},
	{
		"id": 672,
		"zip": "9320",
		"name": "Erembodegem"
	},
	{
		"id": 673,
		"zip": "6997",
		"name": "Erezée"
	},
	{
		"id": 674,
		"zip": "5644",
		"name": "Ermeton-sur-Biert"
	},
	{
		"id": 675,
		"zip": "5030",
		"name": "Ernage"
	},
	{
		"id": 676,
		"zip": "6972",
		"name": "Erneuville"
	},
	{
		"id": 677,
		"zip": "4920",
		"name": "Ernonheid"
	},
	{
		"id": 678,
		"zip": "9420",
		"name": "Erondegem"
	},
	{
		"id": 679,
		"zip": "9420",
		"name": "Erpe"
	},
	{
		"id": 680,
		"zip": "9420",
		"name": "Erpe-Mere"
	},
	{
		"id": 681,
		"zip": "5101",
		"name": "Erpent"
	},
	{
		"id": 682,
		"zip": "6441",
		"name": "Erpion"
	},
	{
		"id": 683,
		"zip": "3071",
		"name": "Erps-kwerps"
	},
	{
		"id": 684,
		"zip": "6560",
		"name": "Erquelinnes"
	},
	{
		"id": 685,
		"zip": "7387",
		"name": "Erquennes"
	},
	{
		"id": 686,
		"zip": "9940",
		"name": "Ertvelde"
	},
	{
		"id": 687,
		"zip": "9620",
		"name": "Erwetegem"
	},
	{
		"id": 688,
		"zip": "7760",
		"name": "Escanaffles"
	},
	{
		"id": 689,
		"zip": "8600",
		"name": "Esen"
	},
	{
		"id": 690,
		"zip": "4130",
		"name": "Esneux"
	},
	{
		"id": 691,
		"zip": "8587",
		"name": "Espierres"
	},
	{
		"id": 692,
		"zip": "8587",
		"name": "Espierres-Helchin"
	},
	{
		"id": 693,
		"zip": "7502",
		"name": "Esplechin"
	},
	{
		"id": 694,
		"zip": "7743",
		"name": "Esquelmes"
	},
	{
		"id": 695,
		"zip": "2910",
		"name": "Essen"
	},
	{
		"id": 696,
		"zip": "1790",
		"name": "Essene"
	},
	{
		"id": 697,
		"zip": "7730",
		"name": "Estaimbourg"
	},
	{
		"id": 698,
		"zip": "7730",
		"name": "Estaimpuis"
	},
	{
		"id": 699,
		"zip": "7120",
		"name": "Estinnes"
	},
	{
		"id": 700,
		"zip": "7120",
		"name": "Estinnes-au-Mont"
	},
	{
		"id": 701,
		"zip": "7120",
		"name": "Estinnes-au-Val"
	},
	{
		"id": 702,
		"zip": "6740",
		"name": "Etalle"
	},
	{
		"id": 703,
		"zip": "6760",
		"name": "Ethe"
	},
	{
		"id": 704,
		"zip": "9680",
		"name": "Etikhove"
	},
	{
		"id": 705,
		"zip": "8460",
		"name": "Ettelgem"
	},
	{
		"id": 706,
		"zip": "1040",
		"name": "Etterbeek"
	},
	{
		"id": 707,
		"zip": "7340",
		"name": "Eugies (Colfontaine)"
	},
	{
		"id": 708,
		"zip": "7080",
		"name": "Eugies (Frameries)"
	},
	{
		"id": 709,
		"zip": "4700",
		"name": "Eupen"
	},
	{
		"id": 710,
		"zip": "4631",
		"name": "Evegnée"
	},
	{
		"id": 711,
		"zip": "5350",
		"name": "Evelette"
	},
	{
		"id": 712,
		"zip": "9660",
		"name": "Everbeek"
	},
	{
		"id": 713,
		"zip": "3078",
		"name": "Everberg"
	},
	{
		"id": 714,
		"zip": "1140",
		"name": "Evere"
	},
	{
		"id": 715,
		"zip": "9940",
		"name": "Evergem"
	},
	{
		"id": 716,
		"zip": "7730",
		"name": "Evregnies"
	},
	{
		"id": 717,
		"zip": "5530",
		"name": "Evrehailles"
	},
	{
		"id": 718,
		"zip": "4731",
		"name": "Eynatten"
	},
	{
		"id": 719,
		"zip": "3400",
		"name": "Ezemaal"
	},
	{
		"id": 720,
		"zip": "5600",
		"name": "Fagnolle"
	},
	{
		"id": 721,
		"zip": "4317",
		"name": "Faimes"
	},
	{
		"id": 722,
		"zip": "5522",
		"name": "Falaën"
	},
	{
		"id": 723,
		"zip": "5060",
		"name": "Falisolle"
	},
	{
		"id": 724,
		"zip": "4260",
		"name": "Fallais"
	},
	{
		"id": 725,
		"zip": "5500",
		"name": "Falmagne"
	},
	{
		"id": 726,
		"zip": "5500",
		"name": "Falmignoul"
	},
	{
		"id": 727,
		"zip": "7181",
		"name": "Familleureux"
	},
	{
		"id": 728,
		"zip": "6240",
		"name": "Farciennes"
	},
	{
		"id": 729,
		"zip": "5340",
		"name": "Faulx-les-Tombes"
	},
	{
		"id": 730,
		"zip": "7120",
		"name": "Fauroeulx"
	},
	{
		"id": 731,
		"zip": "6637",
		"name": "Fauvillers"
	},
	{
		"id": 732,
		"zip": "4950",
		"name": "Faymonville"
	},
	{
		"id": 733,
		"zip": "6856",
		"name": "Fays-les-Veneurs"
	},
	{
		"id": 734,
		"zip": "7387",
		"name": "Fayt-le-Franc"
	},
	{
		"id": 735,
		"zip": "7170",
		"name": "Fayt-lez-Manage"
	},
	{
		"id": 736,
		"zip": "5570",
		"name": "Felenne"
	},
	{
		"id": 737,
		"zip": "7181",
		"name": "Feluy"
	},
	{
		"id": 738,
		"zip": "4607",
		"name": "Feneur"
	},
	{
		"id": 739,
		"zip": "5380",
		"name": "Fernelmont"
	},
	{
		"id": 740,
		"zip": "4190",
		"name": "Ferrières"
	},
	{
		"id": 741,
		"zip": "5570",
		"name": "Feschaux"
	},
	{
		"id": 742,
		"zip": "4347",
		"name": "Fexhe-le-Haut-Clocher"
	},
	{
		"id": 743,
		"zip": "4458",
		"name": "Fexhe-Slins"
	},
	{
		"id": 744,
		"zip": "4181",
		"name": "Filot"
	},
	{
		"id": 745,
		"zip": "5560",
		"name": "Finnevaux"
	},
	{
		"id": 746,
		"zip": "4530",
		"name": "Fize-Fontaine"
	},
	{
		"id": 747,
		"zip": "4367",
		"name": "Fize-le-Marsal"
	},
	{
		"id": 748,
		"zip": "6686",
		"name": "Flamierge"
	},
	{
		"id": 749,
		"zip": "5620",
		"name": "Flavion"
	},
	{
		"id": 750,
		"zip": "5020",
		"name": "Flawinne"
	},
	{
		"id": 751,
		"zip": "4400",
		"name": "Flémalle"
	},
	{
		"id": 752,
		"zip": "4400",
		"name": "Flémalle-Grande"
	},
	{
		"id": 753,
		"zip": "4400",
		"name": "Flémalle-Haute"
	},
	{
		"id": 754,
		"zip": "7012",
		"name": "Flénu"
	},
	{
		"id": 755,
		"zip": "4620",
		"name": "Fléron"
	},
	{
		"id": 756,
		"zip": "6220",
		"name": "Fleurus"
	},
	{
		"id": 757,
		"zip": "7880",
		"name": "Flobecq"
	},
	{
		"id": 758,
		"zip": "4540",
		"name": "Flône"
	},
	{
		"id": 759,
		"zip": "5334",
		"name": "Florée"
	},
	{
		"id": 760,
		"zip": "5150",
		"name": "Floreffe"
	},
	{
		"id": 761,
		"zip": "5620",
		"name": "Florennes"
	},
	{
		"id": 762,
		"zip": "6820",
		"name": "Florenville"
	},
	{
		"id": 763,
		"zip": "5150",
		"name": "Floriffoux"
	},
	{
		"id": 764,
		"zip": "5370",
		"name": "Flostoy"
	},
	{
		"id": 765,
		"zip": "5572",
		"name": "Focant"
	},
	{
		"id": 766,
		"zip": "1350",
		"name": "Folx-les-Caves"
	},
	{
		"id": 767,
		"zip": "6140",
		"name": "Fontaine-l'Evêque"
	},
	{
		"id": 768,
		"zip": "6567",
		"name": "Fontaine-Valmont"
	},
	{
		"id": 769,
		"zip": "5650",
		"name": "Fontenelle"
	},
	{
		"id": 770,
		"zip": "6820",
		"name": "Fontenoille"
	},
	{
		"id": 771,
		"zip": "7643",
		"name": "Fontenoy"
	},
	{
		"id": 772,
		"zip": "4340",
		"name": "Fooz"
	},
	{
		"id": 773,
		"zip": "6141",
		"name": "Forchies-la-Marche"
	},
	{
		"id": 774,
		"zip": "1190",
		"name": "Forest"
	},
	{
		"id": 775,
		"zip": "7910",
		"name": "Forest (Ht.)"
	},
	{
		"id": 776,
		"zip": "4870",
		"name": "Forêt"
	},
	{
		"id": 777,
		"zip": "6596",
		"name": "Forge-Philippe"
	},
	{
		"id": 778,
		"zip": "6464",
		"name": "Forges"
	},
	{
		"id": 779,
		"zip": "6953",
		"name": "Forrières"
	},
	{
		"id": 780,
		"zip": "5380",
		"name": "Forville"
	},
	{
		"id": 781,
		"zip": "4980",
		"name": "Fosse (Lg.)"
	},
	{
		"id": 782,
		"zip": "5070",
		"name": "Fosses-la-Ville"
	},
	{
		"id": 783,
		"zip": "7830",
		"name": "Fouleng"
	},
	{
		"id": 784,
		"zip": "6440",
		"name": "Fourbechies"
	},
	{
		"id": 785,
		"zip": "3798",
		"name": "Fouron-le-Comte"
	},
	{
		"id": 786,
		"zip": "3790",
		"name": "Fourons"
	},
	{
		"id": 787,
		"zip": "3790",
		"name": "Fouron-Saint-Martin"
	},
	{
		"id": 788,
		"zip": "3792",
		"name": "Fouron-Saint-Pierre"
	},
	{
		"id": 789,
		"zip": "5504",
		"name": "Foy-Notre-Dame"
	},
	{
		"id": 790,
		"zip": "4870",
		"name": "Fraipont"
	},
	{
		"id": 791,
		"zip": "5650",
		"name": "Fraire"
	},
	{
		"id": 792,
		"zip": "4557",
		"name": "Fraiture"
	},
	{
		"id": 793,
		"zip": "7080",
		"name": "Frameries"
	},
	{
		"id": 794,
		"zip": "6853",
		"name": "Framont"
	},
	{
		"id": 795,
		"zip": "5600",
		"name": "Franchimont"
	},
	{
		"id": 796,
		"zip": "4970",
		"name": "Francorchamps"
	},
	{
		"id": 797,
		"zip": "5380",
		"name": "Franc-Waret"
	},
	{
		"id": 798,
		"zip": "5150",
		"name": "Franière"
	},
	{
		"id": 799,
		"zip": "5660",
		"name": "Frasnes (Nam.)"
	},
	{
		"id": 800,
		"zip": "7911",
		"name": "Frasnes-lez-Buissenal"
	},
	{
		"id": 801,
		"zip": "6210",
		"name": "Frasnes-lez-Gosselies"
	},
	{
		"id": 802,
		"zip": "4347",
		"name": "Freloux"
	},
	{
		"id": 803,
		"zip": "6800",
		"name": "Freux"
	},
	{
		"id": 804,
		"zip": "6440",
		"name": "Froidchapelle"
	},
	{
		"id": 805,
		"zip": "5576",
		"name": "Froidfontaine"
	},
	{
		"id": 806,
		"zip": "7504",
		"name": "Froidmont"
	},
	{
		"id": 807,
		"zip": "6990",
		"name": "Fronville"
	},
	{
		"id": 808,
		"zip": "7503",
		"name": "Froyennes"
	},
	{
		"id": 809,
		"zip": "4260",
		"name": "Fumal"
	},
	{
		"id": 810,
		"zip": "5500",
		"name": "Furfooz"
	},
	{
		"id": 811,
		"zip": "5641",
		"name": "Furnaux"
	},
	{
		"id": 812,
		"zip": "1750",
		"name": "Gaasbeek"
	},
	{
		"id": 813,
		"zip": "7943",
		"name": "Gages"
	},
	{
		"id": 814,
		"zip": "7906",
		"name": "Gallaix"
	},
	{
		"id": 815,
		"zip": "1570",
		"name": "Galmaarden"
	},
	{
		"id": 816,
		"zip": "1083",
		"name": "Ganshoren"
	},
	{
		"id": 817,
		"zip": "7530",
		"name": "Gaurain-Ramecroix"
	},
	{
		"id": 818,
		"zip": "9890",
		"name": "Gavere"
	},
	{
		"id": 819,
		"zip": "5575",
		"name": "Gedinne"
	},
	{
		"id": 820,
		"zip": "2440",
		"name": "Geel"
	},
	{
		"id": 821,
		"zip": "4250",
		"name": "Geer"
	},
	{
		"id": 822,
		"zip": "1367",
		"name": "Geest-Gérompont-Pt-Rosière"
	},
	{
		"id": 823,
		"zip": "3450",
		"name": "Geetbets"
	},
	{
		"id": 824,
		"zip": "5024",
		"name": "Gelbressée"
	},
	{
		"id": 825,
		"zip": "3800",
		"name": "Gelinden"
	},
	{
		"id": 826,
		"zip": "3620",
		"name": "Gellik"
	},
	{
		"id": 827,
		"zip": "3200",
		"name": "Gelrode"
	},
	{
		"id": 828,
		"zip": "8980",
		"name": "Geluveld"
	},
	{
		"id": 829,
		"zip": "8940",
		"name": "Geluwe"
	},
	{
		"id": 830,
		"zip": "6929",
		"name": "Gembes"
	},
	{
		"id": 831,
		"zip": "5030",
		"name": "Gembloux"
	},
	{
		"id": 832,
		"zip": "4851",
		"name": "Gemmenich"
	},
	{
		"id": 833,
		"zip": "1470",
		"name": "Genappe"
	},
	{
		"id": 834,
		"zip": "3600",
		"name": "Genk"
	},
	{
		"id": 835,
		"zip": "7040",
		"name": "Genly"
	},
	{
		"id": 836,
		"zip": "3770",
		"name": "Genoelselderen"
	},
	{
		"id": 837,
		"zip": "9000",
		"name": "Gent"
	},
	{
		"id": 838,
		"zip": "9050",
		"name": "Gentbrugge"
	},
	{
		"id": 839,
		"zip": "1450",
		"name": "Gentinnes"
	},
	{
		"id": 840,
		"zip": "1332",
		"name": "Genval"
	},
	{
		"id": 841,
		"zip": "9500",
		"name": "Geraardsbergen"
	},
	{
		"id": 842,
		"zip": "3960",
		"name": "Gerdingen"
	},
	{
		"id": 843,
		"zip": "5524",
		"name": "Gerin"
	},
	{
		"id": 844,
		"zip": "1367",
		"name": "Gérompont"
	},
	{
		"id": 845,
		"zip": "6769",
		"name": "Gérouville"
	},
	{
		"id": 846,
		"zip": "6280",
		"name": "Gerpinnes"
	},
	{
		"id": 847,
		"zip": "2590",
		"name": "Gestel"
	},
	{
		"id": 848,
		"zip": "5340",
		"name": "Gesves"
	},
	{
		"id": 849,
		"zip": "7822",
		"name": "Ghislenghien"
	},
	{
		"id": 850,
		"zip": "7011",
		"name": "Ghlin"
	},
	{
		"id": 851,
		"zip": "7863",
		"name": "Ghoy"
	},
	{
		"id": 852,
		"zip": "7823",
		"name": "Gibecq"
	},
	{
		"id": 853,
		"zip": "2275",
		"name": "Gierle"
	},
	{
		"id": 854,
		"zip": "8691",
		"name": "Gijverinkhove"
	},
	{
		"id": 855,
		"zip": "9308",
		"name": "Gijzegem"
	},
	{
		"id": 856,
		"zip": "8570",
		"name": "Gijzelbrechtegem"
	},
	{
		"id": 857,
		"zip": "9860",
		"name": "Gijzenzele"
	},
	{
		"id": 858,
		"zip": "6060",
		"name": "Gilly (Charleroi)"
	},
	{
		"id": 859,
		"zip": "5680",
		"name": "Gimnée"
	},
	{
		"id": 860,
		"zip": "3890",
		"name": "Gingelom"
	},
	{
		"id": 861,
		"zip": "8470",
		"name": "Gistel"
	},
	{
		"id": 862,
		"zip": "8830",
		"name": "Gits"
	},
	{
		"id": 863,
		"zip": "7041",
		"name": "Givry"
	},
	{
		"id": 864,
		"zip": "1473",
		"name": "Glabais"
	},
	{
		"id": 865,
		"zip": "3380",
		"name": "Glabbeek(Zuurbemde)"
	},
	{
		"id": 866,
		"zip": "4000",
		"name": "Glain"
	},
	{
		"id": 867,
		"zip": "4400",
		"name": "Gleixhe"
	},
	{
		"id": 868,
		"zip": "1315",
		"name": "Glimes"
	},
	{
		"id": 869,
		"zip": "4690",
		"name": "Glons"
	},
	{
		"id": 870,
		"zip": "5680",
		"name": "Gochenée"
	},
	{
		"id": 871,
		"zip": "7160",
		"name": "Godarville"
	},
	{
		"id": 872,
		"zip": "5530",
		"name": "Godinne"
	},
	{
		"id": 873,
		"zip": "9620",
		"name": "Godveerdegem"
	},
	{
		"id": 874,
		"zip": "4834",
		"name": "Goé"
	},
	{
		"id": 875,
		"zip": "9500",
		"name": "Goeferdinge"
	},
	{
		"id": 876,
		"zip": "7040",
		"name": "Goegnies-Chaussée"
	},
	{
		"id": 877,
		"zip": "5353",
		"name": "Goesnes"
	},
	{
		"id": 878,
		"zip": "3300",
		"name": "Goetsenhoven"
	},
	{
		"id": 879,
		"zip": "4140",
		"name": "Gomze-Andoumont"
	},
	{
		"id": 880,
		"zip": "7830",
		"name": "Gondregnies"
	},
	{
		"id": 881,
		"zip": "5660",
		"name": "Gonrieux"
	},
	{
		"id": 882,
		"zip": "9090",
		"name": "Gontrode"
	},
	{
		"id": 883,
		"zip": "1755",
		"name": "Gooik"
	},
	{
		"id": 884,
		"zip": "3803",
		"name": "Gorsem"
	},
	{
		"id": 885,
		"zip": "3840",
		"name": "Gors-Opleeuw"
	},
	{
		"id": 886,
		"zip": "6041",
		"name": "Gosselies"
	},
	{
		"id": 887,
		"zip": "3840",
		"name": "Gotem"
	},
	{
		"id": 888,
		"zip": "9800",
		"name": "Gottem"
	},
	{
		"id": 889,
		"zip": "7070",
		"name": "Gottignies"
	},
	{
		"id": 890,
		"zip": "6280",
		"name": "Gougnies"
	},
	{
		"id": 891,
		"zip": "5651",
		"name": "Gourdinne"
	},
	{
		"id": 892,
		"zip": "6030",
		"name": "Goutroux"
	},
	{
		"id": 893,
		"zip": "6670",
		"name": "Gouvy"
	},
	{
		"id": 894,
		"zip": "6181",
		"name": "Gouy-lez-Piéton"
	},
	{
		"id": 895,
		"zip": "6534",
		"name": "Gozée"
	},
	{
		"id": 896,
		"zip": "4460",
		"name": "Grâce-Berleur"
	},
	{
		"id": 897,
		"zip": "4460",
		"name": "Grâce-Hollogne"
	},
	{
		"id": 898,
		"zip": "5555",
		"name": "Graide"
	},
	{
		"id": 899,
		"zip": "9800",
		"name": "Grammene"
	},
	{
		"id": 900,
		"zip": "4300",
		"name": "Grand-Axhe"
	},
	{
		"id": 901,
		"zip": "7973",
		"name": "Grandglise"
	},
	{
		"id": 902,
		"zip": "4280",
		"name": "Grand-Hallet"
	},
	{
		"id": 903,
		"zip": "6698",
		"name": "Grand-Halleux"
	},
	{
		"id": 904,
		"zip": "6940",
		"name": "Grandhan"
	},
	{
		"id": 905,
		"zip": "5031",
		"name": "Grand-Leez"
	},
	{
		"id": 906,
		"zip": "5030",
		"name": "Grand-Manil"
	},
	{
		"id": 907,
		"zip": "6960",
		"name": "Grandmenil"
	},
	{
		"id": 908,
		"zip": "7900",
		"name": "Grandmetz"
	},
	{
		"id": 909,
		"zip": "4650",
		"name": "Grand-Rechain"
	},
	{
		"id": 910,
		"zip": "6560",
		"name": "Grand-Reng"
	},
	{
		"id": 911,
		"zip": "6470",
		"name": "Grandrieu"
	},
	{
		"id": 912,
		"zip": "1367",
		"name": "Grand-Rosière-Hottomont"
	},
	{
		"id": 913,
		"zip": "4360",
		"name": "Grandville"
	},
	{
		"id": 914,
		"zip": "6840",
		"name": "Grandvoir"
	},
	{
		"id": 915,
		"zip": "6840",
		"name": "Grapfontaine"
	},
	{
		"id": 916,
		"zip": "7830",
		"name": "Graty"
	},
	{
		"id": 917,
		"zip": "5640",
		"name": "Graux"
	},
	{
		"id": 918,
		"zip": "3450",
		"name": "Grazen"
	},
	{
		"id": 919,
		"zip": "9200",
		"name": "Grembergen"
	},
	{
		"id": 920,
		"zip": "1390",
		"name": "Grez-Doiceau"
	},
	{
		"id": 921,
		"zip": "1850",
		"name": "Grimbergen"
	},
	{
		"id": 922,
		"zip": "9506",
		"name": "Grimminge"
	},
	{
		"id": 923,
		"zip": "4030",
		"name": "Grivegnée (Liège)"
	},
	{
		"id": 924,
		"zip": "2280",
		"name": "Grobbendonk"
	},
	{
		"id": 925,
		"zip": "1702",
		"name": "Groot-Bijgaarden"
	},
	{
		"id": 926,
		"zip": "3800",
		"name": "Groot-Gelmen"
	},
	{
		"id": 927,
		"zip": "3840",
		"name": "Groot-Loon"
	},
	{
		"id": 928,
		"zip": "7950",
		"name": "Grosage"
	},
	{
		"id": 929,
		"zip": "5555",
		"name": "Gros-Fays"
	},
	{
		"id": 930,
		"zip": "3990",
		"name": "Grote-Brogel"
	},
	{
		"id": 931,
		"zip": "9620",
		"name": "Grotenberge"
	},
	{
		"id": 932,
		"zip": "3740",
		"name": "Grote-Spouwen"
	},
	{
		"id": 933,
		"zip": "3670",
		"name": "Gruitrode"
	},
	{
		"id": 934,
		"zip": "6952",
		"name": "Grune"
	},
	{
		"id": 935,
		"zip": "6927",
		"name": "Grupont"
	},
	{
		"id": 936,
		"zip": "7620",
		"name": "Guignies"
	},
	{
		"id": 937,
		"zip": "3723",
		"name": "Guigoven"
	},
	{
		"id": 938,
		"zip": "6704",
		"name": "Guirsch"
	},
	{
		"id": 939,
		"zip": "8560",
		"name": "Gullegem"
	},
	{
		"id": 940,
		"zip": "3870",
		"name": "Gutschoven"
	},
	{
		"id": 941,
		"zip": "3150",
		"name": "Haacht"
	},
	{
		"id": 942,
		"zip": "9450",
		"name": "Haaltert"
	},
	{
		"id": 943,
		"zip": "9120",
		"name": "Haasdonk"
	},
	{
		"id": 944,
		"zip": "3053",
		"name": "Haasrode"
	},
	{
		"id": 945,
		"zip": "6720",
		"name": "Habay"
	},
	{
		"id": 946,
		"zip": "6720",
		"name": "Habay-la-Neuve"
	},
	{
		"id": 947,
		"zip": "6723",
		"name": "Habay-la-Vieille"
	},
	{
		"id": 948,
		"zip": "6782",
		"name": "Habergy"
	},
	{
		"id": 949,
		"zip": "4684",
		"name": "Haccourt"
	},
	{
		"id": 950,
		"zip": "6720",
		"name": "Hachy"
	},
	{
		"id": 951,
		"zip": "7911",
		"name": "Hacquegnies"
	},
	{
		"id": 952,
		"zip": "5351",
		"name": "Haillot"
	},
	{
		"id": 953,
		"zip": "7100",
		"name": "Haine-Saint-Paul"
	},
	{
		"id": 954,
		"zip": "7100",
		"name": "Haine-Saint-Pierre"
	},
	{
		"id": 955,
		"zip": "7350",
		"name": "Hainin"
	},
	{
		"id": 956,
		"zip": "3300",
		"name": "Hakendover"
	},
	{
		"id": 957,
		"zip": "6792",
		"name": "Halanzy"
	},
	{
		"id": 958,
		"zip": "3545",
		"name": "Halen"
	},
	{
		"id": 959,
		"zip": "2220",
		"name": "Hallaar"
	},
	{
		"id": 960,
		"zip": "1500",
		"name": "Halle"
	},
	{
		"id": 961,
		"zip": "2980",
		"name": "Halle (Kempen)"
	},
	{
		"id": 962,
		"zip": "3440",
		"name": "Halle-Booienhoven"
	},
	{
		"id": 963,
		"zip": "6986",
		"name": "Halleux"
	},
	{
		"id": 964,
		"zip": "6922",
		"name": "Halma"
	},
	{
		"id": 965,
		"zip": "3800",
		"name": "Halmaal"
	},
	{
		"id": 966,
		"zip": "5340",
		"name": "Haltinne"
	},
	{
		"id": 967,
		"zip": "3945",
		"name": "Ham"
	},
	{
		"id": 968,
		"zip": "6840",
		"name": "Hamipré"
	},
	{
		"id": 969,
		"zip": "1785",
		"name": "Hamme (Bt.)"
	},
	{
		"id": 970,
		"zip": "9220",
		"name": "Hamme (O.-Vl.)"
	},
	{
		"id": 971,
		"zip": "1320",
		"name": "Hamme-Mille"
	},
	{
		"id": 972,
		"zip": "4180",
		"name": "Hamoir"
	},
	{
		"id": 973,
		"zip": "5360",
		"name": "Hamois"
	},
	{
		"id": 974,
		"zip": "3930",
		"name": "Hamont"
	},
	{
		"id": 975,
		"zip": "3930",
		"name": "Hamont-Achel"
	},
	{
		"id": 976,
		"zip": "6990",
		"name": "Hampteau"
	},
	{
		"id": 977,
		"zip": "6120",
		"name": "Ham-sur-Heure"
	},
	{
		"id": 978,
		"zip": "6120",
		"name": "Ham-sur-Heure/Nalinnes"
	},
	{
		"id": 979,
		"zip": "5190",
		"name": "Ham-sur-Sambre"
	},
	{
		"id": 980,
		"zip": "8610",
		"name": "Handzame"
	},
	{
		"id": 981,
		"zip": "4357",
		"name": "Haneffe"
	},
	{
		"id": 982,
		"zip": "4210",
		"name": "Hannêche"
	},
	{
		"id": 983,
		"zip": "4280",
		"name": "Hannut"
	},
	{
		"id": 984,
		"zip": "5310",
		"name": "Hanret"
	},
	{
		"id": 985,
		"zip": "9850",
		"name": "Hansbeke"
	},
	{
		"id": 986,
		"zip": "5580",
		"name": "Han-sur-Lesse"
	},
	{
		"id": 987,
		"zip": "6560",
		"name": "Hantes-Wihéries"
	},
	{
		"id": 988,
		"zip": "5621",
		"name": "Hanzinelle"
	},
	{
		"id": 989,
		"zip": "5621",
		"name": "Hanzinne"
	},
	{
		"id": 990,
		"zip": "7321",
		"name": "Harchies"
	},
	{
		"id": 991,
		"zip": "8530",
		"name": "Harelbeke"
	},
	{
		"id": 992,
		"zip": "3840",
		"name": "Haren (Borgloon)"
	},
	{
		"id": 993,
		"zip": "3700",
		"name": "Haren (Tongeren)"
	},
	{
		"id": 994,
		"zip": "6900",
		"name": "Hargimont"
	},
	{
		"id": 995,
		"zip": "7022",
		"name": "Harmignies"
	},
	{
		"id": 996,
		"zip": "6767",
		"name": "Harnoncourt"
	},
	{
		"id": 997,
		"zip": "6960",
		"name": "Harre"
	},
	{
		"id": 998,
		"zip": "6950",
		"name": "Harsin"
	},
	{
		"id": 999,
		"zip": "7022",
		"name": "Harveng"
	},
	{
		"id": 1000,
		"zip": "4920",
		"name": "Harzé"
	},
	{
		"id": 1001,
		"zip": "3500",
		"name": "Hasselt"
	},
	{
		"id": 1002,
		"zip": "5540",
		"name": "Hastière"
	},
	{
		"id": 1003,
		"zip": "5540",
		"name": "Hastière-Lavaux"
	},
	{
		"id": 1004,
		"zip": "5541",
		"name": "Hastière-par-Delà"
	},
	{
		"id": 1005,
		"zip": "6870",
		"name": "Hatrival"
	},
	{
		"id": 1006,
		"zip": "7120",
		"name": "Haulchin"
	},
	{
		"id": 1007,
		"zip": "4730",
		"name": "Hauset"
	},
	{
		"id": 1008,
		"zip": "6929",
		"name": "Haut-Fays"
	},
	{
		"id": 1009,
		"zip": "1461",
		"name": "Haut-Ittre"
	},
	{
		"id": 1010,
		"zip": "5537",
		"name": "Haut-le-Wastia"
	},
	{
		"id": 1011,
		"zip": "7334",
		"name": "Hautrage"
	},
	{
		"id": 1012,
		"zip": "7041",
		"name": "Havay"
	},
	{
		"id": 1013,
		"zip": "5370",
		"name": "Havelange"
	},
	{
		"id": 1014,
		"zip": "5590",
		"name": "Haversin"
	},
	{
		"id": 1015,
		"zip": "7531",
		"name": "Havinnes"
	},
	{
		"id": 1016,
		"zip": "7021",
		"name": "Havré"
	},
	{
		"id": 1017,
		"zip": "3940",
		"name": "Hechtel"
	},
	{
		"id": 1018,
		"zip": "5543",
		"name": "Heer"
	},
	{
		"id": 1019,
		"zip": "3870",
		"name": "Heers"
	},
	{
		"id": 1020,
		"zip": "3740",
		"name": "Hees"
	},
	{
		"id": 1021,
		"zip": "8551",
		"name": "Heestert"
	},
	{
		"id": 1022,
		"zip": "2801",
		"name": "Heffen"
	},
	{
		"id": 1023,
		"zip": "1670",
		"name": "Heikruis"
	},
	{
		"id": 1024,
		"zip": "2830",
		"name": "Heindonk"
	},
	{
		"id": 1025,
		"zip": "6700",
		"name": "Heinsch"
	},
	{
		"id": 1026,
		"zip": "8301",
		"name": "Heist-aan-Zee"
	},
	{
		"id": 1027,
		"zip": "2220",
		"name": "Heist-Op-Den-Berg"
	},
	{
		"id": 1028,
		"zip": "1790",
		"name": "Hekelgem"
	},
	{
		"id": 1029,
		"zip": "3870",
		"name": "Heks"
	},
	{
		"id": 1030,
		"zip": "8587",
		"name": "Helchin"
	},
	{
		"id": 1031,
		"zip": "3530",
		"name": "Helchteren"
	},
	{
		"id": 1032,
		"zip": "9450",
		"name": "Heldergem"
	},
	{
		"id": 1033,
		"zip": "1357",
		"name": "Hélécine"
	},
	{
		"id": 1034,
		"zip": "3440",
		"name": "Helen-Bos"
	},
	{
		"id": 1035,
		"zip": "8587",
		"name": "Helkijn"
	},
	{
		"id": 1036,
		"zip": "7830",
		"name": "Hellebecq"
	},
	{
		"id": 1037,
		"zip": "9571",
		"name": "Hemelveerdegem"
	},
	{
		"id": 1038,
		"zip": "2620",
		"name": "Hemiksem"
	},
	{
		"id": 1039,
		"zip": "5380",
		"name": "Hemptinne (Fernelmont)"
	},
	{
		"id": 1040,
		"zip": "5620",
		"name": "Hemptinne-lez-Florennes"
	},
	{
		"id": 1041,
		"zip": "3840",
		"name": "Hendrieken"
	},
	{
		"id": 1042,
		"zip": "3700",
		"name": "Henis"
	},
	{
		"id": 1043,
		"zip": "7090",
		"name": "Hennuyères"
	},
	{
		"id": 1044,
		"zip": "4841",
		"name": "Henri-Chapelle"
	},
	{
		"id": 1045,
		"zip": "7090",
		"name": "Henripont"
	},
	{
		"id": 1046,
		"zip": "7350",
		"name": "Hensies"
	},
	{
		"id": 1047,
		"zip": "3971",
		"name": "Heppen"
	},
	{
		"id": 1048,
		"zip": "4771",
		"name": "Heppenbach"
	},
	{
		"id": 1049,
		"zip": "6220",
		"name": "Heppignies"
	},
	{
		"id": 1050,
		"zip": "6887",
		"name": "Herbeumont"
	},
	{
		"id": 1051,
		"zip": "7050",
		"name": "Herchies"
	},
	{
		"id": 1052,
		"zip": "3770",
		"name": "Herderen"
	},
	{
		"id": 1053,
		"zip": "9310",
		"name": "Herdersem"
	},
	{
		"id": 1054,
		"zip": "3020",
		"name": "Herent"
	},
	{
		"id": 1055,
		"zip": "2200",
		"name": "Herentals"
	},
	{
		"id": 1056,
		"zip": "2270",
		"name": "Herenthout"
	},
	{
		"id": 1057,
		"zip": "1540",
		"name": "Herfelingen"
	},
	{
		"id": 1058,
		"zip": "4728",
		"name": "Hergenrath"
	},
	{
		"id": 1059,
		"zip": "7742",
		"name": "Hérinnes-lez-Pecq"
	},
	{
		"id": 1060,
		"zip": "3540",
		"name": "Herk-de-Stad"
	},
	{
		"id": 1061,
		"zip": "4681",
		"name": "Hermalle-sous-Argenteau"
	},
	{
		"id": 1062,
		"zip": "4480",
		"name": "Hermalle-sous-Huy"
	},
	{
		"id": 1063,
		"zip": "4680",
		"name": "Hermée"
	},
	{
		"id": 1064,
		"zip": "5540",
		"name": "Hermeton-sur-Meuse"
	},
	{
		"id": 1065,
		"zip": "1540",
		"name": "Herne"
	},
	{
		"id": 1066,
		"zip": "4217",
		"name": "Héron"
	},
	{
		"id": 1067,
		"zip": "7911",
		"name": "Herquegies"
	},
	{
		"id": 1068,
		"zip": "7712",
		"name": "Herseaux"
	},
	{
		"id": 1069,
		"zip": "2230",
		"name": "Herselt"
	},
	{
		"id": 1070,
		"zip": "4040",
		"name": "Herstal"
	},
	{
		"id": 1071,
		"zip": "3717",
		"name": "Herstappe"
	},
	{
		"id": 1072,
		"zip": "7522",
		"name": "Hertain"
	},
	{
		"id": 1073,
		"zip": "3831",
		"name": "Herten"
	},
	{
		"id": 1074,
		"zip": "8020",
		"name": "Hertsberge"
	},
	{
		"id": 1075,
		"zip": "4650",
		"name": "Herve"
	},
	{
		"id": 1076,
		"zip": "9550",
		"name": "Herzele"
	},
	{
		"id": 1077,
		"zip": "8501",
		"name": "Heule"
	},
	{
		"id": 1078,
		"zip": "5377",
		"name": "Heure (Nam.)"
	},
	{
		"id": 1079,
		"zip": "4682",
		"name": "Heure-le-Romain"
	},
	{
		"id": 1080,
		"zip": "9700",
		"name": "Heurne"
	},
	{
		"id": 1081,
		"zip": "3550",
		"name": "Heusden (Limb.)"
	},
	{
		"id": 1082,
		"zip": "9070",
		"name": "Heusden (O.-Vl.)"
	},
	{
		"id": 1083,
		"zip": "3550",
		"name": "Heusden-Zolder"
	},
	{
		"id": 1084,
		"zip": "4802",
		"name": "Heusy"
	},
	{
		"id": 1085,
		"zip": "3191",
		"name": "Hever"
	},
	{
		"id": 1086,
		"zip": "3001",
		"name": "Heverlee"
	},
	{
		"id": 1087,
		"zip": "1435",
		"name": "Hévillers"
	},
	{
		"id": 1088,
		"zip": "6941",
		"name": "Heyd"
	},
	{
		"id": 1089,
		"zip": "9550",
		"name": "Hillegem"
	},
	{
		"id": 1090,
		"zip": "2880",
		"name": "Hingene"
	},
	{
		"id": 1091,
		"zip": "5380",
		"name": "Hingeon"
	},
	{
		"id": 1092,
		"zip": "6984",
		"name": "Hives"
	},
	{
		"id": 1093,
		"zip": "2660",
		"name": "Hoboken (Antwerpen)"
	},
	{
		"id": 1094,
		"zip": "4351",
		"name": "Hodeige"
	},
	{
		"id": 1095,
		"zip": "6987",
		"name": "Hodister"
	},
	{
		"id": 1096,
		"zip": "4162",
		"name": "Hody"
	},
	{
		"id": 1097,
		"zip": "3320",
		"name": "Hoegaarden"
	},
	{
		"id": 1098,
		"zip": "1560",
		"name": "Hoeilaart"
	},
	{
		"id": 1099,
		"zip": "8340",
		"name": "Hoeke"
	},
	{
		"id": 1100,
		"zip": "3746",
		"name": "Hoelbeek"
	},
	{
		"id": 1101,
		"zip": "3471",
		"name": "Hoeleden"
	},
	{
		"id": 1102,
		"zip": "3840",
		"name": "Hoepertingen"
	},
	{
		"id": 1103,
		"zip": "3730",
		"name": "Hoeselt"
	},
	{
		"id": 1104,
		"zip": "2940",
		"name": "Hoevenen"
	},
	{
		"id": 1105,
		"zip": "1981",
		"name": "Hofstade (Bt.)"
	},
	{
		"id": 1106,
		"zip": "9308",
		"name": "Hofstade (O.-Vl.)"
	},
	{
		"id": 1107,
		"zip": "5377",
		"name": "Hogne"
	},
	{
		"id": 1108,
		"zip": "4342",
		"name": "Hognoul"
	},
	{
		"id": 1109,
		"zip": "7620",
		"name": "Hollain"
	},
	{
		"id": 1110,
		"zip": "6637",
		"name": "Hollange"
	},
	{
		"id": 1111,
		"zip": "8902",
		"name": "Hollebeke"
	},
	{
		"id": 1112,
		"zip": "4460",
		"name": "Hollogne-aux-Pierres"
	},
	{
		"id": 1113,
		"zip": "4250",
		"name": "Hollogne-sur-Geer"
	},
	{
		"id": 1114,
		"zip": "3220",
		"name": "Holsbeek"
	},
	{
		"id": 1115,
		"zip": "2811",
		"name": "Hombeek"
	},
	{
		"id": 1116,
		"zip": "4852",
		"name": "Hombourg"
	},
	{
		"id": 1117,
		"zip": "6640",
		"name": "Hompré"
	},
	{
		"id": 1118,
		"zip": "6780",
		"name": "Hondelange"
	},
	{
		"id": 1119,
		"zip": "5570",
		"name": "Honnay"
	},
	{
		"id": 1120,
		"zip": "7387",
		"name": "Honnelles"
	},
	{
		"id": 1121,
		"zip": "8830",
		"name": "Hooglede"
	},
	{
		"id": 1122,
		"zip": "8690",
		"name": "Hoogstade"
	},
	{
		"id": 1123,
		"zip": "2320",
		"name": "Hoogstraten"
	},
	{
		"id": 1124,
		"zip": "9667",
		"name": "Horebeke"
	},
	{
		"id": 1125,
		"zip": "4460",
		"name": "Horion-Hozémont"
	},
	{
		"id": 1126,
		"zip": "7301",
		"name": "Hornu"
	},
	{
		"id": 1127,
		"zip": "3870",
		"name": "Horpmaal"
	},
	{
		"id": 1128,
		"zip": "7060",
		"name": "Horrues"
	},
	{
		"id": 1129,
		"zip": "6990",
		"name": "Hotton"
	},
	{
		"id": 1130,
		"zip": "6724",
		"name": "Houdemont"
	},
	{
		"id": 1131,
		"zip": "7110",
		"name": "Houdeng-Aimeries"
	},
	{
		"id": 1132,
		"zip": "7110",
		"name": "Houdeng-Goegnies"
	},
	{
		"id": 1133,
		"zip": "5575",
		"name": "Houdremont"
	},
	{
		"id": 1134,
		"zip": "6660",
		"name": "Houffalize"
	},
	{
		"id": 1135,
		"zip": "5563",
		"name": "Hour"
	},
	{
		"id": 1136,
		"zip": "4671",
		"name": "Housse"
	},
	{
		"id": 1137,
		"zip": "7812",
		"name": "Houtaing"
	},
	{
		"id": 1138,
		"zip": "1476",
		"name": "Houtain-le-Val"
	},
	{
		"id": 1139,
		"zip": "4682",
		"name": "Houtain-Saint-Siméon"
	},
	{
		"id": 1140,
		"zip": "8377",
		"name": "Houtave"
	},
	{
		"id": 1141,
		"zip": "8630",
		"name": "Houtem (W.-Vl.)"
	},
	{
		"id": 1142,
		"zip": "3530",
		"name": "Houthalen"
	},
	{
		"id": 1143,
		"zip": "3530",
		"name": "Houthalen-Helchteren"
	},
	{
		"id": 1144,
		"zip": "7781",
		"name": "Houthem (Comines)"
	},
	{
		"id": 1145,
		"zip": "8650",
		"name": "Houthulst"
	},
	{
		"id": 1146,
		"zip": "2235",
		"name": "Houtvenne"
	},
	{
		"id": 1147,
		"zip": "3390",
		"name": "Houwaart"
	},
	{
		"id": 1148,
		"zip": "5530",
		"name": "Houx"
	},
	{
		"id": 1149,
		"zip": "5560",
		"name": "Houyet"
	},
	{
		"id": 1150,
		"zip": "2540",
		"name": "Hove"
	},
	{
		"id": 1151,
		"zip": "7830",
		"name": "Hoves (Ht.)"
	},
	{
		"id": 1152,
		"zip": "7624",
		"name": "Howardries"
	},
	{
		"id": 1153,
		"zip": "4520",
		"name": "Huccorgne"
	},
	{
		"id": 1154,
		"zip": "9750",
		"name": "Huise"
	},
	{
		"id": 1155,
		"zip": "7950",
		"name": "Huissignies"
	},
	{
		"id": 1156,
		"zip": "1654",
		"name": "Huizingen"
	},
	{
		"id": 1157,
		"zip": "3040",
		"name": "Huldenberg"
	},
	{
		"id": 1158,
		"zip": "2235",
		"name": "Hulshout"
	},
	{
		"id": 1159,
		"zip": "5560",
		"name": "Hulsonniaux"
	},
	{
		"id": 1160,
		"zip": "8531",
		"name": "Hulste"
	},
	{
		"id": 1161,
		"zip": "6900",
		"name": "Humain"
	},
	{
		"id": 1162,
		"zip": "1851",
		"name": "Humbeek"
	},
	{
		"id": 1163,
		"zip": "9630",
		"name": "Hundelgem"
	},
	{
		"id": 1164,
		"zip": "1367",
		"name": "Huppaye"
	},
	{
		"id": 1165,
		"zip": "4500",
		"name": "Huy"
	},
	{
		"id": 1166,
		"zip": "7022",
		"name": "Hyon"
	},
	{
		"id": 1167,
		"zip": "8480",
		"name": "Ichtegem"
	},
	{
		"id": 1168,
		"zip": "9472",
		"name": "Iddergem"
	},
	{
		"id": 1169,
		"zip": "9506",
		"name": "Idegem"
	},
	{
		"id": 1170,
		"zip": "8900",
		"name": "Ieper"
	},
	{
		"id": 1171,
		"zip": "9340",
		"name": "Impe"
	},
	{
		"id": 1172,
		"zip": "1315",
		"name": "Incourt"
	},
	{
		"id": 1173,
		"zip": "8770",
		"name": "Ingelmunster"
	},
	{
		"id": 1174,
		"zip": "8570",
		"name": "Ingooigem"
	},
	{
		"id": 1175,
		"zip": "7801",
		"name": "Irchonwelz"
	},
	{
		"id": 1176,
		"zip": "7822",
		"name": "Isières"
	},
	{
		"id": 1177,
		"zip": "5032",
		"name": "Isnes"
	},
	{
		"id": 1178,
		"zip": "2222",
		"name": "Itegem"
	},
	{
		"id": 1179,
		"zip": "1701",
		"name": "Itterbeek"
	},
	{
		"id": 1180,
		"zip": "1460",
		"name": "Ittre"
	},
	{
		"id": 1181,
		"zip": "4400",
		"name": "Ivoz-Ramet"
	},
	{
		"id": 1182,
		"zip": "1050",
		"name": "Ixelles"
	},
	{
		"id": 1183,
		"zip": "8870",
		"name": "Izegem"
	},
	{
		"id": 1184,
		"zip": "6810",
		"name": "Izel"
	},
	{
		"id": 1185,
		"zip": "8691",
		"name": "Izenberge"
	},
	{
		"id": 1186,
		"zip": "6941",
		"name": "Izier"
	},
	{
		"id": 1187,
		"zip": "8490",
		"name": "Jabbeke"
	},
	{
		"id": 1188,
		"zip": "4845",
		"name": "Jalhay"
	},
	{
		"id": 1189,
		"zip": "5354",
		"name": "Jallet"
	},
	{
		"id": 1190,
		"zip": "5600",
		"name": "Jamagne"
	},
	{
		"id": 1191,
		"zip": "5100",
		"name": "Jambes (Namur)"
	},
	{
		"id": 1192,
		"zip": "5600",
		"name": "Jamiolle"
	},
	{
		"id": 1193,
		"zip": "6120",
		"name": "Jamioulx"
	},
	{
		"id": 1194,
		"zip": "6810",
		"name": "Jamoigne"
	},
	{
		"id": 1195,
		"zip": "1350",
		"name": "Jandrain-Jandrenouille"
	},
	{
		"id": 1196,
		"zip": "1350",
		"name": "Jauche"
	},
	{
		"id": 1197,
		"zip": "1370",
		"name": "Jauchelette"
	},
	{
		"id": 1198,
		"zip": "5570",
		"name": "Javingue"
	},
	{
		"id": 1199,
		"zip": "4540",
		"name": "Jehay"
	},
	{
		"id": 1200,
		"zip": "6880",
		"name": "Jehonville"
	},
	{
		"id": 1201,
		"zip": "7012",
		"name": "Jemappes"
	},
	{
		"id": 1202,
		"zip": "5580",
		"name": "Jemelle"
	},
	{
		"id": 1203,
		"zip": "4101",
		"name": "Jemeppe-sur-Meuse"
	},
	{
		"id": 1204,
		"zip": "5190",
		"name": "Jemeppe-sur-Sambre"
	},
	{
		"id": 1205,
		"zip": "4357",
		"name": "Jeneffe (Lg.)"
	},
	{
		"id": 1206,
		"zip": "5370",
		"name": "Jeneffe (Nam.)"
	},
	{
		"id": 1207,
		"zip": "3840",
		"name": "Jesseren"
	},
	{
		"id": 1208,
		"zip": "1090",
		"name": "Jette"
	},
	{
		"id": 1209,
		"zip": "3890",
		"name": "Jeuk"
	},
	{
		"id": 1210,
		"zip": "1370",
		"name": "Jodoigne"
	},
	{
		"id": 1211,
		"zip": "1370",
		"name": "Jodoigne-Souveraine"
	},
	{
		"id": 1212,
		"zip": "7620",
		"name": "Jollain-Merlin"
	},
	{
		"id": 1213,
		"zip": "6280",
		"name": "Joncret"
	},
	{
		"id": 1214,
		"zip": "4650",
		"name": "Julémont"
	},
	{
		"id": 1215,
		"zip": "6040",
		"name": "Jumet (Charleroi)"
	},
	{
		"id": 1216,
		"zip": "4020",
		"name": "Jupille-sur-Meuse"
	},
	{
		"id": 1217,
		"zip": "4450",
		"name": "Juprelle"
	},
	{
		"id": 1218,
		"zip": "7050",
		"name": "Jurbise"
	},
	{
		"id": 1219,
		"zip": "6642",
		"name": "Juseret"
	},
	{
		"id": 1220,
		"zip": "8600",
		"name": "Kaaskerke"
	},
	{
		"id": 1221,
		"zip": "8870",
		"name": "Kachtem"
	},
	{
		"id": 1222,
		"zip": "3293",
		"name": "Kaggevinne"
	},
	{
		"id": 1223,
		"zip": "7540",
		"name": "Kain (Tournai)"
	},
	{
		"id": 1224,
		"zip": "9270",
		"name": "Kalken"
	},
	{
		"id": 1225,
		"zip": "9120",
		"name": "Kallo (Beveren-Waas)"
	},
	{
		"id": 1226,
		"zip": "9130",
		"name": "Kallo (Kieldrecht)"
	},
	{
		"id": 1227,
		"zip": "2920",
		"name": "Kalmthout"
	},
	{
		"id": 1228,
		"zip": "1910",
		"name": "Kampenhout"
	},
	{
		"id": 1229,
		"zip": "8700",
		"name": "Kanegem"
	},
	{
		"id": 1230,
		"zip": "3770",
		"name": "Kanne"
	},
	{
		"id": 1231,
		"zip": "2950",
		"name": "Kapellen (Antw.)"
	},
	{
		"id": 1232,
		"zip": "3381",
		"name": "Kapellen (Bt.)"
	},
	{
		"id": 1233,
		"zip": "1880",
		"name": "Kapelle-op-den-Bos"
	},
	{
		"id": 1234,
		"zip": "9970",
		"name": "Kaprijke"
	},
	{
		"id": 1235,
		"zip": "8572",
		"name": "Kaster"
	},
	{
		"id": 1236,
		"zip": "2460",
		"name": "Kasterlee"
	},
	{
		"id": 1237,
		"zip": "3950",
		"name": "Kaulille"
	},
	{
		"id": 1238,
		"zip": "3140",
		"name": "Keerbergen"
	},
	{
		"id": 1239,
		"zip": "8600",
		"name": "Keiem"
	},
	{
		"id": 1240,
		"zip": "4720",
		"name": "Kelmis"
	},
	{
		"id": 1241,
		"zip": "4367",
		"name": "Kemexhe"
	},
	{
		"id": 1242,
		"zip": "8956",
		"name": "Kemmel"
	},
	{
		"id": 1243,
		"zip": "9190",
		"name": "Kemzeke"
	},
	{
		"id": 1244,
		"zip": "8581",
		"name": "Kerkhove"
	},
	{
		"id": 1245,
		"zip": "3370",
		"name": "Kerkom"
	},
	{
		"id": 1246,
		"zip": "3800",
		"name": "Kerkom-bij-Sint-Truiden"
	},
	{
		"id": 1247,
		"zip": "9451",
		"name": "Kerksken"
	},
	{
		"id": 1248,
		"zip": "3510",
		"name": "Kermt"
	},
	{
		"id": 1249,
		"zip": "3840",
		"name": "Kerniel"
	},
	{
		"id": 1250,
		"zip": "3472",
		"name": "Kersbeek-Miskom"
	},
	{
		"id": 1251,
		"zip": "2560",
		"name": "Kessel"
	},
	{
		"id": 1252,
		"zip": "3010",
		"name": "Kessel-Lo"
	},
	{
		"id": 1253,
		"zip": "3640",
		"name": "Kessenich"
	},
	{
		"id": 1254,
		"zip": "1755",
		"name": "Kester"
	},
	{
		"id": 1255,
		"zip": "4701",
		"name": "Kettenis"
	},
	{
		"id": 1256,
		"zip": "5060",
		"name": "Keumiée"
	},
	{
		"id": 1257,
		"zip": "9130",
		"name": "Kieldrecht (Beveren)"
	},
	{
		"id": 1258,
		"zip": "3640",
		"name": "Kinrooi"
	},
	{
		"id": 1259,
		"zip": "3990",
		"name": "Kleine-Brogel"
	},
	{
		"id": 1260,
		"zip": "3740",
		"name": "Kleine-Spouwen"
	},
	{
		"id": 1261,
		"zip": "3870",
		"name": "Klein-Gelmen"
	},
	{
		"id": 1262,
		"zip": "8420",
		"name": "Klemskerke"
	},
	{
		"id": 1263,
		"zip": "8650",
		"name": "Klerken"
	},
	{
		"id": 1264,
		"zip": "9690",
		"name": "Kluisbergen"
	},
	{
		"id": 1265,
		"zip": "9940",
		"name": "Kluizen"
	},
	{
		"id": 1266,
		"zip": "9910",
		"name": "Knesselare"
	},
	{
		"id": 1267,
		"zip": "8300",
		"name": "Knokke"
	},
	{
		"id": 1268,
		"zip": "8300",
		"name": "Knokke-Heist"
	},
	{
		"id": 1269,
		"zip": "1730",
		"name": "Kobbegem"
	},
	{
		"id": 1270,
		"zip": "8680",
		"name": "Koekelare"
	},
	{
		"id": 1271,
		"zip": "1081",
		"name": "Koekelberg"
	},
	{
		"id": 1272,
		"zip": "3582",
		"name": "Koersel"
	},
	{
		"id": 1273,
		"zip": "8670",
		"name": "Koksijde"
	},
	{
		"id": 1274,
		"zip": "3840",
		"name": "Kolmont (Borgloon)"
	},
	{
		"id": 1275,
		"zip": "3700",
		"name": "Kolmont (Tongeren)"
	},
	{
		"id": 1276,
		"zip": "7780",
		"name": "Komen"
	},
	{
		"id": 1277,
		"zip": "7780",
		"name": "Komen-Waasten"
	},
	{
		"id": 1278,
		"zip": "2500",
		"name": "Koningshooikt"
	},
	{
		"id": 1279,
		"zip": "3700",
		"name": "Koninksem"
	},
	{
		"id": 1280,
		"zip": "2550",
		"name": "Kontich"
	},
	{
		"id": 1281,
		"zip": "8510",
		"name": "Kooigem"
	},
	{
		"id": 1282,
		"zip": "8000",
		"name": "Koolkerke"
	},
	{
		"id": 1283,
		"zip": "8851",
		"name": "Koolskamp"
	},
	{
		"id": 1284,
		"zip": "3060",
		"name": "Korbeek-Dijle"
	},
	{
		"id": 1285,
		"zip": "3360",
		"name": "Korbeek-Lo"
	},
	{
		"id": 1286,
		"zip": "8610",
		"name": "Kortemark"
	},
	{
		"id": 1287,
		"zip": "3470",
		"name": "Kortenaken"
	},
	{
		"id": 1288,
		"zip": "3070",
		"name": "Kortenberg"
	},
	{
		"id": 1289,
		"zip": "3720",
		"name": "Kortessem"
	},
	{
		"id": 1290,
		"zip": "3890",
		"name": "Kortijs"
	},
	{
		"id": 1291,
		"zip": "8500",
		"name": "Kortrijk"
	},
	{
		"id": 1292,
		"zip": "3220",
		"name": "Kortrijk-Dutsel"
	},
	{
		"id": 1293,
		"zip": "3850",
		"name": "Kozen"
	},
	{
		"id": 1294,
		"zip": "1950",
		"name": "Kraainem"
	},
	{
		"id": 1295,
		"zip": "8972",
		"name": "Krombeke"
	},
	{
		"id": 1296,
		"zip": "9150",
		"name": "Kruibeke"
	},
	{
		"id": 1297,
		"zip": "9770",
		"name": "Kruishoutem"
	},
	{
		"id": 1298,
		"zip": "3300",
		"name": "Kumtich"
	},
	{
		"id": 1299,
		"zip": "3511",
		"name": "Kuringen"
	},
	{
		"id": 1300,
		"zip": "3840",
		"name": "Kuttekoven"
	},
	{
		"id": 1301,
		"zip": "8520",
		"name": "Kuurne"
	},
	{
		"id": 1302,
		"zip": "3945",
		"name": "Kwaadmechelen"
	},
	{
		"id": 1303,
		"zip": "9690",
		"name": "Kwaremont"
	},
	{
		"id": 1304,
		"zip": "7080",
		"name": "La Bouverie"
	},
	{
		"id": 1305,
		"zip": "4720",
		"name": "La Calamine"
	},
	{
		"id": 1306,
		"zip": "7611",
		"name": "La Glanerie"
	},
	{
		"id": 1307,
		"zip": "4987",
		"name": "La Gleize"
	},
	{
		"id": 1308,
		"zip": "7170",
		"name": "La Hestre"
	},
	{
		"id": 1309,
		"zip": "1310",
		"name": "La Hulpe"
	},
	{
		"id": 1310,
		"zip": "7100",
		"name": "La Louvière"
	},
	{
		"id": 1311,
		"zip": "4910",
		"name": "La Reid"
	},
	{
		"id": 1312,
		"zip": "6980",
		"name": "La Roche-en-Ardenne"
	},
	{
		"id": 1313,
		"zip": "3400",
		"name": "Laar"
	},
	{
		"id": 1314,
		"zip": "9270",
		"name": "Laarne"
	},
	{
		"id": 1315,
		"zip": "6567",
		"name": "Labuissière"
	},
	{
		"id": 1316,
		"zip": "6821",
		"name": "Lacuisine"
	},
	{
		"id": 1317,
		"zip": "7950",
		"name": "Ladeuze"
	},
	{
		"id": 1318,
		"zip": "1020",
		"name": "Laeken"
	},
	{
		"id": 1319,
		"zip": "5550",
		"name": "Laforêt"
	},
	{
		"id": 1320,
		"zip": "7890",
		"name": "Lahamaide"
	},
	{
		"id": 1321,
		"zip": "7522",
		"name": "Lamain"
	},
	{
		"id": 1322,
		"zip": "4800",
		"name": "Lambermont"
	},
	{
		"id": 1323,
		"zip": "6220",
		"name": "Lambusart"
	},
	{
		"id": 1324,
		"zip": "4350",
		"name": "Lamine"
	},
	{
		"id": 1325,
		"zip": "4210",
		"name": "Lamontzée"
	},
	{
		"id": 1326,
		"zip": "6767",
		"name": "Lamorteau"
	},
	{
		"id": 1327,
		"zip": "8600",
		"name": "Lampernisse"
	},
	{
		"id": 1328,
		"zip": "3620",
		"name": "Lanaken"
	},
	{
		"id": 1329,
		"zip": "4600",
		"name": "Lanaye"
	},
	{
		"id": 1330,
		"zip": "9850",
		"name": "Landegem"
	},
	{
		"id": 1331,
		"zip": "6111",
		"name": "Landelies"
	},
	{
		"id": 1332,
		"zip": "3400",
		"name": "Landen"
	},
	{
		"id": 1333,
		"zip": "5300",
		"name": "Landenne"
	},
	{
		"id": 1334,
		"zip": "9860",
		"name": "Landskouter"
	},
	{
		"id": 1335,
		"zip": "5651",
		"name": "Laneffe"
	},
	{
		"id": 1336,
		"zip": "3201",
		"name": "Langdorp"
	},
	{
		"id": 1337,
		"zip": "8920",
		"name": "Langemark"
	},
	{
		"id": 1338,
		"zip": "8920",
		"name": "Langemark-Poelkapelle"
	},
	{
		"id": 1339,
		"zip": "3650",
		"name": "Lanklaar"
	},
	{
		"id": 1340,
		"zip": "7800",
		"name": "Lanquesaint"
	},
	{
		"id": 1341,
		"zip": "4450",
		"name": "Lantin"
	},
	{
		"id": 1342,
		"zip": "4300",
		"name": "Lantremange"
	},
	{
		"id": 1343,
		"zip": "7622",
		"name": "Laplaigne"
	},
	{
		"id": 1344,
		"zip": "8340",
		"name": "Lapscheure"
	},
	{
		"id": 1345,
		"zip": "1380",
		"name": "Lasne"
	},
	{
		"id": 1346,
		"zip": "1380",
		"name": "Lasne-Chapelle-St-Lambert"
	},
	{
		"id": 1347,
		"zip": "1370",
		"name": "Lathuy"
	},
	{
		"id": 1348,
		"zip": "4261",
		"name": "Latinne"
	},
	{
		"id": 1349,
		"zip": "6761",
		"name": "Latour"
	},
	{
		"id": 1350,
		"zip": "3700",
		"name": "Lauw"
	},
	{
		"id": 1351,
		"zip": "8930",
		"name": "Lauwe"
	},
	{
		"id": 1352,
		"zip": "6681",
		"name": "Lavacherie"
	},
	{
		"id": 1353,
		"zip": "5580",
		"name": "Lavaux-Sainte-Anne"
	},
	{
		"id": 1354,
		"zip": "4217",
		"name": "Lavoir"
	},
	{
		"id": 1355,
		"zip": "5670",
		"name": "Le Mesnil"
	},
	{
		"id": 1356,
		"zip": "7070",
		"name": "Le Roeulx"
	},
	{
		"id": 1357,
		"zip": "5070",
		"name": "Le Roux"
	},
	{
		"id": 1358,
		"zip": "9280",
		"name": "Lebbeke"
	},
	{
		"id": 1359,
		"zip": "1320",
		"name": "L'Ecluse"
	},
	{
		"id": 1360,
		"zip": "9340",
		"name": "Lede"
	},
	{
		"id": 1361,
		"zip": "9050",
		"name": "Ledeberg (Gent)"
	},
	{
		"id": 1362,
		"zip": "8880",
		"name": "Ledegem"
	},
	{
		"id": 1363,
		"zip": "3061",
		"name": "Leefdaal"
	},
	{
		"id": 1364,
		"zip": "1755",
		"name": "Leerbeek"
	},
	{
		"id": 1365,
		"zip": "6142",
		"name": "Leernes"
	},
	{
		"id": 1366,
		"zip": "6530",
		"name": "Leers-et-Fosteau"
	},
	{
		"id": 1367,
		"zip": "7730",
		"name": "Leers-Nord"
	},
	{
		"id": 1368,
		"zip": "2811",
		"name": "Leest"
	},
	{
		"id": 1369,
		"zip": "9620",
		"name": "Leeuwergem"
	},
	{
		"id": 1370,
		"zip": "8432",
		"name": "Leffinge"
	},
	{
		"id": 1371,
		"zip": "6860",
		"name": "Léglise"
	},
	{
		"id": 1372,
		"zip": "5590",
		"name": "Leignon"
	},
	{
		"id": 1373,
		"zip": "8691",
		"name": "Leisele"
	},
	{
		"id": 1374,
		"zip": "8600",
		"name": "Leke"
	},
	{
		"id": 1375,
		"zip": "1502",
		"name": "Lembeek"
	},
	{
		"id": 1376,
		"zip": "9971",
		"name": "Lembeke"
	},
	{
		"id": 1377,
		"zip": "9820",
		"name": "Lemberge"
	},
	{
		"id": 1378,
		"zip": "8860",
		"name": "Lendelede"
	},
	{
		"id": 1379,
		"zip": "1750",
		"name": "Lennik"
	},
	{
		"id": 1380,
		"zip": "7870",
		"name": "Lens"
	},
	{
		"id": 1381,
		"zip": "4280",
		"name": "Lens-Saint-Remy"
	},
	{
		"id": 1382,
		"zip": "4250",
		"name": "Lens-Saint-Servais"
	},
	{
		"id": 1383,
		"zip": "4360",
		"name": "Lens-sur-Geer"
	},
	{
		"id": 1384,
		"zip": "3970",
		"name": "Leopoldsburg"
	},
	{
		"id": 1385,
		"zip": "4560",
		"name": "Les Avins"
	},
	{
		"id": 1386,
		"zip": "6811",
		"name": "Les Bulles"
	},
	{
		"id": 1387,
		"zip": "6830",
		"name": "Les Hayons"
	},
	{
		"id": 1388,
		"zip": "4317",
		"name": "Les Waleffes"
	},
	{
		"id": 1389,
		"zip": "6464",
		"name": "L'Escaillère"
	},
	{
		"id": 1390,
		"zip": "7621",
		"name": "Lesdain"
	},
	{
		"id": 1391,
		"zip": "7860",
		"name": "Lessines"
	},
	{
		"id": 1392,
		"zip": "5580",
		"name": "Lessive"
	},
	{
		"id": 1393,
		"zip": "6953",
		"name": "Lesterny"
	},
	{
		"id": 1394,
		"zip": "5170",
		"name": "Lesve"
	},
	{
		"id": 1395,
		"zip": "7850",
		"name": "Lettelingen"
	},
	{
		"id": 1396,
		"zip": "9521",
		"name": "Letterhoutem"
	},
	{
		"id": 1397,
		"zip": "6500",
		"name": "Leugnies"
	},
	{
		"id": 1398,
		"zip": "9700",
		"name": "Leupegem"
	},
	{
		"id": 1399,
		"zip": "3630",
		"name": "Leut"
	},
	{
		"id": 1400,
		"zip": "3000",
		"name": "Leuven"
	},
	{
		"id": 1401,
		"zip": "5310",
		"name": "Leuze (Nam.)"
	},
	{
		"id": 1402,
		"zip": "7900",
		"name": "Leuze-en-Hainaut"
	},
	{
		"id": 1403,
		"zip": "6500",
		"name": "Leval-Chaudeville"
	},
	{
		"id": 1404,
		"zip": "7134",
		"name": "Leval-Trahegnies"
	},
	{
		"id": 1405,
		"zip": "6238",
		"name": "Liberchies"
	},
	{
		"id": 1406,
		"zip": "6890",
		"name": "Libin"
	},
	{
		"id": 1407,
		"zip": "6800",
		"name": "Libramont-Chevigny"
	},
	{
		"id": 1408,
		"zip": "2460",
		"name": "Lichtaart"
	},
	{
		"id": 1409,
		"zip": "8810",
		"name": "Lichtervelde"
	},
	{
		"id": 1410,
		"zip": "1770",
		"name": "Liedekerke"
	},
	{
		"id": 1411,
		"zip": "9400",
		"name": "Lieferinge"
	},
	{
		"id": 1412,
		"zip": "4000",
		"name": "Liège 1"
	},
	{
		"id": 1413,
		"zip": "4020",
		"name": "Liège 2"
	},
	{
		"id": 1414,
		"zip": "2500",
		"name": "Lier"
	},
	{
		"id": 1415,
		"zip": "9570",
		"name": "Lierde"
	},
	{
		"id": 1416,
		"zip": "4990",
		"name": "Lierneux"
	},
	{
		"id": 1417,
		"zip": "5310",
		"name": "Liernu"
	},
	{
		"id": 1418,
		"zip": "4042",
		"name": "Liers"
	},
	{
		"id": 1419,
		"zip": "2870",
		"name": "Liezele"
	},
	{
		"id": 1420,
		"zip": "7812",
		"name": "Ligne"
	},
	{
		"id": 1421,
		"zip": "4254",
		"name": "Ligney"
	},
	{
		"id": 1422,
		"zip": "5140",
		"name": "Ligny"
	},
	{
		"id": 1423,
		"zip": "2275",
		"name": "Lille"
	},
	{
		"id": 1424,
		"zip": "2040",
		"name": "Lillo"
	},
	{
		"id": 1425,
		"zip": "1428",
		"name": "Lillois-Witterzée"
	},
	{
		"id": 1426,
		"zip": "1300",
		"name": "Limal"
	},
	{
		"id": 1427,
		"zip": "4830",
		"name": "Limbourg"
	},
	{
		"id": 1428,
		"zip": "1342",
		"name": "Limelette"
	},
	{
		"id": 1429,
		"zip": "6670",
		"name": "Limerlé"
	},
	{
		"id": 1430,
		"zip": "4357",
		"name": "Limont"
	},
	{
		"id": 1431,
		"zip": "4287",
		"name": "Lincent"
	},
	{
		"id": 1432,
		"zip": "3210",
		"name": "Linden"
	},
	{
		"id": 1433,
		"zip": "1630",
		"name": "Linkebeek"
	},
	{
		"id": 1434,
		"zip": "3560",
		"name": "Linkhout"
	},
	{
		"id": 1435,
		"zip": "1357",
		"name": "Linsmeau"
	},
	{
		"id": 1436,
		"zip": "2547",
		"name": "Lint"
	},
	{
		"id": 1437,
		"zip": "3350",
		"name": "Linter"
	},
	{
		"id": 1438,
		"zip": "2890",
		"name": "Lippelo"
	},
	{
		"id": 1439,
		"zip": "5501",
		"name": "Lisogne"
	},
	{
		"id": 1440,
		"zip": "8380",
		"name": "Lissewege"
	},
	{
		"id": 1441,
		"zip": "5101",
		"name": "Lives-sur-Meuse"
	},
	{
		"id": 1442,
		"zip": "4600",
		"name": "Lixhe"
	},
	{
		"id": 1443,
		"zip": "8647",
		"name": "Lo"
	},
	{
		"id": 1444,
		"zip": "6540",
		"name": "Lobbes"
	},
	{
		"id": 1445,
		"zip": "9080",
		"name": "Lochristi"
	},
	{
		"id": 1446,
		"zip": "6042",
		"name": "Lodelinsart"
	},
	{
		"id": 1447,
		"zip": "2990",
		"name": "Loenhout"
	},
	{
		"id": 1448,
		"zip": "8958",
		"name": "Loker"
	},
	{
		"id": 1449,
		"zip": "9160",
		"name": "Lokeren"
	},
	{
		"id": 1450,
		"zip": "3545",
		"name": "Loksbergen"
	},
	{
		"id": 1451,
		"zip": "8434",
		"name": "Lombardsijde"
	},
	{
		"id": 1452,
		"zip": "7870",
		"name": "Lombise"
	},
	{
		"id": 1453,
		"zip": "3920",
		"name": "Lommel"
	},
	{
		"id": 1454,
		"zip": "4783",
		"name": "Lommersweiler"
	},
	{
		"id": 1455,
		"zip": "6463",
		"name": "Lompret"
	},
	{
		"id": 1456,
		"zip": "6924",
		"name": "Lomprez"
	},
	{
		"id": 1457,
		"zip": "4431",
		"name": "Loncin"
	},
	{
		"id": 1458,
		"zip": "1840",
		"name": "Londerzeel"
	},
	{
		"id": 1459,
		"zip": "6688",
		"name": "Longchamps (Lux.)"
	},
	{
		"id": 1460,
		"zip": "5310",
		"name": "Longchamps (Nam.)"
	},
	{
		"id": 1461,
		"zip": "6840",
		"name": "Longlier"
	},
	{
		"id": 1462,
		"zip": "1325",
		"name": "Longueville"
	},
	{
		"id": 1463,
		"zip": "6600",
		"name": "Longvilly"
	},
	{
		"id": 1464,
		"zip": "4710",
		"name": "Lontzen"
	},
	{
		"id": 1465,
		"zip": "5030",
		"name": "Lonzée"
	},
	{
		"id": 1466,
		"zip": "3040",
		"name": "Loonbeek"
	},
	{
		"id": 1467,
		"zip": "8210",
		"name": "Loppem"
	},
	{
		"id": 1468,
		"zip": "4987",
		"name": "Lorcé"
	},
	{
		"id": 1469,
		"zip": "8647",
		"name": "Lo-Reninge"
	},
	{
		"id": 1470,
		"zip": "1651",
		"name": "Lot"
	},
	{
		"id": 1471,
		"zip": "9880",
		"name": "Lotenhulle"
	},
	{
		"id": 1472,
		"zip": "5575",
		"name": "Louette-Saint-Denis"
	},
	{
		"id": 1473,
		"zip": "5575",
		"name": "Louette-Saint-Pierre"
	},
	{
		"id": 1474,
		"zip": "1471",
		"name": "Loupoigne"
	},
	{
		"id": 1475,
		"zip": "1348",
		"name": "Louvain-la-Neuve"
	},
	{
		"id": 1476,
		"zip": "4920",
		"name": "Louveigné (Aywaille)"
	},
	{
		"id": 1477,
		"zip": "4141",
		"name": "Louveigné (Sprimont)"
	},
	{
		"id": 1478,
		"zip": "9920",
		"name": "Lovendegem"
	},
	{
		"id": 1479,
		"zip": "3360",
		"name": "Lovenjoel"
	},
	{
		"id": 1480,
		"zip": "6280",
		"name": "Loverval"
	},
	{
		"id": 1481,
		"zip": "5101",
		"name": "Loyers"
	},
	{
		"id": 1482,
		"zip": "3210",
		"name": "Lubbeek"
	},
	{
		"id": 1483,
		"zip": "7700",
		"name": "Luingne"
	},
	{
		"id": 1484,
		"zip": "3560",
		"name": "Lummen"
	},
	{
		"id": 1485,
		"zip": "5170",
		"name": "Lustin"
	},
	{
		"id": 1486,
		"zip": "6238",
		"name": "Luttre"
	},
	{
		"id": 1487,
		"zip": "L121",
		"name": "LUXEMBOURG (BEGGEN)"
	},
	{
		"id": 1488,
		"zip": "9680",
		"name": "Maarkedal"
	},
	{
		"id": 1489,
		"zip": "9680",
		"name": "Maarke-Kerkem"
	},
	{
		"id": 1490,
		"zip": "3680",
		"name": "Maaseik"
	},
	{
		"id": 1491,
		"zip": "3630",
		"name": "Maasmechelen"
	},
	{
		"id": 1492,
		"zip": "6663",
		"name": "Mabompré"
	},
	{
		"id": 1493,
		"zip": "1830",
		"name": "Machelen (Bt)"
	},
	{
		"id": 1494,
		"zip": "9870",
		"name": "Machelen (O.-Vl.)"
	},
	{
		"id": 1495,
		"zip": "6591",
		"name": "Macon"
	},
	{
		"id": 1496,
		"zip": "6593",
		"name": "Macquenoise"
	},
	{
		"id": 1497,
		"zip": "5374",
		"name": "Maffe"
	},
	{
		"id": 1498,
		"zip": "7810",
		"name": "Maffle"
	},
	{
		"id": 1499,
		"zip": "4623",
		"name": "Magnée"
	},
	{
		"id": 1500,
		"zip": "5330",
		"name": "Maillen"
	},
	{
		"id": 1501,
		"zip": "7812",
		"name": "Mainvault"
	},
	{
		"id": 1502,
		"zip": "7020",
		"name": "Maisières"
	},
	{
		"id": 1503,
		"zip": "6852",
		"name": "Maissin"
	},
	{
		"id": 1504,
		"zip": "5300",
		"name": "Maizeret"
	},
	{
		"id": 1505,
		"zip": "3700",
		"name": "Mal"
	},
	{
		"id": 1506,
		"zip": "9990",
		"name": "Maldegem"
	},
	{
		"id": 1507,
		"zip": "1840",
		"name": "Malderen"
	},
	{
		"id": 1508,
		"zip": "6960",
		"name": "Malempré"
	},
	{
		"id": 1509,
		"zip": "1360",
		"name": "Malèves-Ste-Marie-Wastines"
	},
	{
		"id": 1510,
		"zip": "2390",
		"name": "Malle"
	},
	{
		"id": 1511,
		"zip": "4960",
		"name": "Malmédy"
	},
	{
		"id": 1512,
		"zip": "5020",
		"name": "Malonne"
	},
	{
		"id": 1513,
		"zip": "5575",
		"name": "Malvoisin"
	},
	{
		"id": 1514,
		"zip": "7170",
		"name": "Manage"
	},
	{
		"id": 1515,
		"zip": "4760",
		"name": "Manderfeld"
	},
	{
		"id": 1516,
		"zip": "6960",
		"name": "Manhay"
	},
	{
		"id": 1517,
		"zip": "8433",
		"name": "Mannekensvere"
	},
	{
		"id": 1518,
		"zip": "1380",
		"name": "Maransart"
	},
	{
		"id": 1519,
		"zip": "1495",
		"name": "Marbais (Bt.)"
	},
	{
		"id": 1520,
		"zip": "6120",
		"name": "Marbaix (Ht.)"
	},
	{
		"id": 1521,
		"zip": "6900",
		"name": "Marche-en-Famenne"
	},
	{
		"id": 1522,
		"zip": "5024",
		"name": "Marche-les-Dames"
	},
	{
		"id": 1523,
		"zip": "7190",
		"name": "Marche-lez-Ecaussinnes"
	},
	{
		"id": 1524,
		"zip": "6030",
		"name": "Marchienne-au-Pont"
	},
	{
		"id": 1525,
		"zip": "4570",
		"name": "Marchin"
	},
	{
		"id": 1526,
		"zip": "7387",
		"name": "Marchipont"
	},
	{
		"id": 1527,
		"zip": "5380",
		"name": "Marchovelette"
	},
	{
		"id": 1528,
		"zip": "6001",
		"name": "Marcinelle"
	},
	{
		"id": 1529,
		"zip": "6987",
		"name": "Marcourt"
	},
	{
		"id": 1530,
		"zip": "7850",
		"name": "Marcq"
	},
	{
		"id": 1531,
		"zip": "6990",
		"name": "Marenne"
	},
	{
		"id": 1532,
		"zip": "9030",
		"name": "Mariakerke (Gent)"
	},
	{
		"id": 1533,
		"zip": "2880",
		"name": "Mariekerke (Bornem)"
	},
	{
		"id": 1534,
		"zip": "5660",
		"name": "Mariembourg"
	},
	{
		"id": 1535,
		"zip": "1350",
		"name": "Marilles"
	},
	{
		"id": 1536,
		"zip": "7850",
		"name": "Mark"
	},
	{
		"id": 1537,
		"zip": "8510",
		"name": "Marke (Kortrijk)"
	},
	{
		"id": 1538,
		"zip": "8720",
		"name": "Markegem"
	},
	{
		"id": 1539,
		"zip": "4210",
		"name": "Marneffe"
	},
	{
		"id": 1540,
		"zip": "7522",
		"name": "Marquain"
	},
	{
		"id": 1541,
		"zip": "6630",
		"name": "Martelange"
	},
	{
		"id": 1542,
		"zip": "3742",
		"name": "Martenslinde"
	},
	{
		"id": 1543,
		"zip": "5573",
		"name": "Martouzin-Neuville"
	},
	{
		"id": 1544,
		"zip": "6953",
		"name": "Masbourg"
	},
	{
		"id": 1545,
		"zip": "7020",
		"name": "Masnuy-Saint-Jean (Mons)"
	},
	{
		"id": 1546,
		"zip": "7050",
		"name": "Masnuy-Saint-Pierre"
	},
	{
		"id": 1547,
		"zip": "7050",
		"name": "Masnuy-St-Jean (Jurbise)"
	},
	{
		"id": 1548,
		"zip": "9230",
		"name": "Massemen"
	},
	{
		"id": 1549,
		"zip": "2240",
		"name": "Massenhoven"
	},
	{
		"id": 1550,
		"zip": "5680",
		"name": "Matagne-la-Grande"
	},
	{
		"id": 1551,
		"zip": "5680",
		"name": "Matagne-la-Petite"
	},
	{
		"id": 1552,
		"zip": "9700",
		"name": "Mater"
	},
	{
		"id": 1553,
		"zip": "7640",
		"name": "Maubray"
	},
	{
		"id": 1554,
		"zip": "7534",
		"name": "Maulde"
	},
	{
		"id": 1555,
		"zip": "7110",
		"name": "Maurage"
	},
	{
		"id": 1556,
		"zip": "5670",
		"name": "Mazée"
	},
	{
		"id": 1557,
		"zip": "1745",
		"name": "Mazenzele"
	},
	{
		"id": 1558,
		"zip": "5032",
		"name": "Mazy"
	},
	{
		"id": 1559,
		"zip": "5372",
		"name": "Méan"
	},
	{
		"id": 1560,
		"zip": "2800",
		"name": "Mechelen"
	},
	{
		"id": 1561,
		"zip": "3630",
		"name": "Mechelen-aan-de-Maas"
	},
	{
		"id": 1562,
		"zip": "3870",
		"name": "Mechelen-Bovelingen"
	},
	{
		"id": 1563,
		"zip": "4219",
		"name": "Meeffe"
	},
	{
		"id": 1564,
		"zip": "3391",
		"name": "Meensel-Kiezegem"
	},
	{
		"id": 1565,
		"zip": "2321",
		"name": "Meer"
	},
	{
		"id": 1566,
		"zip": "3078",
		"name": "Meerbeek"
	},
	{
		"id": 1567,
		"zip": "9402",
		"name": "Meerbeke"
	},
	{
		"id": 1568,
		"zip": "9170",
		"name": "Meerdonk"
	},
	{
		"id": 1569,
		"zip": "2450",
		"name": "Meerhout"
	},
	{
		"id": 1570,
		"zip": "2328",
		"name": "Meerle"
	},
	{
		"id": 1571,
		"zip": "3630",
		"name": "Meeswijk"
	},
	{
		"id": 1572,
		"zip": "8377",
		"name": "Meetkerke"
	},
	{
		"id": 1573,
		"zip": "3670",
		"name": "Meeuwen"
	},
	{
		"id": 1574,
		"zip": "3670",
		"name": "Meeuwen-Gruitrode"
	},
	{
		"id": 1575,
		"zip": "5310",
		"name": "Mehaigne"
	},
	{
		"id": 1576,
		"zip": "9800",
		"name": "Meigem"
	},
	{
		"id": 1577,
		"zip": "9630",
		"name": "Meilegem"
	},
	{
		"id": 1578,
		"zip": "1860",
		"name": "Meise"
	},
	{
		"id": 1579,
		"zip": "6769",
		"name": "Meix-devant-Virton"
	},
	{
		"id": 1580,
		"zip": "6747",
		"name": "Meix-le-Tige"
	},
	{
		"id": 1581,
		"zip": "9700",
		"name": "Melden"
	},
	{
		"id": 1582,
		"zip": "3320",
		"name": "Meldert (Bt.)"
	},
	{
		"id": 1583,
		"zip": "3560",
		"name": "Meldert (Limb.)"
	},
	{
		"id": 1584,
		"zip": "9310",
		"name": "Meldert (O.-Vl.)"
	},
	{
		"id": 1585,
		"zip": "4633",
		"name": "Melen"
	},
	{
		"id": 1586,
		"zip": "1370",
		"name": "Mélin"
	},
	{
		"id": 1587,
		"zip": "3350",
		"name": "Melkwezer"
	},
	{
		"id": 1588,
		"zip": "9090",
		"name": "Melle"
	},
	{
		"id": 1589,
		"zip": "1495",
		"name": "Mellery"
	},
	{
		"id": 1590,
		"zip": "7540",
		"name": "Melles"
	},
	{
		"id": 1591,
		"zip": "6211",
		"name": "Mellet"
	},
	{
		"id": 1592,
		"zip": "6860",
		"name": "Mellier"
	},
	{
		"id": 1593,
		"zip": "1820",
		"name": "Melsbroek"
	},
	{
		"id": 1594,
		"zip": "9120",
		"name": "Melsele"
	},
	{
		"id": 1595,
		"zip": "9820",
		"name": "Melsen"
	},
	{
		"id": 1596,
		"zip": "4837",
		"name": "Membach"
	},
	{
		"id": 1597,
		"zip": "5550",
		"name": "Membre"
	},
	{
		"id": 1598,
		"zip": "3770",
		"name": "Membruggen"
	},
	{
		"id": 1599,
		"zip": "9042",
		"name": "Mendonk"
	},
	{
		"id": 1600,
		"zip": "8930",
		"name": "Menen"
	},
	{
		"id": 1601,
		"zip": "6567",
		"name": "Merbes-le-Château"
	},
	{
		"id": 1602,
		"zip": "6567",
		"name": "Merbes-Sainte-Marie"
	},
	{
		"id": 1603,
		"zip": "1785",
		"name": "Merchtem"
	},
	{
		"id": 1604,
		"zip": "4280",
		"name": "Merdorp"
	},
	{
		"id": 1605,
		"zip": "9420",
		"name": "Mere"
	},
	{
		"id": 1606,
		"zip": "9820",
		"name": "Merelbeke"
	},
	{
		"id": 1607,
		"zip": "9850",
		"name": "Merendree"
	},
	{
		"id": 1608,
		"zip": "8650",
		"name": "Merkem"
	},
	{
		"id": 1609,
		"zip": "2170",
		"name": "Merksem (Antwerpen)"
	},
	{
		"id": 1610,
		"zip": "2330",
		"name": "Merksplas"
	},
	{
		"id": 1611,
		"zip": "5600",
		"name": "Merlemont"
	},
	{
		"id": 1612,
		"zip": "8957",
		"name": "Mesen"
	},
	{
		"id": 1613,
		"zip": "7822",
		"name": "Meslin-l'Evêque"
	},
	{
		"id": 1614,
		"zip": "5560",
		"name": "Mesnil-Eglise"
	},
	{
		"id": 1615,
		"zip": "5560",
		"name": "Mesnil-Saint-Blaise"
	},
	{
		"id": 1616,
		"zip": "9200",
		"name": "Mespelare"
	},
	{
		"id": 1617,
		"zip": "6780",
		"name": "Messancy"
	},
	{
		"id": 1618,
		"zip": "3272",
		"name": "Messelbroek"
	},
	{
		"id": 1619,
		"zip": "8957",
		"name": "Messines"
	},
	{
		"id": 1620,
		"zip": "7022",
		"name": "Mesvin"
	},
	{
		"id": 1621,
		"zip": "3870",
		"name": "Mettekoven"
	},
	{
		"id": 1622,
		"zip": "5640",
		"name": "Mettet"
	},
	{
		"id": 1623,
		"zip": "8760",
		"name": "Meulebeke"
	},
	{
		"id": 1624,
		"zip": "5081",
		"name": "Meux"
	},
	{
		"id": 1625,
		"zip": "7942",
		"name": "Mévergnies-lez-Lens"
	},
	{
		"id": 1626,
		"zip": "4770",
		"name": "Meyrode"
	},
	{
		"id": 1627,
		"zip": "9660",
		"name": "Michelbeke"
	},
	{
		"id": 1628,
		"zip": "4630",
		"name": "Micheroux"
	},
	{
		"id": 1629,
		"zip": "9992",
		"name": "Middelburg"
	},
	{
		"id": 1630,
		"zip": "8430",
		"name": "Middelkerke"
	},
	{
		"id": 1631,
		"zip": "5376",
		"name": "Miécret"
	},
	{
		"id": 1632,
		"zip": "3891",
		"name": "Mielen-boven-Aalst"
	},
	{
		"id": 1633,
		"zip": "7070",
		"name": "Mignault"
	},
	{
		"id": 1634,
		"zip": "3770",
		"name": "Millen"
	},
	{
		"id": 1635,
		"zip": "4041",
		"name": "Milmort"
	},
	{
		"id": 1636,
		"zip": "2322",
		"name": "Minderhout"
	},
	{
		"id": 1637,
		"zip": "6870",
		"name": "Mirwart"
	},
	{
		"id": 1638,
		"zip": "4577",
		"name": "Modave"
	},
	{
		"id": 1639,
		"zip": "3790",
		"name": "Moelingen"
	},
	{
		"id": 1640,
		"zip": "8552",
		"name": "Moen"
	},
	{
		"id": 1641,
		"zip": "9500",
		"name": "Moerbeke"
	},
	{
		"id": 1642,
		"zip": "9180",
		"name": "Moerbeke-Waas"
	},
	{
		"id": 1643,
		"zip": "8470",
		"name": "Moere"
	},
	{
		"id": 1644,
		"zip": "8340",
		"name": "Moerkerke"
	},
	{
		"id": 1645,
		"zip": "9220",
		"name": "Moerzeke"
	},
	{
		"id": 1646,
		"zip": "7700",
		"name": "Moeskroen"
	},
	{
		"id": 1647,
		"zip": "4520",
		"name": "Moha"
	},
	{
		"id": 1648,
		"zip": "5361",
		"name": "Mohiville"
	},
	{
		"id": 1649,
		"zip": "5060",
		"name": "Moignelée"
	},
	{
		"id": 1650,
		"zip": "6800",
		"name": "Moircy"
	},
	{
		"id": 1651,
		"zip": "2400",
		"name": "Mol"
	},
	{
		"id": 1652,
		"zip": "7760",
		"name": "Molenbaix"
	},
	{
		"id": 1653,
		"zip": "1080",
		"name": "Molenbeek-Saint-Jean"
	},
	{
		"id": 1654,
		"zip": "3461",
		"name": "Molenbeek-Wersbeek"
	},
	{
		"id": 1655,
		"zip": "3640",
		"name": "Molenbeersel"
	},
	{
		"id": 1656,
		"zip": "3294",
		"name": "Molenstede"
	},
	{
		"id": 1657,
		"zip": "1730",
		"name": "Mollem"
	},
	{
		"id": 1658,
		"zip": "4350",
		"name": "Momalle"
	},
	{
		"id": 1659,
		"zip": "6590",
		"name": "Momignies"
	},
	{
		"id": 1660,
		"zip": "5555",
		"name": "Monceau-en-Ardenne"
	},
	{
		"id": 1661,
		"zip": "6592",
		"name": "Monceau-Imbrechies"
	},
	{
		"id": 1662,
		"zip": "6031",
		"name": "Monceau-sur-Sambre"
	},
	{
		"id": 1663,
		"zip": "7000",
		"name": "Mons"
	},
	{
		"id": 1664,
		"zip": "4400",
		"name": "Mons-lez-Liège"
	},
	{
		"id": 1665,
		"zip": "1400",
		"name": "Monstreux"
	},
	{
		"id": 1666,
		"zip": "6661",
		"name": "Mont (Lux.)"
	},
	{
		"id": 1667,
		"zip": "5530",
		"name": "Mont (Nam.)"
	},
	{
		"id": 1668,
		"zip": "6470",
		"name": "Montbliart"
	},
	{
		"id": 1669,
		"zip": "7750",
		"name": "Mont-de-l'Enclus"
	},
	{
		"id": 1670,
		"zip": "4420",
		"name": "Montegnée"
	},
	{
		"id": 1671,
		"zip": "3890",
		"name": "Montenaken"
	},
	{
		"id": 1672,
		"zip": "5580",
		"name": "Mont-Gauthier"
	},
	{
		"id": 1673,
		"zip": "7870",
		"name": "Montignies-lez-Lens"
	},
	{
		"id": 1674,
		"zip": "6560",
		"name": "Montignies-St-Christophe"
	},
	{
		"id": 1675,
		"zip": "7387",
		"name": "Montignies-sur-Roc"
	},
	{
		"id": 1676,
		"zip": "6061",
		"name": "Montignies-sur-Sambre"
	},
	{
		"id": 1677,
		"zip": "6110",
		"name": "Montigny-le-Tilleul"
	},
	{
		"id": 1678,
		"zip": "6674",
		"name": "Montleban"
	},
	{
		"id": 1679,
		"zip": "7911",
		"name": "Montroeul-au-Bois"
	},
	{
		"id": 1680,
		"zip": "7350",
		"name": "Montroeul-sur-Haine"
	},
	{
		"id": 1681,
		"zip": "1367",
		"name": "Mont-Saint-André"
	},
	{
		"id": 1682,
		"zip": "7542",
		"name": "Mont-Saint-Aubert"
	},
	{
		"id": 1683,
		"zip": "7141",
		"name": "Mont-Sainte-Aldegonde"
	},
	{
		"id": 1684,
		"zip": "6540",
		"name": "Mont-Sainte-Geneviève"
	},
	{
		"id": 1685,
		"zip": "1435",
		"name": "Mont-Saint-Guibert"
	},
	{
		"id": 1686,
		"zip": "6032",
		"name": "Mont-sur-Marchienne"
	},
	{
		"id": 1687,
		"zip": "4850",
		"name": "Montzen"
	},
	{
		"id": 1688,
		"zip": "9310",
		"name": "Moorsel"
	},
	{
		"id": 1689,
		"zip": "8560",
		"name": "Moorsele"
	},
	{
		"id": 1690,
		"zip": "8890",
		"name": "Moorslede"
	},
	{
		"id": 1691,
		"zip": "9860",
		"name": "Moortsele"
	},
	{
		"id": 1692,
		"zip": "3740",
		"name": "Mopertingen"
	},
	{
		"id": 1693,
		"zip": "9790",
		"name": "Moregem"
	},
	{
		"id": 1694,
		"zip": "4850",
		"name": "Moresnet"
	},
	{
		"id": 1695,
		"zip": "6640",
		"name": "Morhet"
	},
	{
		"id": 1696,
		"zip": "5621",
		"name": "Morialmé"
	},
	{
		"id": 1697,
		"zip": "2200",
		"name": "Morkhoven"
	},
	{
		"id": 1698,
		"zip": "7140",
		"name": "Morlanwelz"
	},
	{
		"id": 1699,
		"zip": "7140",
		"name": "Morlanwelz-Mariemont"
	},
	{
		"id": 1700,
		"zip": "6997",
		"name": "Mormont"
	},
	{
		"id": 1701,
		"zip": "5190",
		"name": "Mornimont"
	},
	{
		"id": 1702,
		"zip": "4670",
		"name": "Mortier"
	},
	{
		"id": 1703,
		"zip": "4607",
		"name": "Mortroux"
	},
	{
		"id": 1704,
		"zip": "2640",
		"name": "Mortsel"
	},
	{
		"id": 1705,
		"zip": "5620",
		"name": "Morville"
	},
	{
		"id": 1706,
		"zip": "3790",
		"name": "Mouland"
	},
	{
		"id": 1707,
		"zip": "7812",
		"name": "Moulbaix"
	},
	{
		"id": 1708,
		"zip": "7543",
		"name": "Mourcourt"
	},
	{
		"id": 1709,
		"zip": "7700",
		"name": "Mouscron"
	},
	{
		"id": 1710,
		"zip": "7911",
		"name": "Moustier (Ht.)"
	},
	{
		"id": 1711,
		"zip": "5190",
		"name": "Moustier-sur-Sambre"
	},
	{
		"id": 1712,
		"zip": "5550",
		"name": "Mouzaive"
	},
	{
		"id": 1713,
		"zip": "4280",
		"name": "Moxhe"
	},
	{
		"id": 1714,
		"zip": "5340",
		"name": "Mozet"
	},
	{
		"id": 1715,
		"zip": "3891",
		"name": "Muizen (Limb.)"
	},
	{
		"id": 1716,
		"zip": "2812",
		"name": "Muizen (Mechelen)"
	},
	{
		"id": 1717,
		"zip": "9700",
		"name": "Mullem"
	},
	{
		"id": 1718,
		"zip": "9630",
		"name": "Munkzwalm"
	},
	{
		"id": 1719,
		"zip": "6820",
		"name": "Muno"
	},
	{
		"id": 1720,
		"zip": "3740",
		"name": "Munsterbilzen"
	},
	{
		"id": 1721,
		"zip": "9820",
		"name": "Munte"
	},
	{
		"id": 1722,
		"zip": "6750",
		"name": "Musson"
	},
	{
		"id": 1723,
		"zip": "6750",
		"name": "Mussy-la-Ville"
	},
	{
		"id": 1724,
		"zip": "4190",
		"name": "My"
	},
	{
		"id": 1725,
		"zip": "7062",
		"name": "Naast"
	},
	{
		"id": 1726,
		"zip": "6660",
		"name": "Nadrin"
	},
	{
		"id": 1727,
		"zip": "5550",
		"name": "Nafraiture"
	},
	{
		"id": 1728,
		"zip": "6120",
		"name": "Nalinnes"
	},
	{
		"id": 1729,
		"zip": "5300",
		"name": "Namêche"
	},
	{
		"id": 1730,
		"zip": "5000",
		"name": "Namur"
	},
	{
		"id": 1731,
		"zip": "4550",
		"name": "Nandrin"
	},
	{
		"id": 1732,
		"zip": "5100",
		"name": "Naninne"
	},
	{
		"id": 1733,
		"zip": "5555",
		"name": "Naomé"
	},
	{
		"id": 1734,
		"zip": "6950",
		"name": "Nassogne"
	},
	{
		"id": 1735,
		"zip": "5360",
		"name": "Natoye"
	},
	{
		"id": 1736,
		"zip": "9810",
		"name": "Nazareth"
	},
	{
		"id": 1737,
		"zip": "7730",
		"name": "Néchin"
	},
	{
		"id": 1738,
		"zip": "1120",
		"name": "Neder-over-Heembeek"
	},
	{
		"id": 1739,
		"zip": "9500",
		"name": "Nederboelare"
	},
	{
		"id": 1740,
		"zip": "9660",
		"name": "Nederbrakel"
	},
	{
		"id": 1741,
		"zip": "9700",
		"name": "Nederename"
	},
	{
		"id": 1742,
		"zip": "9400",
		"name": "Nederhasselt"
	},
	{
		"id": 1743,
		"zip": "1910",
		"name": "Nederokkerzeel"
	},
	{
		"id": 1744,
		"zip": "9636",
		"name": "Nederzwalm-Hermelgem"
	},
	{
		"id": 1745,
		"zip": "3670",
		"name": "Neerglabbeek"
	},
	{
		"id": 1746,
		"zip": "3620",
		"name": "Neerharen"
	},
	{
		"id": 1747,
		"zip": "3350",
		"name": "Neerhespen"
	},
	{
		"id": 1748,
		"zip": "1357",
		"name": "Neerheylissem"
	},
	{
		"id": 1749,
		"zip": "3040",
		"name": "Neerijse"
	},
	{
		"id": 1750,
		"zip": "3404",
		"name": "Neerlanden"
	},
	{
		"id": 1751,
		"zip": "3350",
		"name": "Neerlinter"
	},
	{
		"id": 1752,
		"zip": "3680",
		"name": "Neeroeteren"
	},
	{
		"id": 1753,
		"zip": "3910",
		"name": "Neerpelt"
	},
	{
		"id": 1754,
		"zip": "3700",
		"name": "Neerrepen"
	},
	{
		"id": 1755,
		"zip": "3370",
		"name": "Neervelp"
	},
	{
		"id": 1756,
		"zip": "7784",
		"name": "Neerwaasten"
	},
	{
		"id": 1757,
		"zip": "3400",
		"name": "Neerwinden"
	},
	{
		"id": 1758,
		"zip": "9403",
		"name": "Neigem"
	},
	{
		"id": 1759,
		"zip": "3700",
		"name": "Nerem"
	},
	{
		"id": 1760,
		"zip": "4870",
		"name": "Nessonvaux"
	},
	{
		"id": 1761,
		"zip": "1390",
		"name": "Nethen"
	},
	{
		"id": 1762,
		"zip": "5377",
		"name": "Nettinne"
	},
	{
		"id": 1763,
		"zip": "6840",
		"name": "Neufchâteau"
	},
	{
		"id": 1764,
		"zip": "4608",
		"name": "Neufchâteau (Lg.)"
	},
	{
		"id": 1765,
		"zip": "7332",
		"name": "Neufmaison"
	},
	{
		"id": 1766,
		"zip": "7063",
		"name": "Neufvilles"
	},
	{
		"id": 1767,
		"zip": "4721",
		"name": "Neu-Moresnet"
	},
	{
		"id": 1768,
		"zip": "4120",
		"name": "Neupré"
	},
	{
		"id": 1769,
		"zip": "5600",
		"name": "Neuville (Philippeville)"
	},
	{
		"id": 1770,
		"zip": "4121",
		"name": "Neuville-en-Condroz"
	},
	{
		"id": 1771,
		"zip": "9850",
		"name": "Nevele"
	},
	{
		"id": 1772,
		"zip": "2845",
		"name": "Niel"
	},
	{
		"id": 1773,
		"zip": "3668",
		"name": "Niel-bij-As"
	},
	{
		"id": 1774,
		"zip": "3890",
		"name": "Niel-bij-Sint-Truiden"
	},
	{
		"id": 1775,
		"zip": "9506",
		"name": "Nieuwenhove"
	},
	{
		"id": 1776,
		"zip": "1880",
		"name": "Nieuwenrode"
	},
	{
		"id": 1777,
		"zip": "9320",
		"name": "Nieuwerkerken (Aalst)"
	},
	{
		"id": 1778,
		"zip": "3850",
		"name": "Nieuwerkerken (Limb.)"
	},
	{
		"id": 1779,
		"zip": "8600",
		"name": "Nieuwkapelle"
	},
	{
		"id": 1780,
		"zip": "8950",
		"name": "Nieuwkerke"
	},
	{
		"id": 1781,
		"zip": "9100",
		"name": "Nieuwkerken-Waas"
	},
	{
		"id": 1782,
		"zip": "8377",
		"name": "Nieuwmunster"
	},
	{
		"id": 1783,
		"zip": "8620",
		"name": "Nieuwpoort"
	},
	{
		"id": 1784,
		"zip": "3221",
		"name": "Nieuwrode"
	},
	{
		"id": 1785,
		"zip": "2560",
		"name": "Nijlen"
	},
	{
		"id": 1786,
		"zip": "1457",
		"name": "Nil-St-Vincent-St-Martin"
	},
	{
		"id": 1787,
		"zip": "7020",
		"name": "Nimy (Mons)"
	},
	{
		"id": 1788,
		"zip": "9400",
		"name": "Ninove"
	},
	{
		"id": 1789,
		"zip": "5670",
		"name": "Nismes"
	},
	{
		"id": 1790,
		"zip": "1400",
		"name": "Nivelles"
	},
	{
		"id": 1791,
		"zip": "5680",
		"name": "Niverlée"
	},
	{
		"id": 1792,
		"zip": "6640",
		"name": "Nives"
	},
	{
		"id": 1793,
		"zip": "6717",
		"name": "Nobressart"
	},
	{
		"id": 1794,
		"zip": "1320",
		"name": "Nodebais"
	},
	{
		"id": 1795,
		"zip": "1350",
		"name": "Noduwez"
	},
	{
		"id": 1796,
		"zip": "7080",
		"name": "Noirchain"
	},
	{
		"id": 1797,
		"zip": "6831",
		"name": "Noirefontaine"
	},
	{
		"id": 1798,
		"zip": "5377",
		"name": "Noiseux"
	},
	{
		"id": 1799,
		"zip": "9771",
		"name": "Nokere"
	},
	{
		"id": 1800,
		"zip": "6851",
		"name": "Nollevaux"
	},
	{
		"id": 1801,
		"zip": "2200",
		"name": "Noorderwijk"
	},
	{
		"id": 1802,
		"zip": "8647",
		"name": "Noordschote"
	},
	{
		"id": 1803,
		"zip": "1930",
		"name": "Nossegem"
	},
	{
		"id": 1804,
		"zip": "6717",
		"name": "Nothomb"
	},
	{
		"id": 1805,
		"zip": "7022",
		"name": "Nouvelles"
	},
	{
		"id": 1806,
		"zip": "4347",
		"name": "Noville (Lg.)"
	},
	{
		"id": 1807,
		"zip": "6600",
		"name": "Noville (Lux.)"
	},
	{
		"id": 1808,
		"zip": "5380",
		"name": "Noville-les-Bois"
	},
	{
		"id": 1809,
		"zip": "5310",
		"name": "Noville-sur-Méhaigne"
	},
	{
		"id": 1810,
		"zip": "9681",
		"name": "Nukerke"
	},
	{
		"id": 1811,
		"zip": "6230",
		"name": "Obaix"
	},
	{
		"id": 1812,
		"zip": "7743",
		"name": "Obigies"
	},
	{
		"id": 1813,
		"zip": "7034",
		"name": "Obourg"
	},
	{
		"id": 1814,
		"zip": "6890",
		"name": "Ochamps"
	},
	{
		"id": 1815,
		"zip": "4560",
		"name": "Ocquier"
	},
	{
		"id": 1816,
		"zip": "6960",
		"name": "Odeigne"
	},
	{
		"id": 1817,
		"zip": "4367",
		"name": "Odeur"
	},
	{
		"id": 1818,
		"zip": "8730",
		"name": "Oedelem"
	},
	{
		"id": 1819,
		"zip": "8800",
		"name": "Oekene"
	},
	{
		"id": 1820,
		"zip": "2520",
		"name": "Oelegem"
	},
	{
		"id": 1821,
		"zip": "8690",
		"name": "Oeren"
	},
	{
		"id": 1822,
		"zip": "8720",
		"name": "Oeselgem"
	},
	{
		"id": 1823,
		"zip": "1755",
		"name": "Oetingen"
	},
	{
		"id": 1824,
		"zip": "7911",
		"name": "Oeudeghien"
	},
	{
		"id": 1825,
		"zip": "2260",
		"name": "Oevel"
	},
	{
		"id": 1826,
		"zip": "6850",
		"name": "Offagne"
	},
	{
		"id": 1827,
		"zip": "7862",
		"name": "Ogy"
	},
	{
		"id": 1828,
		"zip": "1380",
		"name": "Ohain"
	},
	{
		"id": 1829,
		"zip": "5350",
		"name": "Ohey"
	},
	{
		"id": 1830,
		"zip": "5670",
		"name": "Oignies-en-Thiérache"
	},
	{
		"id": 1831,
		"zip": "1480",
		"name": "Oisquercq"
	},
	{
		"id": 1832,
		"zip": "5555",
		"name": "Oizy"
	},
	{
		"id": 1833,
		"zip": "9400",
		"name": "Okegem"
	},
	{
		"id": 1834,
		"zip": "2250",
		"name": "Olen"
	},
	{
		"id": 1835,
		"zip": "4300",
		"name": "Oleye"
	},
	{
		"id": 1836,
		"zip": "7866",
		"name": "Ollignies"
	},
	{
		"id": 1837,
		"zip": "5670",
		"name": "Olloy-sur-Viroin"
	},
	{
		"id": 1838,
		"zip": "2491",
		"name": "Olmen"
	},
	{
		"id": 1839,
		"zip": "4877",
		"name": "Olne"
	},
	{
		"id": 1840,
		"zip": "9870",
		"name": "Olsene"
	},
	{
		"id": 1841,
		"zip": "4252",
		"name": "Omal"
	},
	{
		"id": 1842,
		"zip": "4540",
		"name": "Ombret"
	},
	{
		"id": 1843,
		"zip": "5600",
		"name": "Omezée"
	},
	{
		"id": 1844,
		"zip": "6900",
		"name": "On"
	},
	{
		"id": 1845,
		"zip": "5520",
		"name": "Onhaye"
	},
	{
		"id": 1846,
		"zip": "9500",
		"name": "Onkerzele"
	},
	{
		"id": 1847,
		"zip": "7387",
		"name": "Onnezies"
	},
	{
		"id": 1848,
		"zip": "5190",
		"name": "Onoz"
	},
	{
		"id": 1849,
		"zip": "1760",
		"name": "Onze-Lieve-Vrouw-Lombeek"
	},
	{
		"id": 1850,
		"zip": "2861",
		"name": "Onze-Lieve-Vrouw-Waver"
	},
	{
		"id": 1851,
		"zip": "8710",
		"name": "Ooigem"
	},
	{
		"id": 1852,
		"zip": "9700",
		"name": "Ooike (Oudenaarde)"
	},
	{
		"id": 1853,
		"zip": "9790",
		"name": "Ooike (Wortegem-Petegem)"
	},
	{
		"id": 1854,
		"zip": "9520",
		"name": "Oomb.(St-Lievens-Houtem)"
	},
	{
		"id": 1855,
		"zip": "9620",
		"name": "Oombergen (Zottegem)"
	},
	{
		"id": 1856,
		"zip": "3300",
		"name": "Oorbeek"
	},
	{
		"id": 1857,
		"zip": "9340",
		"name": "Oordegem"
	},
	{
		"id": 1858,
		"zip": "9041",
		"name": "Oostakker"
	},
	{
		"id": 1859,
		"zip": "8670",
		"name": "Oostduinkerke"
	},
	{
		"id": 1860,
		"zip": "9968",
		"name": "Oosteeklo"
	},
	{
		"id": 1861,
		"zip": "8400",
		"name": "Oostende"
	},
	{
		"id": 1862,
		"zip": "9860",
		"name": "Oosterzele"
	},
	{
		"id": 1863,
		"zip": "3945",
		"name": "Oostham"
	},
	{
		"id": 1864,
		"zip": "8020",
		"name": "Oostkamp"
	},
	{
		"id": 1865,
		"zip": "8340",
		"name": "Oostkerke (Damme)"
	},
	{
		"id": 1866,
		"zip": "8600",
		"name": "Oostkerke (Diksmuide)"
	},
	{
		"id": 1867,
		"zip": "2390",
		"name": "Oostmalle"
	},
	{
		"id": 1868,
		"zip": "8840",
		"name": "Oostnieuwkerke"
	},
	{
		"id": 1869,
		"zip": "8780",
		"name": "Oostrozebeke"
	},
	{
		"id": 1870,
		"zip": "8640",
		"name": "Oostvleteren"
	},
	{
		"id": 1871,
		"zip": "9931",
		"name": "Oostwinkel"
	},
	{
		"id": 1872,
		"zip": "9660",
		"name": "Opbrakel"
	},
	{
		"id": 1873,
		"zip": "9255",
		"name": "Opdorp"
	},
	{
		"id": 1874,
		"zip": "3660",
		"name": "Opglabbeek"
	},
	{
		"id": 1875,
		"zip": "3630",
		"name": "Opgrimbie"
	},
	{
		"id": 1876,
		"zip": "1421",
		"name": "Ophain-Bois-Seigneur-Isaac"
	},
	{
		"id": 1877,
		"zip": "9500",
		"name": "Ophasselt"
	},
	{
		"id": 1878,
		"zip": "3870",
		"name": "Opheers"
	},
	{
		"id": 1879,
		"zip": "1357",
		"name": "Opheylissem"
	},
	{
		"id": 1880,
		"zip": "3640",
		"name": "Ophoven"
	},
	{
		"id": 1881,
		"zip": "3960",
		"name": "Opitter"
	},
	{
		"id": 1882,
		"zip": "3300",
		"name": "Oplinter"
	},
	{
		"id": 1883,
		"zip": "3680",
		"name": "Opoeteren"
	},
	{
		"id": 1884,
		"zip": "6852",
		"name": "Opont"
	},
	{
		"id": 1885,
		"zip": "1315",
		"name": "Opprebais"
	},
	{
		"id": 1886,
		"zip": "2890",
		"name": "Oppuurs"
	},
	{
		"id": 1887,
		"zip": "3360",
		"name": "Opvelp"
	},
	{
		"id": 1888,
		"zip": "1745",
		"name": "Opwijk"
	},
	{
		"id": 1889,
		"zip": "1360",
		"name": "Orbais"
	},
	{
		"id": 1890,
		"zip": "5550",
		"name": "Orchimont"
	},
	{
		"id": 1891,
		"zip": "7501",
		"name": "Orcq"
	},
	{
		"id": 1892,
		"zip": "3800",
		"name": "Ordingen"
	},
	{
		"id": 1893,
		"zip": "5640",
		"name": "Oret"
	},
	{
		"id": 1894,
		"zip": "4360",
		"name": "Oreye"
	},
	{
		"id": 1895,
		"zip": "6880",
		"name": "Orgeo"
	},
	{
		"id": 1896,
		"zip": "7802",
		"name": "Ormeignies"
	},
	{
		"id": 1897,
		"zip": "1350",
		"name": "Orp-Jauche"
	},
	{
		"id": 1898,
		"zip": "1350",
		"name": "Orp-le-Grand"
	},
	{
		"id": 1899,
		"zip": "7750",
		"name": "Orroir"
	},
	{
		"id": 1900,
		"zip": "3350",
		"name": "Orsmaal-Gussenhoven"
	},
	{
		"id": 1901,
		"zip": "6983",
		"name": "Ortho"
	},
	{
		"id": 1902,
		"zip": "7804",
		"name": "Ostiches"
	},
	{
		"id": 1903,
		"zip": "8553",
		"name": "Otegem"
	},
	{
		"id": 1904,
		"zip": "4210",
		"name": "Oteppe"
	},
	{
		"id": 1905,
		"zip": "4340",
		"name": "Othée"
	},
	{
		"id": 1906,
		"zip": "4360",
		"name": "Otrange"
	},
	{
		"id": 1907,
		"zip": "3040",
		"name": "Ottenburg"
	},
	{
		"id": 1908,
		"zip": "9420",
		"name": "Ottergem"
	},
	{
		"id": 1909,
		"zip": "1340",
		"name": "Ottignies"
	},
	{
		"id": 1910,
		"zip": "9200",
		"name": "Oudegem"
	},
	{
		"id": 1911,
		"zip": "8600",
		"name": "Oudekapelle"
	},
	{
		"id": 1912,
		"zip": "9700",
		"name": "Oudenaarde"
	},
	{
		"id": 1913,
		"zip": "1600",
		"name": "Oudenaken"
	},
	{
		"id": 1914,
		"zip": "8460",
		"name": "Oudenburg"
	},
	{
		"id": 1915,
		"zip": "1160",
		"name": "Oudergem"
	},
	{
		"id": 1916,
		"zip": "3050",
		"name": "Oud-Heverlee"
	},
	{
		"id": 1917,
		"zip": "2360",
		"name": "Oud-Turnhout"
	},
	{
		"id": 1918,
		"zip": "4590",
		"name": "Ouffet"
	},
	{
		"id": 1919,
		"zip": "4102",
		"name": "Ougrée"
	},
	{
		"id": 1920,
		"zip": "4680",
		"name": "Oupeye"
	},
	{
		"id": 1921,
		"zip": "9406",
		"name": "Outer"
	},
	{
		"id": 1922,
		"zip": "3321",
		"name": "Outgaarden"
	},
	{
		"id": 1923,
		"zip": "4577",
		"name": "Outrelouxhe"
	},
	{
		"id": 1924,
		"zip": "8582",
		"name": "Outrijve"
	},
	{
		"id": 1925,
		"zip": "9750",
		"name": "Ouwegem"
	},
	{
		"id": 1926,
		"zip": "9500",
		"name": "Overboelare"
	},
	{
		"id": 1927,
		"zip": "3350",
		"name": "Overhespen"
	},
	{
		"id": 1928,
		"zip": "3090",
		"name": "Overijse"
	},
	{
		"id": 1929,
		"zip": "9290",
		"name": "Overmere"
	},
	{
		"id": 1930,
		"zip": "3900",
		"name": "Overpelt"
	},
	{
		"id": 1931,
		"zip": "3700",
		"name": "Overrepen"
	},
	{
		"id": 1932,
		"zip": "3400",
		"name": "Overwinden"
	},
	{
		"id": 1933,
		"zip": "3583",
		"name": "Paal"
	},
	{
		"id": 1934,
		"zip": "4452",
		"name": "Paifve"
	},
	{
		"id": 1935,
		"zip": "4560",
		"name": "Pailhe"
	},
	{
		"id": 1936,
		"zip": "6850",
		"name": "Paliseul"
	},
	{
		"id": 1937,
		"zip": "1760",
		"name": "Pamel"
	},
	{
		"id": 1938,
		"zip": "7861",
		"name": "Papignies"
	},
	{
		"id": 1939,
		"zip": "9661",
		"name": "Parike"
	},
	{
		"id": 1940,
		"zip": "7500",
		"name": "PARIS"
	},
	{
		"id": 1941,
		"zip": "8980",
		"name": "Passendale"
	},
	{
		"id": 1942,
		"zip": "5575",
		"name": "Patignies"
	},
	{
		"id": 1943,
		"zip": "7340",
		"name": "Pâturages"
	},
	{
		"id": 1944,
		"zip": "9630",
		"name": "Paulatem"
	},
	{
		"id": 1945,
		"zip": "7740",
		"name": "Pecq"
	},
	{
		"id": 1946,
		"zip": "3990",
		"name": "Peer"
	},
	{
		"id": 1947,
		"zip": "7120",
		"name": "Peissant"
	},
	{
		"id": 1948,
		"zip": "4287",
		"name": "Pellaines"
	},
	{
		"id": 1949,
		"zip": "3212",
		"name": "Pellenberg"
	},
	{
		"id": 1950,
		"zip": "1670",
		"name": "Pepingen"
	},
	{
		"id": 1951,
		"zip": "4860",
		"name": "Pepinster"
	},
	{
		"id": 1952,
		"zip": "1820",
		"name": "Perk"
	},
	{
		"id": 1953,
		"zip": "7640",
		"name": "Péronnes-lez-Antoing"
	},
	{
		"id": 1954,
		"zip": "7134",
		"name": "Péronnes-lez-Binche"
	},
	{
		"id": 1955,
		"zip": "7600",
		"name": "Péruwelz"
	},
	{
		"id": 1956,
		"zip": "8600",
		"name": "Pervijze"
	},
	{
		"id": 1957,
		"zip": "1360",
		"name": "Perwez"
	},
	{
		"id": 1958,
		"zip": "5352",
		"name": "Perwez-Haillot"
	},
	{
		"id": 1959,
		"zip": "5660",
		"name": "Pesche"
	},
	{
		"id": 1960,
		"zip": "5590",
		"name": "Pessoux"
	},
	{
		"id": 1961,
		"zip": "9800",
		"name": "Petegem-aan-de-Leie"
	},
	{
		"id": 1962,
		"zip": "9790",
		"name": "Petegem-aan-de-Schelde"
	},
	{
		"id": 1963,
		"zip": "5660",
		"name": "Petigny"
	},
	{
		"id": 1964,
		"zip": "5660",
		"name": "Petite-Chapelle"
	},
	{
		"id": 1965,
		"zip": "7850",
		"name": "Petit-Enghien"
	},
	{
		"id": 1966,
		"zip": "5555",
		"name": "Petit-Fays"
	},
	{
		"id": 1967,
		"zip": "4280",
		"name": "Petit-Hallet"
	},
	{
		"id": 1968,
		"zip": "4800",
		"name": "Petit-Rechain"
	},
	{
		"id": 1969,
		"zip": "7090",
		"name": "Petit-Roeulx-lez-Braine"
	},
	{
		"id": 1970,
		"zip": "7181",
		"name": "Petit-Roeulx-lez-Nivelles"
	},
	{
		"id": 1971,
		"zip": "6692",
		"name": "Petit-Thier"
	},
	{
		"id": 1972,
		"zip": "1800",
		"name": "Peutie"
	},
	{
		"id": 1973,
		"zip": "5600",
		"name": "Philippeville"
	},
	{
		"id": 1974,
		"zip": "7160",
		"name": "Piéton"
	},
	{
		"id": 1975,
		"zip": "1370",
		"name": "Piétrain"
	},
	{
		"id": 1976,
		"zip": "1315",
		"name": "Piètrebais"
	},
	{
		"id": 1977,
		"zip": "7904",
		"name": "Pipaix"
	},
	{
		"id": 1978,
		"zip": "3700",
		"name": "Piringen"
	},
	{
		"id": 1979,
		"zip": "6240",
		"name": "Pironchamps"
	},
	{
		"id": 1980,
		"zip": "8740",
		"name": "Pittem"
	},
	{
		"id": 1981,
		"zip": "4122",
		"name": "Plainevaux"
	},
	{
		"id": 1982,
		"zip": "1380",
		"name": "Plancenoit"
	},
	{
		"id": 1983,
		"zip": "7782",
		"name": "Ploegsteert"
	},
	{
		"id": 1984,
		"zip": "4850",
		"name": "Plombières"
	},
	{
		"id": 1985,
		"zip": "2275",
		"name": "Poederlee"
	},
	{
		"id": 1986,
		"zip": "9880",
		"name": "Poeke"
	},
	{
		"id": 1987,
		"zip": "8920",
		"name": "Poelkapelle"
	},
	{
		"id": 1988,
		"zip": "9850",
		"name": "Poesele"
	},
	{
		"id": 1989,
		"zip": "9401",
		"name": "Pollare"
	},
	{
		"id": 1990,
		"zip": "4910",
		"name": "Polleur (Theux)"
	},
	{
		"id": 1991,
		"zip": "4800",
		"name": "Polleur (Verviers)"
	},
	{
		"id": 1992,
		"zip": "8647",
		"name": "Pollinkhove"
	},
	{
		"id": 1993,
		"zip": "7322",
		"name": "Pommeroeul"
	},
	{
		"id": 1994,
		"zip": "5574",
		"name": "Pondrôme"
	},
	{
		"id": 1995,
		"zip": "6230",
		"name": "Pont-à-Celles"
	},
	{
		"id": 1996,
		"zip": "6250",
		"name": "Pont-de-Loup"
	},
	{
		"id": 1997,
		"zip": "5380",
		"name": "Pontillas"
	},
	{
		"id": 1998,
		"zip": "8970",
		"name": "Poperinge"
	},
	{
		"id": 1999,
		"zip": "2382",
		"name": "Poppel"
	},
	{
		"id": 2000,
		"zip": "7760",
		"name": "Popuelles"
	},
	{
		"id": 2001,
		"zip": "6929",
		"name": "Porcheresse (Lux.)"
	},
	{
		"id": 2002,
		"zip": "5370",
		"name": "Porcheresse (Nam.)"
	},
	{
		"id": 2003,
		"zip": "7760",
		"name": "Pottes"
	},
	{
		"id": 2004,
		"zip": "4280",
		"name": "Poucet"
	},
	{
		"id": 2005,
		"zip": "4171",
		"name": "Poulseur"
	},
	{
		"id": 2006,
		"zip": "6830",
		"name": "Poupehan"
	},
	{
		"id": 2007,
		"zip": "4350",
		"name": "Pousset"
	},
	{
		"id": 2008,
		"zip": "5660",
		"name": "Presgaux"
	},
	{
		"id": 2009,
		"zip": "6250",
		"name": "Presles"
	},
	{
		"id": 2010,
		"zip": "5170",
		"name": "Profondeville"
	},
	{
		"id": 2011,
		"zip": "8972",
		"name": "Proven"
	},
	{
		"id": 2012,
		"zip": "5650",
		"name": "Pry"
	},
	{
		"id": 2013,
		"zip": "2242",
		"name": "Pulderbos"
	},
	{
		"id": 2014,
		"zip": "2243",
		"name": "Pulle"
	},
	{
		"id": 2015,
		"zip": "5530",
		"name": "Purnode"
	},
	{
		"id": 2016,
		"zip": "5550",
		"name": "Pussemange"
	},
	{
		"id": 2017,
		"zip": "2580",
		"name": "Putte"
	},
	{
		"id": 2018,
		"zip": "2870",
		"name": "Puurs"
	},
	{
		"id": 2019,
		"zip": "7390",
		"name": "Quaregnon"
	},
	{
		"id": 2020,
		"zip": "7540",
		"name": "Quartes"
	},
	{
		"id": 2021,
		"zip": "1430",
		"name": "Quenast"
	},
	{
		"id": 2022,
		"zip": "4610",
		"name": "Queue-du-Bois"
	},
	{
		"id": 2023,
		"zip": "7972",
		"name": "Quevaucamps"
	},
	{
		"id": 2024,
		"zip": "7040",
		"name": "Quévy-le-Grand"
	},
	{
		"id": 2025,
		"zip": "7040",
		"name": "Quévy-le-Petit"
	},
	{
		"id": 2026,
		"zip": "7380",
		"name": "Quiévrain"
	},
	{
		"id": 2027,
		"zip": "6792",
		"name": "Rachecourt"
	},
	{
		"id": 2028,
		"zip": "4287",
		"name": "Racour"
	},
	{
		"id": 2029,
		"zip": "4730",
		"name": "Raeren"
	},
	{
		"id": 2030,
		"zip": "6532",
		"name": "Ragnies"
	},
	{
		"id": 2031,
		"zip": "4987",
		"name": "Rahier"
	},
	{
		"id": 2032,
		"zip": "7971",
		"name": "Ramegnies"
	},
	{
		"id": 2033,
		"zip": "7520",
		"name": "Ramegnies-Chin"
	},
	{
		"id": 2034,
		"zip": "4557",
		"name": "Ramelot"
	},
	{
		"id": 2035,
		"zip": "1367",
		"name": "Ramillies"
	},
	{
		"id": 2036,
		"zip": "1880",
		"name": "Ramsdonk"
	},
	{
		"id": 2037,
		"zip": "2230",
		"name": "Ramsel"
	},
	{
		"id": 2038,
		"zip": "8301",
		"name": "Ramskapelle (Knokke-Heist)"
	},
	{
		"id": 2039,
		"zip": "8620",
		"name": "Ramskapelle (Nieuwpoort)"
	},
	{
		"id": 2040,
		"zip": "6470",
		"name": "Rance"
	},
	{
		"id": 2041,
		"zip": "6043",
		"name": "Ransart"
	},
	{
		"id": 2042,
		"zip": "3470",
		"name": "Ransberg"
	},
	{
		"id": 2043,
		"zip": "2520",
		"name": "Ranst"
	},
	{
		"id": 2044,
		"zip": "2380",
		"name": "Ravels"
	},
	{
		"id": 2045,
		"zip": "7804",
		"name": "Rebaix"
	},
	{
		"id": 2046,
		"zip": "1430",
		"name": "Rebecq"
	},
	{
		"id": 2047,
		"zip": "1430",
		"name": "Rebecq-Rognon"
	},
	{
		"id": 2048,
		"zip": "4780",
		"name": "Recht"
	},
	{
		"id": 2049,
		"zip": "6800",
		"name": "Recogne"
	},
	{
		"id": 2050,
		"zip": "6890",
		"name": "Redu"
	},
	{
		"id": 2051,
		"zip": "2840",
		"name": "Reet"
	},
	{
		"id": 2052,
		"zip": "3621",
		"name": "Rekem"
	},
	{
		"id": 2053,
		"zip": "8930",
		"name": "Rekkem"
	},
	{
		"id": 2054,
		"zip": "1731",
		"name": "Relegem"
	},
	{
		"id": 2055,
		"zip": "6800",
		"name": "Remagne"
	},
	{
		"id": 2056,
		"zip": "3791",
		"name": "Remersdaal"
	},
	{
		"id": 2057,
		"zip": "4350",
		"name": "Remicourt"
	},
	{
		"id": 2058,
		"zip": "9600",
		"name": "Renaix"
	},
	{
		"id": 2059,
		"zip": "6987",
		"name": "Rendeux"
	},
	{
		"id": 2060,
		"zip": "8647",
		"name": "Reninge"
	},
	{
		"id": 2061,
		"zip": "8970",
		"name": "Reningelst"
	},
	{
		"id": 2062,
		"zip": "6500",
		"name": "Renlies"
	},
	{
		"id": 2063,
		"zip": "3950",
		"name": "Reppel"
	},
	{
		"id": 2064,
		"zip": "7134",
		"name": "Ressaix"
	},
	{
		"id": 2065,
		"zip": "9551",
		"name": "Ressegem"
	},
	{
		"id": 2066,
		"zip": "6927",
		"name": "Resteigne"
	},
	{
		"id": 2067,
		"zip": "2470",
		"name": "Retie"
	},
	{
		"id": 2068,
		"zip": "4621",
		"name": "Retinne"
	},
	{
		"id": 2069,
		"zip": "4790",
		"name": "Reuland"
	},
	{
		"id": 2070,
		"zip": "6210",
		"name": "Rèves"
	},
	{
		"id": 2071,
		"zip": "5080",
		"name": "Rhisnes"
	},
	{
		"id": 2072,
		"zip": "1640",
		"name": "Rhode-Saint-Genèse"
	},
	{
		"id": 2073,
		"zip": "4600",
		"name": "Richelle"
	},
	{
		"id": 2074,
		"zip": "3770",
		"name": "Riemst"
	},
	{
		"id": 2075,
		"zip": "5575",
		"name": "Rienne"
	},
	{
		"id": 2076,
		"zip": "6464",
		"name": "Rièzes"
	},
	{
		"id": 2077,
		"zip": "3840",
		"name": "Rijkel"
	},
	{
		"id": 2078,
		"zip": "2310",
		"name": "Rijkevorsel"
	},
	{
		"id": 2079,
		"zip": "3740",
		"name": "Rijkhoven"
	},
	{
		"id": 2080,
		"zip": "2820",
		"name": "Rijmenam"
	},
	{
		"id": 2081,
		"zip": "3700",
		"name": "Riksingen"
	},
	{
		"id": 2082,
		"zip": "3202",
		"name": "Rillaar"
	},
	{
		"id": 2083,
		"zip": "5170",
		"name": "Rivière"
	},
	{
		"id": 2084,
		"zip": "1330",
		"name": "Rixensart"
	},
	{
		"id": 2085,
		"zip": "6460",
		"name": "Robechies"
	},
	{
		"id": 2086,
		"zip": "6769",
		"name": "Robelmont"
	},
	{
		"id": 2087,
		"zip": "4950",
		"name": "Robertville"
	},
	{
		"id": 2088,
		"zip": "9630",
		"name": "Roborst"
	},
	{
		"id": 2089,
		"zip": "5580",
		"name": "Rochefort"
	},
	{
		"id": 2090,
		"zip": "6830",
		"name": "Rochehaut"
	},
	{
		"id": 2091,
		"zip": "4761",
		"name": "Rocherath"
	},
	{
		"id": 2092,
		"zip": "4690",
		"name": "Roclenge-sur-Geer"
	},
	{
		"id": 2093,
		"zip": "4000",
		"name": "Rocourt"
	},
	{
		"id": 2094,
		"zip": "8972",
		"name": "Roesbrugge-Haringe"
	},
	{
		"id": 2095,
		"zip": "8800",
		"name": "Roeselare"
	},
	{
		"id": 2096,
		"zip": "5651",
		"name": "Rognée"
	},
	{
		"id": 2097,
		"zip": "7387",
		"name": "Roisin"
	},
	{
		"id": 2098,
		"zip": "8460",
		"name": "Roksem"
	},
	{
		"id": 2099,
		"zip": "8510",
		"name": "Rollegem"
	},
	{
		"id": 2100,
		"zip": "8880",
		"name": "Rollegem-Kapelle"
	},
	{
		"id": 2101,
		"zip": "4347",
		"name": "Roloux"
	},
	{
		"id": 2102,
		"zip": "5600",
		"name": "Roly"
	},
	{
		"id": 2103,
		"zip": "5600",
		"name": "Romedenne"
	},
	{
		"id": 2104,
		"zip": "5680",
		"name": "Romerée"
	},
	{
		"id": 2105,
		"zip": "3730",
		"name": "Romershoven"
	},
	{
		"id": 2106,
		"zip": "4624",
		"name": "Romsée"
	},
	{
		"id": 2107,
		"zip": "7623",
		"name": "Rongy"
	},
	{
		"id": 2108,
		"zip": "7090",
		"name": "Ronquières"
	},
	{
		"id": 2109,
		"zip": "9600",
		"name": "Ronse"
	},
	{
		"id": 2110,
		"zip": "9932",
		"name": "Ronsele"
	},
	{
		"id": 2111,
		"zip": "3370",
		"name": "Roosbeek"
	},
	{
		"id": 2112,
		"zip": "1760",
		"name": "Roosdaal"
	},
	{
		"id": 2113,
		"zip": "4012",
		"name": "ROQUEFORT"
	},
	{
		"id": 2114,
		"zip": "5620",
		"name": "Rosée"
	},
	{
		"id": 2115,
		"zip": "6250",
		"name": "Roselies"
	},
	{
		"id": 2116,
		"zip": "1331",
		"name": "Rosières"
	},
	{
		"id": 2117,
		"zip": "3740",
		"name": "Rosmeer"
	},
	{
		"id": 2118,
		"zip": "4257",
		"name": "Rosoux-Crenwick"
	},
	{
		"id": 2119,
		"zip": "6730",
		"name": "Rossignol"
	},
	{
		"id": 2120,
		"zip": "3650",
		"name": "Rotem"
	},
	{
		"id": 2121,
		"zip": "4120",
		"name": "Rotheux-Rimière"
	},
	{
		"id": 2122,
		"zip": "3110",
		"name": "Rotselaar"
	},
	{
		"id": 2123,
		"zip": "7601",
		"name": "Roucourt"
	},
	{
		"id": 2124,
		"zip": "7120",
		"name": "Rouveroy (Ht.)"
	},
	{
		"id": 2125,
		"zip": "4140",
		"name": "Rouvreux"
	},
	{
		"id": 2126,
		"zip": "6767",
		"name": "Rouvroy"
	},
	{
		"id": 2127,
		"zip": "6044",
		"name": "Roux"
	},
	{
		"id": 2128,
		"zip": "1315",
		"name": "Roux-Miroir"
	},
	{
		"id": 2129,
		"zip": "6900",
		"name": "Roy"
	},
	{
		"id": 2130,
		"zip": "9630",
		"name": "Rozebeke"
	},
	{
		"id": 2131,
		"zip": "8020",
		"name": "Ruddervoorde"
	},
	{
		"id": 2132,
		"zip": "6760",
		"name": "Ruette"
	},
	{
		"id": 2133,
		"zip": "9690",
		"name": "Ruien"
	},
	{
		"id": 2134,
		"zip": "2870",
		"name": "Ruisbroek (Antw.)"
	},
	{
		"id": 2135,
		"zip": "1601",
		"name": "Ruisbroek (Bt.)"
	},
	{
		"id": 2136,
		"zip": "8755",
		"name": "Ruiselede"
	},
	{
		"id": 2137,
		"zip": "3870",
		"name": "Rukkelingen-Loon"
	},
	{
		"id": 2138,
		"zip": "6724",
		"name": "Rulles"
	},
	{
		"id": 2139,
		"zip": "8800",
		"name": "Rumbeke"
	},
	{
		"id": 2140,
		"zip": "7610",
		"name": "Rumes"
	},
	{
		"id": 2141,
		"zip": "7540",
		"name": "Rumillies"
	},
	{
		"id": 2142,
		"zip": "3454",
		"name": "Rummen"
	},
	{
		"id": 2143,
		"zip": "3400",
		"name": "Rumsdorp"
	},
	{
		"id": 2144,
		"zip": "2840",
		"name": "Rumst"
	},
	{
		"id": 2145,
		"zip": "3803",
		"name": "Runkelen"
	},
	{
		"id": 2146,
		"zip": "9150",
		"name": "Rupelmonde"
	},
	{
		"id": 2147,
		"zip": "7750",
		"name": "Russeignies"
	},
	{
		"id": 2148,
		"zip": "3700",
		"name": "Rutten"
	},
	{
		"id": 2149,
		"zip": "3798",
		"name": "'s Gravenvoeren"
	},
	{
		"id": 2150,
		"zip": "2970",
		"name": "'s Gravenwezel"
	},
	{
		"id": 2151,
		"zip": "3700",
		"name": "'s Herenelderen"
	},
	{
		"id": 2152,
		"zip": "6221",
		"name": "Saint-Amand"
	},
	{
		"id": 2153,
		"zip": "4606",
		"name": "Saint-André"
	},
	{
		"id": 2154,
		"zip": "5620",
		"name": "Saint-Aubin"
	},
	{
		"id": 2155,
		"zip": "7034",
		"name": "Saint-Denis (Ht.)"
	},
	{
		"id": 2156,
		"zip": "5081",
		"name": "Saint-Denis-Bovesse"
	},
	{
		"id": 2157,
		"zip": "6820",
		"name": "Sainte-Cécile"
	},
	{
		"id": 2158,
		"zip": "6800",
		"name": "Sainte-Marie-Chevigny"
	},
	{
		"id": 2159,
		"zip": "6740",
		"name": "Sainte-Marie-sur-Semois"
	},
	{
		"id": 2160,
		"zip": "6680",
		"name": "Sainte-Ode"
	},
	{
		"id": 2161,
		"zip": "1480",
		"name": "Saintes"
	},
	{
		"id": 2162,
		"zip": "4470",
		"name": "Saint-Georges-sur-Meuse"
	},
	{
		"id": 2163,
		"zip": "5640",
		"name": "Saint-Gérard"
	},
	{
		"id": 2164,
		"zip": "5310",
		"name": "Saint-Germain"
	},
	{
		"id": 2165,
		"zip": "1450",
		"name": "Saint-Géry"
	},
	{
		"id": 2166,
		"zip": "7330",
		"name": "Saint-Ghislain"
	},
	{
		"id": 2167,
		"zip": "1060",
		"name": "Saint-Gilles"
	},
	{
		"id": 2168,
		"zip": "6870",
		"name": "Saint-Hubert"
	},
	{
		"id": 2169,
		"zip": "1370",
		"name": "Saint-Jean-Geest"
	},
	{
		"id": 2170,
		"zip": "1210",
		"name": "Saint-Josse-ten-Noode"
	},
	{
		"id": 2171,
		"zip": "7730",
		"name": "Saint-Léger (Ht.)"
	},
	{
		"id": 2172,
		"zip": "6747",
		"name": "Saint-Léger (Lux.)"
	},
	{
		"id": 2173,
		"zip": "5003",
		"name": "Saint-Marc"
	},
	{
		"id": 2174,
		"zip": "6762",
		"name": "Saint-Mard"
	},
	{
		"id": 2175,
		"zip": "5190",
		"name": "Saint-Martin"
	},
	{
		"id": 2176,
		"zip": "7500",
		"name": "Saint-Maur"
	},
	{
		"id": 2177,
		"zip": "6887",
		"name": "Saint-Médard"
	},
	{
		"id": 2178,
		"zip": "4420",
		"name": "Saint-Nicolas (Lg.)"
	},
	{
		"id": 2179,
		"zip": "6800",
		"name": "Saint-Pierre"
	},
	{
		"id": 2180,
		"zip": "6460",
		"name": "Saint-Remy (Ht.)"
	},
	{
		"id": 2181,
		"zip": "4672",
		"name": "Saint-Remy (Lg.)"
	},
	{
		"id": 2182,
		"zip": "1370",
		"name": "Saint-Remy-Geest"
	},
	{
		"id": 2183,
		"zip": "7912",
		"name": "Saint-Sauveur"
	},
	{
		"id": 2184,
		"zip": "5002",
		"name": "Saint-Servais"
	},
	{
		"id": 2185,
		"zip": "4550",
		"name": "Saint-Séverin"
	},
	{
		"id": 2186,
		"zip": "7030",
		"name": "Saint-Symphorien"
	},
	{
		"id": 2187,
		"zip": "7100",
		"name": "Saint-Vaast"
	},
	{
		"id": 2188,
		"zip": "6730",
		"name": "Saint-Vincent"
	},
	{
		"id": 2189,
		"zip": "4780",
		"name": "Saint-Vith"
	},
	{
		"id": 2190,
		"zip": "4671",
		"name": "Saive"
	},
	{
		"id": 2191,
		"zip": "6460",
		"name": "Salles"
	},
	{
		"id": 2192,
		"zip": "5600",
		"name": "Samart"
	},
	{
		"id": 2193,
		"zip": "5060",
		"name": "Sambreville"
	},
	{
		"id": 2194,
		"zip": "6982",
		"name": "Samrée"
	},
	{
		"id": 2195,
		"zip": "4780",
		"name": "Sankt Vith"
	},
	{
		"id": 2196,
		"zip": "7080",
		"name": "Sars-la-Bruyère"
	},
	{
		"id": 2197,
		"zip": "6542",
		"name": "Sars-la-Buissière"
	},
	{
		"id": 2198,
		"zip": "5330",
		"name": "Sart-Bernard"
	},
	{
		"id": 2199,
		"zip": "5575",
		"name": "Sart-Custinne"
	},
	{
		"id": 2200,
		"zip": "1495",
		"name": "Sart-Dames-Avelines"
	},
	{
		"id": 2201,
		"zip": "5600",
		"name": "Sart-en-Fagne"
	},
	{
		"id": 2202,
		"zip": "5070",
		"name": "Sart-Eustache"
	},
	{
		"id": 2203,
		"zip": "4845",
		"name": "Sart-lez-Spa"
	},
	{
		"id": 2204,
		"zip": "5070",
		"name": "Sart-Saint-Laurent"
	},
	{
		"id": 2205,
		"zip": "6470",
		"name": "Sautin"
	},
	{
		"id": 2206,
		"zip": "5600",
		"name": "Sautour"
	},
	{
		"id": 2207,
		"zip": "5030",
		"name": "Sauvenière"
	},
	{
		"id": 2208,
		"zip": "1030",
		"name": "Schaarbeek"
	},
	{
		"id": 2209,
		"zip": "1030",
		"name": "Schaerbeek"
	},
	{
		"id": 2210,
		"zip": "3290",
		"name": "Schaffen"
	},
	{
		"id": 2211,
		"zip": "3732",
		"name": "Schalkhoven"
	},
	{
		"id": 2212,
		"zip": "5364",
		"name": "Schaltin"
	},
	{
		"id": 2213,
		"zip": "9820",
		"name": "Schelderode"
	},
	{
		"id": 2214,
		"zip": "9860",
		"name": "Scheldewindeke"
	},
	{
		"id": 2215,
		"zip": "2627",
		"name": "Schelle"
	},
	{
		"id": 2216,
		"zip": "9260",
		"name": "Schellebelle"
	},
	{
		"id": 2217,
		"zip": "9506",
		"name": "Schendelbeke"
	},
	{
		"id": 2218,
		"zip": "1703",
		"name": "Schepdaal"
	},
	{
		"id": 2219,
		"zip": "3270",
		"name": "Scherpenheuvel"
	},
	{
		"id": 2220,
		"zip": "2970",
		"name": "Schilde"
	},
	{
		"id": 2221,
		"zip": "4782",
		"name": "Schoenberg"
	},
	{
		"id": 2222,
		"zip": "4782",
		"name": "Schönberg"
	},
	{
		"id": 2223,
		"zip": "9200",
		"name": "Schoonaarde"
	},
	{
		"id": 2224,
		"zip": "8433",
		"name": "Schore"
	},
	{
		"id": 2225,
		"zip": "9688",
		"name": "Schorisse"
	},
	{
		"id": 2226,
		"zip": "2900",
		"name": "Schoten"
	},
	{
		"id": 2227,
		"zip": "2223",
		"name": "Schriek"
	},
	{
		"id": 2228,
		"zip": "8700",
		"name": "Schuiferskapelle"
	},
	{
		"id": 2229,
		"zip": "3540",
		"name": "Schulen"
	},
	{
		"id": 2230,
		"zip": "5300",
		"name": "Sclayn"
	},
	{
		"id": 2231,
		"zip": "5361",
		"name": "Scy"
	},
	{
		"id": 2232,
		"zip": "5300",
		"name": "Seilles"
	},
	{
		"id": 2233,
		"zip": "6781",
		"name": "Sélange"
	},
	{
		"id": 2234,
		"zip": "6596",
		"name": "Seloignes"
	},
	{
		"id": 2235,
		"zip": "9890",
		"name": "Semmerzake"
	},
	{
		"id": 2236,
		"zip": "7180",
		"name": "Seneffe"
	},
	{
		"id": 2237,
		"zip": "6832",
		"name": "Sensenruth"
	},
	{
		"id": 2238,
		"zip": "4557",
		"name": "Seny"
	},
	{
		"id": 2239,
		"zip": "5630",
		"name": "Senzeille"
	},
	{
		"id": 2240,
		"zip": "6940",
		"name": "Septon"
	},
	{
		"id": 2241,
		"zip": "4100",
		"name": "Seraing"
	},
	{
		"id": 2242,
		"zip": "4537",
		"name": "Seraing-le-Château"
	},
	{
		"id": 2243,
		"zip": "5590",
		"name": "Serinchamps"
	},
	{
		"id": 2244,
		"zip": "9260",
		"name": "Serskamp"
	},
	{
		"id": 2245,
		"zip": "5521",
		"name": "Serville"
	},
	{
		"id": 2246,
		"zip": "6640",
		"name": "Sibret"
	},
	{
		"id": 2247,
		"zip": "6750",
		"name": "Signeulx"
	},
	{
		"id": 2248,
		"zip": "8340",
		"name": "Sijsele"
	},
	{
		"id": 2249,
		"zip": "5630",
		"name": "Silenrieux"
	},
	{
		"id": 2250,
		"zip": "7830",
		"name": "Silly"
	},
	{
		"id": 2251,
		"zip": "9112",
		"name": "Sinaai-Waas"
	},
	{
		"id": 2252,
		"zip": "5377",
		"name": "Sinsin"
	},
	{
		"id": 2253,
		"zip": "1080",
		"name": "Sint-Agatha-Berchem"
	},
	{
		"id": 2254,
		"zip": "3040",
		"name": "Sint-Agatha-Rode"
	},
	{
		"id": 2255,
		"zip": "2890",
		"name": "Sint-Amands"
	},
	{
		"id": 2256,
		"zip": "9040",
		"name": "Sint-Amandsberg"
	},
	{
		"id": 2257,
		"zip": "8200",
		"name": "Sint-Andries"
	},
	{
		"id": 2258,
		"zip": "9550",
		"name": "Sint-Antelinks"
	},
	{
		"id": 2259,
		"zip": "8710",
		"name": "Sint-Baafs-Vijve"
	},
	{
		"id": 2260,
		"zip": "9630",
		"name": "Sint-Blasius-Boekel"
	},
	{
		"id": 2261,
		"zip": "8554",
		"name": "Sint-Denijs"
	},
	{
		"id": 2262,
		"zip": "9630",
		"name": "Sint-Denijs-Boekel"
	},
	{
		"id": 2263,
		"zip": "9051",
		"name": "Sint-Denijs-Westrem"
	},
	{
		"id": 2264,
		"zip": "8793",
		"name": "Sint-Eloois-Vijve"
	},
	{
		"id": 2265,
		"zip": "8880",
		"name": "Sint-Eloois-Winkel"
	},
	{
		"id": 2266,
		"zip": "1640",
		"name": "Sint-Genesius-Rode"
	},
	{
		"id": 2267,
		"zip": "1060",
		"name": "Sint-Gillis"
	},
	{
		"id": 2268,
		"zip": "9170",
		"name": "Sint-Gillis-Waas"
	},
	{
		"id": 2269,
		"zip": "9620",
		"name": "Sint-Goriks-Oudenhove"
	},
	{
		"id": 2270,
		"zip": "3730",
		"name": "Sint-Huibrechts-Hern"
	},
	{
		"id": 2271,
		"zip": "3910",
		"name": "Sint-Huibrechts-Lille"
	},
	{
		"id": 2272,
		"zip": "8600",
		"name": "Sint-Jacobs-Kapelle"
	},
	{
		"id": 2273,
		"zip": "8900",
		"name": "Sint-Jan"
	},
	{
		"id": 2274,
		"zip": "9982",
		"name": "Sint-Jan-in-Eremo"
	},
	{
		"id": 2275,
		"zip": "1080",
		"name": "Sint-Jans-Molenbeek"
	},
	{
		"id": 2276,
		"zip": "2960",
		"name": "Sint-Job-in-'t-Goor"
	},
	{
		"id": 2277,
		"zip": "1210",
		"name": "Sint-Joost-ten-Node"
	},
	{
		"id": 2278,
		"zip": "8730",
		"name": "Sint-Joris (Beernem)"
	},
	{
		"id": 2279,
		"zip": "8620",
		"name": "Sint-Joris (Nieuwpoort)"
	},
	{
		"id": 2280,
		"zip": "3051",
		"name": "Sint-Joris-Weert"
	},
	{
		"id": 2281,
		"zip": "3390",
		"name": "Sint-Joris-Winge"
	},
	{
		"id": 2282,
		"zip": "2860",
		"name": "Sint-Katelijne-Waver"
	},
	{
		"id": 2283,
		"zip": "1742",
		"name": "Sint-Katherina-lombeek"
	},
	{
		"id": 2284,
		"zip": "9667",
		"name": "Sint-Kornelis-Horebeke"
	},
	{
		"id": 2285,
		"zip": "8310",
		"name": "Sint-Kruis (Brugge)"
	},
	{
		"id": 2286,
		"zip": "9042",
		"name": "Sint-Kruis-Winkel"
	},
	{
		"id": 2287,
		"zip": "1750",
		"name": "Sint-Kwintens-Lennik"
	},
	{
		"id": 2288,
		"zip": "3500",
		"name": "Sint-Lambrechts-Herk"
	},
	{
		"id": 2289,
		"zip": "1200",
		"name": "Sint-Lambrechts-Woluwe"
	},
	{
		"id": 2290,
		"zip": "9980",
		"name": "Sint-Laureins"
	},
	{
		"id": 2291,
		"zip": "1600",
		"name": "Sint-Laureins-Berchem"
	},
	{
		"id": 2292,
		"zip": "2960",
		"name": "Sint-Lenaerts"
	},
	{
		"id": 2293,
		"zip": "9550",
		"name": "Sint-Lievens-Esse"
	},
	{
		"id": 2294,
		"zip": "9520",
		"name": "Sint-Lievens-Houtem"
	},
	{
		"id": 2295,
		"zip": "9981",
		"name": "Sint-Margriete"
	},
	{
		"id": 2296,
		"zip": "9667",
		"name": "Sint-Maria-Horebeke"
	},
	{
		"id": 2297,
		"zip": "9630",
		"name": "Sint-Maria-Latem"
	},
	{
		"id": 2298,
		"zip": "9570",
		"name": "Sint-Maria-Lierde"
	},
	{
		"id": 2299,
		"zip": "1700",
		"name": "Sint-Martens-Bodegem"
	},
	{
		"id": 2300,
		"zip": "9830",
		"name": "Sint-Martens-Latem"
	},
	{
		"id": 2301,
		"zip": "9800",
		"name": "Sint-Martens-Leerne"
	},
	{
		"id": 2302,
		"zip": "1750",
		"name": "Sint-Martens-Lennik"
	},
	{
		"id": 2303,
		"zip": "9572",
		"name": "Sint-Martens-Lierde"
	},
	{
		"id": 2304,
		"zip": "3790",
		"name": "Sint-Martens-Voeren"
	},
	{
		"id": 2305,
		"zip": "8200",
		"name": "Sint-Michiels"
	},
	{
		"id": 2306,
		"zip": "9100",
		"name": "Sint-Niklaas"
	},
	{
		"id": 2307,
		"zip": "9170",
		"name": "Sint-Pauwels"
	},
	{
		"id": 2308,
		"zip": "1541",
		"name": "Sint-Pieters-Kapelle (Bt.)"
	},
	{
		"id": 2309,
		"zip": "1600",
		"name": "Sint-Pieters-Leeuw"
	},
	{
		"id": 2310,
		"zip": "3220",
		"name": "Sint-Pieters-Rode"
	},
	{
		"id": 2311,
		"zip": "3792",
		"name": "Sint-Pieters-Voeren"
	},
	{
		"id": 2312,
		"zip": "1150",
		"name": "Sint-Pieters-Woluwe"
	},
	{
		"id": 2313,
		"zip": "8690",
		"name": "Sint-Rijkers"
	},
	{
		"id": 2314,
		"zip": "1932",
		"name": "Sint-Stevens-Woluwe"
	},
	{
		"id": 2315,
		"zip": "3800",
		"name": "Sint-Truiden"
	},
	{
		"id": 2316,
		"zip": "1700",
		"name": "Sint-Ulriks-Kapelle"
	},
	{
		"id": 2317,
		"zip": "4851",
		"name": "Sippenaeken"
	},
	{
		"id": 2318,
		"zip": "7332",
		"name": "Sirault"
	},
	{
		"id": 2319,
		"zip": "6470",
		"name": "Sivry"
	},
	{
		"id": 2320,
		"zip": "6470",
		"name": "Sivry-Rance"
	},
	{
		"id": 2321,
		"zip": "9940",
		"name": "Sleidinge"
	},
	{
		"id": 2322,
		"zip": "8433",
		"name": "Slijpe"
	},
	{
		"id": 2323,
		"zip": "4450",
		"name": "Slins"
	},
	{
		"id": 2324,
		"zip": "3700",
		"name": "Sluizen"
	},
	{
		"id": 2325,
		"zip": "9506",
		"name": "Smeerebbe-Vloerzegem"
	},
	{
		"id": 2326,
		"zip": "9340",
		"name": "Smetlede"
	},
	{
		"id": 2327,
		"zip": "6890",
		"name": "Smuid"
	},
	{
		"id": 2328,
		"zip": "8470",
		"name": "Snaaskerke"
	},
	{
		"id": 2329,
		"zip": "8490",
		"name": "Snellegem"
	},
	{
		"id": 2330,
		"zip": "4557",
		"name": "Soheit-Tinlot"
	},
	{
		"id": 2331,
		"zip": "6920",
		"name": "Sohier"
	},
	{
		"id": 2332,
		"zip": "7060",
		"name": "Soignies"
	},
	{
		"id": 2333,
		"zip": "4861",
		"name": "Soiron"
	},
	{
		"id": 2334,
		"zip": "6500",
		"name": "Solre-Saint-Géry"
	},
	{
		"id": 2335,
		"zip": "6560",
		"name": "Solre-sur-Sambre"
	},
	{
		"id": 2336,
		"zip": "5140",
		"name": "Sombreffe"
	},
	{
		"id": 2337,
		"zip": "5377",
		"name": "Somme-Leuze"
	},
	{
		"id": 2338,
		"zip": "6769",
		"name": "Sommethonne"
	},
	{
		"id": 2339,
		"zip": "5523",
		"name": "Sommière"
	},
	{
		"id": 2340,
		"zip": "5651",
		"name": "Somzée"
	},
	{
		"id": 2341,
		"zip": "5340",
		"name": "Sorée"
	},
	{
		"id": 2342,
		"zip": "5333",
		"name": "Sorinne-la-Longue"
	},
	{
		"id": 2343,
		"zip": "5503",
		"name": "Sorinnes"
	},
	{
		"id": 2344,
		"zip": "5537",
		"name": "Sosoye"
	},
	{
		"id": 2345,
		"zip": "4920",
		"name": "Sougné-Remouchamps"
	},
	{
		"id": 2346,
		"zip": "5680",
		"name": "Soulme"
	},
	{
		"id": 2347,
		"zip": "4630",
		"name": "Soumagne"
	},
	{
		"id": 2348,
		"zip": "5630",
		"name": "Soumoy"
	},
	{
		"id": 2349,
		"zip": "4950",
		"name": "Sourbrodt"
	},
	{
		"id": 2350,
		"zip": "6182",
		"name": "Souvret"
	},
	{
		"id": 2351,
		"zip": "5590",
		"name": "Sovet"
	},
	{
		"id": 2352,
		"zip": "6997",
		"name": "Soy"
	},
	{
		"id": 2353,
		"zip": "5150",
		"name": "Soye (Nam.)"
	},
	{
		"id": 2354,
		"zip": "4900",
		"name": "Spa"
	},
	{
		"id": 2355,
		"zip": "3510",
		"name": "Spalbeek"
	},
	{
		"id": 2356,
		"zip": "7032",
		"name": "Spiennes"
	},
	{
		"id": 2357,
		"zip": "8587",
		"name": "Spiere"
	},
	{
		"id": 2358,
		"zip": "8587",
		"name": "Spiere-Helkijn"
	},
	{
		"id": 2359,
		"zip": "5530",
		"name": "Spontin"
	},
	{
		"id": 2360,
		"zip": "4140",
		"name": "Sprimont"
	},
	{
		"id": 2361,
		"zip": "5190",
		"name": "Spy"
	},
	{
		"id": 2362,
		"zip": "2940",
		"name": "Stabroek"
	},
	{
		"id": 2363,
		"zip": "8840",
		"name": "Staden"
	},
	{
		"id": 2364,
		"zip": "8490",
		"name": "Stalhille"
	},
	{
		"id": 2365,
		"zip": "7973",
		"name": "Stambruges"
	},
	{
		"id": 2366,
		"zip": "5646",
		"name": "Stave"
	},
	{
		"id": 2367,
		"zip": "8691",
		"name": "Stavele"
	},
	{
		"id": 2368,
		"zip": "4970",
		"name": "Stavelot"
	},
	{
		"id": 2369,
		"zip": "9140",
		"name": "Steendorp"
	},
	{
		"id": 2370,
		"zip": "1840",
		"name": "Steenhuffel"
	},
	{
		"id": 2371,
		"zip": "9550",
		"name": "Steenhuize-Wijnhuize"
	},
	{
		"id": 2372,
		"zip": "8630",
		"name": "Steenkerke (W.-VL.)"
	},
	{
		"id": 2373,
		"zip": "7090",
		"name": "Steenkerque (Ht.)"
	},
	{
		"id": 2374,
		"zip": "1820",
		"name": "Steenokkerzeel"
	},
	{
		"id": 2375,
		"zip": "9190",
		"name": "Stekene"
	},
	{
		"id": 2376,
		"zip": "4801",
		"name": "Stembert"
	},
	{
		"id": 2377,
		"zip": "8400",
		"name": "Stene"
	},
	{
		"id": 2378,
		"zip": "1933",
		"name": "Sterrebeek"
	},
	{
		"id": 2379,
		"zip": "3512",
		"name": "Stevoort"
	},
	{
		"id": 2380,
		"zip": "9200",
		"name": "St-Gillis-bij-Dendermonde"
	},
	{
		"id": 2381,
		"zip": "3470",
		"name": "St-Margriete (Kortenaken)"
	},
	{
		"id": 2382,
		"zip": "3300",
		"name": "St-Margriete-Houtem(Tien.)"
	},
	{
		"id": 2383,
		"zip": "9660",
		"name": "St-Maria-Oudenhove(Brakel)"
	},
	{
		"id": 2384,
		"zip": "9620",
		"name": "St-Maria-Oudenhove(Zott.)"
	},
	{
		"id": 2385,
		"zip": "3650",
		"name": "Stokkem"
	},
	{
		"id": 2386,
		"zip": "3511",
		"name": "Stokrooie"
	},
	{
		"id": 2387,
		"zip": "4987",
		"name": "Stoumont"
	},
	{
		"id": 2388,
		"zip": "8433",
		"name": "St-Pieters-Kapelle(W.-Vl.)"
	},
	{
		"id": 2389,
		"zip": "6887",
		"name": "Straimont"
	},
	{
		"id": 2390,
		"zip": "6511",
		"name": "Strée (Ht.)"
	},
	{
		"id": 2391,
		"zip": "4577",
		"name": "Strée-lez-Huy"
	},
	{
		"id": 2392,
		"zip": "7110",
		"name": "Strépy-Bracquegnies"
	},
	{
		"id": 2393,
		"zip": "9620",
		"name": "Strijpen"
	},
	{
		"id": 2394,
		"zip": "1760",
		"name": "Strijtem"
	},
	{
		"id": 2395,
		"zip": "1853",
		"name": "Strombeek-Bever"
	},
	{
		"id": 2396,
		"zip": "8600",
		"name": "Stuivekenskerke"
	},
	{
		"id": 2397,
		"zip": "5020",
		"name": "Suarlée"
	},
	{
		"id": 2398,
		"zip": "5550",
		"name": "Sugny"
	},
	{
		"id": 2399,
		"zip": "5600",
		"name": "Surice"
	},
	{
		"id": 2400,
		"zip": "6812",
		"name": "Suxy"
	},
	{
		"id": 2401,
		"zip": "6661",
		"name": "Tailles"
	},
	{
		"id": 2402,
		"zip": "7618",
		"name": "Taintignies"
	},
	{
		"id": 2403,
		"zip": "5060",
		"name": "Tamines"
	},
	{
		"id": 2404,
		"zip": "5651",
		"name": "Tarcienne"
	},
	{
		"id": 2405,
		"zip": "4163",
		"name": "Tavier"
	},
	{
		"id": 2406,
		"zip": "5310",
		"name": "Taviers (Nam.)"
	},
	{
		"id": 2407,
		"zip": "6662",
		"name": "Tavigny"
	},
	{
		"id": 2408,
		"zip": "6927",
		"name": "Tellin"
	},
	{
		"id": 2409,
		"zip": "7520",
		"name": "Templeuve"
	},
	{
		"id": 2410,
		"zip": "5020",
		"name": "Temploux"
	},
	{
		"id": 2411,
		"zip": "9140",
		"name": "Temse"
	},
	{
		"id": 2412,
		"zip": "6970",
		"name": "Tenneville"
	},
	{
		"id": 2413,
		"zip": "1790",
		"name": "Teralfene"
	},
	{
		"id": 2414,
		"zip": "2840",
		"name": "Terhagen"
	},
	{
		"id": 2415,
		"zip": "6813",
		"name": "Termes"
	},
	{
		"id": 2416,
		"zip": "1740",
		"name": "Ternat"
	},
	{
		"id": 2417,
		"zip": "7333",
		"name": "Tertre"
	},
	{
		"id": 2418,
		"zip": "3080",
		"name": "Tervuren"
	},
	{
		"id": 2419,
		"zip": "4560",
		"name": "Terwagne"
	},
	{
		"id": 2420,
		"zip": "3980",
		"name": "Tessenderlo"
	},
	{
		"id": 2421,
		"zip": "3272",
		"name": "Testelt"
	},
	{
		"id": 2422,
		"zip": "3793",
		"name": "Teuven"
	},
	{
		"id": 2423,
		"zip": "4910",
		"name": "Theux"
	},
	{
		"id": 2424,
		"zip": "6717",
		"name": "Thiaumont"
	},
	{
		"id": 2425,
		"zip": "7070",
		"name": "Thieu"
	},
	{
		"id": 2426,
		"zip": "7901",
		"name": "Thieulain"
	},
	{
		"id": 2427,
		"zip": "7061",
		"name": "Thieusies"
	},
	{
		"id": 2428,
		"zip": "6230",
		"name": "Thiméon"
	},
	{
		"id": 2429,
		"zip": "4890",
		"name": "Thimister"
	},
	{
		"id": 2430,
		"zip": "4890",
		"name": "Thimister-Clermont"
	},
	{
		"id": 2431,
		"zip": "7533",
		"name": "Thimougies"
	},
	{
		"id": 2432,
		"zip": "1402",
		"name": "Thines"
	},
	{
		"id": 2433,
		"zip": "6500",
		"name": "Thirimont"
	},
	{
		"id": 2434,
		"zip": "4280",
		"name": "Thisnes"
	},
	{
		"id": 2435,
		"zip": "4791",
		"name": "Thommen"
	},
	{
		"id": 2436,
		"zip": "5300",
		"name": "Thon"
	},
	{
		"id": 2437,
		"zip": "1360",
		"name": "Thorembais-les-Béguines"
	},
	{
		"id": 2438,
		"zip": "1360",
		"name": "Thorembais-Saint-Trond"
	},
	{
		"id": 2439,
		"zip": "7830",
		"name": "Thoricourt"
	},
	{
		"id": 2440,
		"zip": "6536",
		"name": "Thuillies"
	},
	{
		"id": 2441,
		"zip": "6530",
		"name": "Thuin"
	},
	{
		"id": 2442,
		"zip": "7350",
		"name": "Thulin"
	},
	{
		"id": 2443,
		"zip": "7971",
		"name": "Thumaide"
	},
	{
		"id": 2444,
		"zip": "5621",
		"name": "Thy-le-Bauduin"
	},
	{
		"id": 2445,
		"zip": "5651",
		"name": "Thy-le-Château"
	},
	{
		"id": 2446,
		"zip": "5502",
		"name": "Thynes"
	},
	{
		"id": 2447,
		"zip": "4367",
		"name": "Thys"
	},
	{
		"id": 2448,
		"zip": "8573",
		"name": "Tiegem"
	},
	{
		"id": 2449,
		"zip": "2460",
		"name": "Tielen"
	},
	{
		"id": 2450,
		"zip": "9140",
		"name": "Tielrode"
	},
	{
		"id": 2451,
		"zip": "8700",
		"name": "Tielt"
	},
	{
		"id": 2452,
		"zip": "3390",
		"name": "Tielt (Bt.)"
	},
	{
		"id": 2453,
		"zip": "3300",
		"name": "Tienen"
	},
	{
		"id": 2454,
		"zip": "4630",
		"name": "Tignée"
	},
	{
		"id": 2455,
		"zip": "4500",
		"name": "Tihange"
	},
	{
		"id": 2456,
		"zip": "3150",
		"name": "Tildonk"
	},
	{
		"id": 2457,
		"zip": "4130",
		"name": "Tilff"
	},
	{
		"id": 2458,
		"zip": "6680",
		"name": "Tillet"
	},
	{
		"id": 2459,
		"zip": "4420",
		"name": "Tilleur"
	},
	{
		"id": 2460,
		"zip": "5380",
		"name": "Tillier"
	},
	{
		"id": 2461,
		"zip": "1495",
		"name": "Tilly"
	},
	{
		"id": 2462,
		"zip": "4557",
		"name": "Tinlot"
	},
	{
		"id": 2463,
		"zip": "6637",
		"name": "Tintange"
	},
	{
		"id": 2464,
		"zip": "6730",
		"name": "Tintigny"
	},
	{
		"id": 2465,
		"zip": "2830",
		"name": "Tisselt"
	},
	{
		"id": 2466,
		"zip": "6700",
		"name": "Toernich"
	},
	{
		"id": 2467,
		"zip": "6941",
		"name": "Tohogne"
	},
	{
		"id": 2468,
		"zip": "1570",
		"name": "Tollembeek"
	},
	{
		"id": 2469,
		"zip": "3700",
		"name": "Tongeren"
	},
	{
		"id": 2470,
		"zip": "2260",
		"name": "Tongerlo (Antw.)"
	},
	{
		"id": 2471,
		"zip": "3960",
		"name": "Tongerlo (Limb.)"
	},
	{
		"id": 2472,
		"zip": "7951",
		"name": "Tongre-Notre-Dame"
	},
	{
		"id": 2473,
		"zip": "7950",
		"name": "Tongre-Saint-Martin"
	},
	{
		"id": 2474,
		"zip": "5140",
		"name": "Tongrinne"
	},
	{
		"id": 2475,
		"zip": "6717",
		"name": "Tontelange"
	},
	{
		"id": 2476,
		"zip": "6767",
		"name": "Torgny"
	},
	{
		"id": 2477,
		"zip": "8820",
		"name": "Torhout"
	},
	{
		"id": 2478,
		"zip": "4263",
		"name": "Tourinne (Lg.)"
	},
	{
		"id": 2479,
		"zip": "1320",
		"name": "Tourinnes-la-Grosse"
	},
	{
		"id": 2480,
		"zip": "1457",
		"name": "Tourinnes-Saint-Lambert"
	},
	{
		"id": 2481,
		"zip": "7500",
		"name": "Tournai"
	},
	{
		"id": 2482,
		"zip": "6840",
		"name": "Tournay"
	},
	{
		"id": 2483,
		"zip": "7904",
		"name": "Tourpes"
	},
	{
		"id": 2484,
		"zip": "6890",
		"name": "Transinne"
	},
	{
		"id": 2485,
		"zip": "6183",
		"name": "Trazegnies"
	},
	{
		"id": 2486,
		"zip": "5670",
		"name": "Treignes"
	},
	{
		"id": 2487,
		"zip": "4670",
		"name": "Trembleur"
	},
	{
		"id": 2488,
		"zip": "3120",
		"name": "Tremelo"
	},
	{
		"id": 2489,
		"zip": "7100",
		"name": "Trivières"
	},
	{
		"id": 2490,
		"zip": "4280",
		"name": "Trognée"
	},
	{
		"id": 2491,
		"zip": "4980",
		"name": "Trois-Ponts"
	},
	{
		"id": 2492,
		"zip": "4870",
		"name": "Trooz"
	},
	{
		"id": 2493,
		"zip": "1480",
		"name": "Tubize"
	},
	{
		"id": 2494,
		"zip": "2300",
		"name": "Turnhout"
	},
	{
		"id": 2495,
		"zip": "1180",
		"name": "Uccle"
	},
	{
		"id": 2496,
		"zip": "6833",
		"name": "Ucimont"
	},
	{
		"id": 2497,
		"zip": "3631",
		"name": "Uikhoven"
	},
	{
		"id": 2498,
		"zip": "9290",
		"name": "Uitbergen"
	},
	{
		"id": 2499,
		"zip": "8370",
		"name": "Uitkerke"
	},
	{
		"id": 2500,
		"zip": "1180",
		"name": "Ukkel"
	},
	{
		"id": 2501,
		"zip": "3832",
		"name": "Ulbeek"
	},
	{
		"id": 2502,
		"zip": "5310",
		"name": "Upigny"
	},
	{
		"id": 2503,
		"zip": "9910",
		"name": "Ursel"
	},
	{
		"id": 2504,
		"zip": "3054",
		"name": "Vaalbeek"
	},
	{
		"id": 2505,
		"zip": "3770",
		"name": "Val-Meer"
	},
	{
		"id": 2506,
		"zip": "6741",
		"name": "Vance"
	},
	{
		"id": 2507,
		"zip": "2431",
		"name": "Varendonk"
	},
	{
		"id": 2508,
		"zip": "8490",
		"name": "Varsenare"
	},
	{
		"id": 2509,
		"zip": "5680",
		"name": "Vaucelles"
	},
	{
		"id": 2510,
		"zip": "7536",
		"name": "Vaulx (Tournai)"
	},
	{
		"id": 2511,
		"zip": "6462",
		"name": "Vaulx-lez-Chimay"
	},
	{
		"id": 2512,
		"zip": "6960",
		"name": "Vaux-Chavanne"
	},
	{
		"id": 2513,
		"zip": "4530",
		"name": "Vaux-et-Borset"
	},
	{
		"id": 2514,
		"zip": "6640",
		"name": "Vaux-lez-Rosières"
	},
	{
		"id": 2515,
		"zip": "4051",
		"name": "Vaux-sous-Chèvremont"
	},
	{
		"id": 2516,
		"zip": "6640",
		"name": "Vaux-sur-Sûre"
	},
	{
		"id": 2517,
		"zip": "3870",
		"name": "Vechmaal"
	},
	{
		"id": 2518,
		"zip": "5020",
		"name": "Vedrin"
	},
	{
		"id": 2519,
		"zip": "2431",
		"name": "Veerle"
	},
	{
		"id": 2520,
		"zip": "7760",
		"name": "Velaines"
	},
	{
		"id": 2521,
		"zip": "5060",
		"name": "Velaine-sur-Sambre"
	},
	{
		"id": 2522,
		"zip": "8210",
		"name": "Veldegem"
	},
	{
		"id": 2523,
		"zip": "3620",
		"name": "Veldwezelt"
	},
	{
		"id": 2524,
		"zip": "7120",
		"name": "Vellereille-les-Brayeux"
	},
	{
		"id": 2525,
		"zip": "7120",
		"name": "Vellereille-le-Sec"
	},
	{
		"id": 2526,
		"zip": "3806",
		"name": "Velm"
	},
	{
		"id": 2527,
		"zip": "4460",
		"name": "Velroux"
	},
	{
		"id": 2528,
		"zip": "3020",
		"name": "Veltem-Beisem"
	},
	{
		"id": 2529,
		"zip": "9620",
		"name": "Velzeke-Ruddershove"
	},
	{
		"id": 2530,
		"zip": "5575",
		"name": "Vencimont"
	},
	{
		"id": 2531,
		"zip": "6440",
		"name": "Vergnies"
	},
	{
		"id": 2532,
		"zip": "4537",
		"name": "Verlaine"
	},
	{
		"id": 2533,
		"zip": "5370",
		"name": "Verlée"
	},
	{
		"id": 2534,
		"zip": "9130",
		"name": "Verrebroek"
	},
	{
		"id": 2535,
		"zip": "3370",
		"name": "Vertrijk"
	},
	{
		"id": 2536,
		"zip": "4800",
		"name": "Verviers"
	},
	{
		"id": 2537,
		"zip": "6870",
		"name": "Vesqueville"
	},
	{
		"id": 2538,
		"zip": "3870",
		"name": "Veulen"
	},
	{
		"id": 2539,
		"zip": "8630",
		"name": "Veurne"
	},
	{
		"id": 2540,
		"zip": "5300",
		"name": "Vezin"
	},
	{
		"id": 2541,
		"zip": "7538",
		"name": "Vezon"
	},
	{
		"id": 2542,
		"zip": "9500",
		"name": "Viane"
	},
	{
		"id": 2543,
		"zip": "8570",
		"name": "Vichte"
	},
	{
		"id": 2544,
		"zip": "6690",
		"name": "Vielsalm"
	},
	{
		"id": 2545,
		"zip": "4317",
		"name": "Viemme"
	},
	{
		"id": 2546,
		"zip": "2240",
		"name": "Viersel"
	},
	{
		"id": 2547,
		"zip": "4577",
		"name": "Vierset-Barse"
	},
	{
		"id": 2548,
		"zip": "5670",
		"name": "Vierves-sur-Viroin"
	},
	{
		"id": 2549,
		"zip": "6230",
		"name": "Viesville"
	},
	{
		"id": 2550,
		"zip": "1472",
		"name": "Vieux-Genappe"
	},
	{
		"id": 2551,
		"zip": "4190",
		"name": "Vieuxville"
	},
	{
		"id": 2552,
		"zip": "4530",
		"name": "Vieux-Waleffe"
	},
	{
		"id": 2553,
		"zip": "6890",
		"name": "Villance"
	},
	{
		"id": 2554,
		"zip": "4260",
		"name": "Ville-en-Hesbaye"
	},
	{
		"id": 2555,
		"zip": "7322",
		"name": "Ville-Pommeroeul"
	},
	{
		"id": 2556,
		"zip": "7334",
		"name": "Villerot"
	},
	{
		"id": 2557,
		"zip": "4161",
		"name": "Villers-aux-Tours"
	},
	{
		"id": 2558,
		"zip": "5630",
		"name": "Villers-Deux-Eglises"
	},
	{
		"id": 2559,
		"zip": "6823",
		"name": "Villers-devant-Orval"
	},
	{
		"id": 2560,
		"zip": "5600",
		"name": "Villers-en-Fagne"
	},
	{
		"id": 2561,
		"zip": "6600",
		"name": "Villers-la-Bonne-Eau"
	},
	{
		"id": 2562,
		"zip": "6769",
		"name": "Villers-la-Loue"
	},
	{
		"id": 2563,
		"zip": "6460",
		"name": "Villers-la-Tour"
	},
	{
		"id": 2564,
		"zip": "1495",
		"name": "Villers-la-Ville"
	},
	{
		"id": 2565,
		"zip": "4530",
		"name": "Villers-le-Bouillet"
	},
	{
		"id": 2566,
		"zip": "5600",
		"name": "Villers-le-Gambon"
	},
	{
		"id": 2567,
		"zip": "4280",
		"name": "Villers-le-Peuplier"
	},
	{
		"id": 2568,
		"zip": "4550",
		"name": "Villers-le-Temple"
	},
	{
		"id": 2569,
		"zip": "4340",
		"name": "Villers-l'Evêque"
	},
	{
		"id": 2570,
		"zip": "5080",
		"name": "Villers-lez-Heest"
	},
	{
		"id": 2571,
		"zip": "7812",
		"name": "Villers-Notre-Dame"
	},
	{
		"id": 2572,
		"zip": "6210",
		"name": "Villers-Perwin"
	},
	{
		"id": 2573,
		"zip": "6280",
		"name": "Villers-Poterie"
	},
	{
		"id": 2574,
		"zip": "7812",
		"name": "Villers-Saint-Amand"
	},
	{
		"id": 2575,
		"zip": "6941",
		"name": "Villers-Sainte-Gertrude"
	},
	{
		"id": 2576,
		"zip": "7031",
		"name": "Villers-Saint-Ghislain"
	},
	{
		"id": 2577,
		"zip": "4453",
		"name": "Villers-Saint-Siméon"
	},
	{
		"id": 2578,
		"zip": "5580",
		"name": "Villers-sur-Lesse"
	},
	{
		"id": 2579,
		"zip": "6740",
		"name": "Villers-sur-Semois"
	},
	{
		"id": 2580,
		"zip": "7021",
		"name": "Ville-sur-Haine (Mons)"
	},
	{
		"id": 2581,
		"zip": "7070",
		"name": "Ville-sur-Haine(Le Roeulx)"
	},
	{
		"id": 2582,
		"zip": "1800",
		"name": "Vilvoorde"
	},
	{
		"id": 2583,
		"zip": "4520",
		"name": "Vinalmont"
	},
	{
		"id": 2584,
		"zip": "9921",
		"name": "Vinderhoute"
	},
	{
		"id": 2585,
		"zip": "8630",
		"name": "Vinkem"
	},
	{
		"id": 2586,
		"zip": "9800",
		"name": "Vinkt"
	},
	{
		"id": 2587,
		"zip": "6461",
		"name": "Virelles"
	},
	{
		"id": 2588,
		"zip": "1460",
		"name": "Virginal-Samme"
	},
	{
		"id": 2589,
		"zip": "5670",
		"name": "Viroinval"
	},
	{
		"id": 2590,
		"zip": "6760",
		"name": "Virton"
	},
	{
		"id": 2591,
		"zip": "4600",
		"name": "Visé"
	},
	{
		"id": 2592,
		"zip": "3300",
		"name": "Vissenaken"
	},
	{
		"id": 2593,
		"zip": "5070",
		"name": "Vitrival"
	},
	{
		"id": 2594,
		"zip": "4683",
		"name": "Vivegnis"
	},
	{
		"id": 2595,
		"zip": "6833",
		"name": "Vivy"
	},
	{
		"id": 2596,
		"zip": "8600",
		"name": "Vladslo"
	},
	{
		"id": 2597,
		"zip": "8908",
		"name": "Vlamertinge"
	},
	{
		"id": 2598,
		"zip": "9420",
		"name": "Vlekkem"
	},
	{
		"id": 2599,
		"zip": "8640",
		"name": "Vleteren"
	},
	{
		"id": 2600,
		"zip": "1602",
		"name": "Vlezenbeek"
	},
	{
		"id": 2601,
		"zip": "3724",
		"name": "Vliermaal"
	},
	{
		"id": 2602,
		"zip": "3721",
		"name": "Vliermaalroot"
	},
	{
		"id": 2603,
		"zip": "9520",
		"name": "Vlierzele"
	},
	{
		"id": 2604,
		"zip": "3770",
		"name": "Vlijtingen"
	},
	{
		"id": 2605,
		"zip": "2340",
		"name": "Vlimmeren"
	},
	{
		"id": 2606,
		"zip": "8421",
		"name": "Vlissegem"
	},
	{
		"id": 2607,
		"zip": "7880",
		"name": "Vloesberg"
	},
	{
		"id": 2608,
		"zip": "5600",
		"name": "Vodecée"
	},
	{
		"id": 2609,
		"zip": "5680",
		"name": "Vodelée"
	},
	{
		"id": 2610,
		"zip": "3790",
		"name": "Voeren"
	},
	{
		"id": 2611,
		"zip": "5650",
		"name": "Vogenée"
	},
	{
		"id": 2612,
		"zip": "9700",
		"name": "Volkegem"
	},
	{
		"id": 2613,
		"zip": "1570",
		"name": "Vollezele"
	},
	{
		"id": 2614,
		"zip": "5570",
		"name": "Vonêche"
	},
	{
		"id": 2615,
		"zip": "9400",
		"name": "Voorde"
	},
	{
		"id": 2616,
		"zip": "8902",
		"name": "Voormezele"
	},
	{
		"id": 2617,
		"zip": "3840",
		"name": "Voort"
	},
	{
		"id": 2618,
		"zip": "4347",
		"name": "Voroux-Goreux"
	},
	{
		"id": 2619,
		"zip": "4451",
		"name": "Voroux-lez-Liers"
	},
	{
		"id": 2620,
		"zip": "2290",
		"name": "Vorselaar"
	},
	{
		"id": 2621,
		"zip": "3890",
		"name": "Vorsen"
	},
	{
		"id": 2622,
		"zip": "1190",
		"name": "Vorst"
	},
	{
		"id": 2623,
		"zip": "2430",
		"name": "Vorst (Kempen)"
	},
	{
		"id": 2624,
		"zip": "2350",
		"name": "Vosselaar"
	},
	{
		"id": 2625,
		"zip": "9850",
		"name": "Vosselare"
	},
	{
		"id": 2626,
		"zip": "3080",
		"name": "Vossem"
	},
	{
		"id": 2627,
		"zip": "4041",
		"name": "Vottem"
	},
	{
		"id": 2628,
		"zip": "9120",
		"name": "Vrasene"
	},
	{
		"id": 2629,
		"zip": "2531",
		"name": "Vremde"
	},
	{
		"id": 2630,
		"zip": "3700",
		"name": "Vreren"
	},
	{
		"id": 2631,
		"zip": "5550",
		"name": "Vresse-sur-Semois"
	},
	{
		"id": 2632,
		"zip": "3770",
		"name": "Vroenhoven"
	},
	{
		"id": 2633,
		"zip": "3630",
		"name": "Vucht"
	},
	{
		"id": 2634,
		"zip": "9890",
		"name": "Vurste"
	},
	{
		"id": 2635,
		"zip": "4570",
		"name": "Vyle-et-Tharoul"
	},
	{
		"id": 2636,
		"zip": "3473",
		"name": "Waanrode"
	},
	{
		"id": 2637,
		"zip": "9506",
		"name": "Waarbeke"
	},
	{
		"id": 2638,
		"zip": "8020",
		"name": "Waardamme"
	},
	{
		"id": 2639,
		"zip": "2550",
		"name": "Waarloos"
	},
	{
		"id": 2640,
		"zip": "8581",
		"name": "Waarmaarde"
	},
	{
		"id": 2641,
		"zip": "9950",
		"name": "Waarschoot"
	},
	{
		"id": 2642,
		"zip": "3401",
		"name": "Waasmont"
	},
	{
		"id": 2643,
		"zip": "9250",
		"name": "Waasmunster"
	},
	{
		"id": 2644,
		"zip": "7784",
		"name": "Waasten"
	},
	{
		"id": 2645,
		"zip": "9185",
		"name": "Wachtebeke"
	},
	{
		"id": 2646,
		"zip": "7971",
		"name": "Wadelincourt"
	},
	{
		"id": 2647,
		"zip": "6223",
		"name": "Wagnelée"
	},
	{
		"id": 2648,
		"zip": "6900",
		"name": "Waha"
	},
	{
		"id": 2649,
		"zip": "5377",
		"name": "Waillet"
	},
	{
		"id": 2650,
		"zip": "4950",
		"name": "Waimes"
	},
	{
		"id": 2651,
		"zip": "8720",
		"name": "Wakken"
	},
	{
		"id": 2652,
		"zip": "5650",
		"name": "Walcourt"
	},
	{
		"id": 2653,
		"zip": "2800",
		"name": "Walem"
	},
	{
		"id": 2654,
		"zip": "1457",
		"name": "Walhain"
	},
	{
		"id": 2655,
		"zip": "1457",
		"name": "Walhain-Saint-Paul"
	},
	{
		"id": 2656,
		"zip": "4711",
		"name": "Walhorn"
	},
	{
		"id": 2657,
		"zip": "3401",
		"name": "Walsbets"
	},
	{
		"id": 2658,
		"zip": "3401",
		"name": "Walshoutem"
	},
	{
		"id": 2659,
		"zip": "3740",
		"name": "Waltwilder"
	},
	{
		"id": 2660,
		"zip": "1741",
		"name": "Wambeek"
	},
	{
		"id": 2661,
		"zip": "5570",
		"name": "Wancennes"
	},
	{
		"id": 2662,
		"zip": "4020",
		"name": "Wandre"
	},
	{
		"id": 2663,
		"zip": "6224",
		"name": "Wanfercée-Baulet"
	},
	{
		"id": 2664,
		"zip": "3400",
		"name": "Wange"
	},
	{
		"id": 2665,
		"zip": "6220",
		"name": "Wangenies"
	},
	{
		"id": 2666,
		"zip": "5564",
		"name": "Wanlin"
	},
	{
		"id": 2667,
		"zip": "4980",
		"name": "Wanne"
	},
	{
		"id": 2668,
		"zip": "7861",
		"name": "Wannebecq"
	},
	{
		"id": 2669,
		"zip": "9772",
		"name": "Wannegem-Lede"
	},
	{
		"id": 2670,
		"zip": "4280",
		"name": "Wansin"
	},
	{
		"id": 2671,
		"zip": "4520",
		"name": "Wanze"
	},
	{
		"id": 2672,
		"zip": "9340",
		"name": "Wanzele"
	},
	{
		"id": 2673,
		"zip": "7548",
		"name": "Warchin"
	},
	{
		"id": 2674,
		"zip": "7740",
		"name": "Warcoing"
	},
	{
		"id": 2675,
		"zip": "6600",
		"name": "Wardin"
	},
	{
		"id": 2676,
		"zip": "8790",
		"name": "Waregem"
	},
	{
		"id": 2677,
		"zip": "4300",
		"name": "Waremme"
	},
	{
		"id": 2678,
		"zip": "5310",
		"name": "Waret-la-Chaussée"
	},
	{
		"id": 2679,
		"zip": "4217",
		"name": "Waret-l'Evêque"
	},
	{
		"id": 2680,
		"zip": "5080",
		"name": "Warisoulx"
	},
	{
		"id": 2681,
		"zip": "5537",
		"name": "Warnant"
	},
	{
		"id": 2682,
		"zip": "4530",
		"name": "Warnant-Dreye"
	},
	{
		"id": 2683,
		"zip": "7784",
		"name": "Warneton"
	},
	{
		"id": 2684,
		"zip": "7340",
		"name": "Warquignies"
	},
	{
		"id": 2685,
		"zip": "4608",
		"name": "Warsage"
	},
	{
		"id": 2686,
		"zip": "4590",
		"name": "Warzée"
	},
	{
		"id": 2687,
		"zip": "7340",
		"name": "Wasmes"
	},
	{
		"id": 2688,
		"zip": "7604",
		"name": "Wasmes-Audemez-Briffoeil"
	},
	{
		"id": 2689,
		"zip": "7390",
		"name": "Wasmuel"
	},
	{
		"id": 2690,
		"zip": "4219",
		"name": "Wasseiges"
	},
	{
		"id": 2691,
		"zip": "9988",
		"name": "Waterland-Oudeman"
	},
	{
		"id": 2692,
		"zip": "1410",
		"name": "Waterloo"
	},
	{
		"id": 2693,
		"zip": "1170",
		"name": "Watermaal-Bosvoorde"
	},
	{
		"id": 2694,
		"zip": "1170",
		"name": "Watermael-Boitsfort"
	},
	{
		"id": 2695,
		"zip": "9988",
		"name": "Watervliet"
	},
	{
		"id": 2696,
		"zip": "8978",
		"name": "Watou"
	},
	{
		"id": 2697,
		"zip": "7910",
		"name": "Wattripont"
	},
	{
		"id": 2698,
		"zip": "7131",
		"name": "Waudrez"
	},
	{
		"id": 2699,
		"zip": "5540",
		"name": "Waulsort"
	},
	{
		"id": 2700,
		"zip": "1440",
		"name": "Wauthier-Braine"
	},
	{
		"id": 2701,
		"zip": "1300",
		"name": "Wavre"
	},
	{
		"id": 2702,
		"zip": "5580",
		"name": "Wavreille"
	},
	{
		"id": 2703,
		"zip": "6210",
		"name": "Wayaux"
	},
	{
		"id": 2704,
		"zip": "1474",
		"name": "Ways"
	},
	{
		"id": 2705,
		"zip": "3290",
		"name": "Webbekom"
	},
	{
		"id": 2706,
		"zip": "2275",
		"name": "Wechelderzande"
	},
	{
		"id": 2707,
		"zip": "2381",
		"name": "Weelde"
	},
	{
		"id": 2708,
		"zip": "1982",
		"name": "Weerde"
	},
	{
		"id": 2709,
		"zip": "2880",
		"name": "Weert"
	},
	{
		"id": 2710,
		"zip": "4860",
		"name": "Wegnez"
	},
	{
		"id": 2711,
		"zip": "5523",
		"name": "Weillen"
	},
	{
		"id": 2712,
		"zip": "4950",
		"name": "Weismes"
	},
	{
		"id": 2713,
		"zip": "9700",
		"name": "Welden"
	},
	{
		"id": 2714,
		"zip": "4840",
		"name": "Welkenraedt"
	},
	{
		"id": 2715,
		"zip": "9473",
		"name": "Welle"
	},
	{
		"id": 2716,
		"zip": "3830",
		"name": "Wellen"
	},
	{
		"id": 2717,
		"zip": "6920",
		"name": "Wellin"
	},
	{
		"id": 2718,
		"zip": "1780",
		"name": "Wemmel"
	},
	{
		"id": 2719,
		"zip": "8420",
		"name": "Wenduine"
	},
	{
		"id": 2720,
		"zip": "5100",
		"name": "Wépion"
	},
	{
		"id": 2721,
		"zip": "4190",
		"name": "Werbomont"
	},
	{
		"id": 2722,
		"zip": "3118",
		"name": "Werchter"
	},
	{
		"id": 2723,
		"zip": "6940",
		"name": "Wéris"
	},
	{
		"id": 2724,
		"zip": "8610",
		"name": "Werken"
	},
	{
		"id": 2725,
		"zip": "3730",
		"name": "Werm"
	},
	{
		"id": 2726,
		"zip": "8940",
		"name": "Wervik"
	},
	{
		"id": 2727,
		"zip": "3150",
		"name": "Wespelaar"
	},
	{
		"id": 2728,
		"zip": "8434",
		"name": "Westende"
	},
	{
		"id": 2729,
		"zip": "2260",
		"name": "Westerlo"
	},
	{
		"id": 2730,
		"zip": "8300",
		"name": "Westkapelle"
	},
	{
		"id": 2731,
		"zip": "8460",
		"name": "Westkerke"
	},
	{
		"id": 2732,
		"zip": "2390",
		"name": "Westmalle"
	},
	{
		"id": 2733,
		"zip": "2235",
		"name": "Westmeerbeek"
	},
	{
		"id": 2734,
		"zip": "8954",
		"name": "Westouter"
	},
	{
		"id": 2735,
		"zip": "9230",
		"name": "Westrem"
	},
	{
		"id": 2736,
		"zip": "8840",
		"name": "Westrozebeke"
	},
	{
		"id": 2737,
		"zip": "8640",
		"name": "Westvleteren"
	},
	{
		"id": 2738,
		"zip": "9230",
		"name": "Wetteren"
	},
	{
		"id": 2739,
		"zip": "8560",
		"name": "Wevelgem"
	},
	{
		"id": 2740,
		"zip": "3111",
		"name": "Wezemaal"
	},
	{
		"id": 2741,
		"zip": "1970",
		"name": "Wezembeek-Oppem"
	},
	{
		"id": 2742,
		"zip": "3401",
		"name": "Wezeren"
	},
	{
		"id": 2743,
		"zip": "7620",
		"name": "Wez-Velvain"
	},
	{
		"id": 2744,
		"zip": "6666",
		"name": "Wibrin"
	},
	{
		"id": 2745,
		"zip": "9260",
		"name": "Wichelen"
	},
	{
		"id": 2746,
		"zip": "3700",
		"name": "Widooie"
	},
	{
		"id": 2747,
		"zip": "2222",
		"name": "Wiekevorst"
	},
	{
		"id": 2748,
		"zip": "8710",
		"name": "Wielsbeke"
	},
	{
		"id": 2749,
		"zip": "5100",
		"name": "Wierde"
	},
	{
		"id": 2750,
		"zip": "7608",
		"name": "Wiers"
	},
	{
		"id": 2751,
		"zip": "5571",
		"name": "Wiesme"
	},
	{
		"id": 2752,
		"zip": "9280",
		"name": "Wieze"
	},
	{
		"id": 2753,
		"zip": "7370",
		"name": "Wihéries"
	},
	{
		"id": 2754,
		"zip": "4452",
		"name": "Wihogne"
	},
	{
		"id": 2755,
		"zip": "3990",
		"name": "Wijchmaal"
	},
	{
		"id": 2756,
		"zip": "3850",
		"name": "Wijer"
	},
	{
		"id": 2757,
		"zip": "3018",
		"name": "Wijgmaal (Bt.)"
	},
	{
		"id": 2758,
		"zip": "2110",
		"name": "Wijnegem"
	},
	{
		"id": 2759,
		"zip": "3670",
		"name": "Wijshagen"
	},
	{
		"id": 2760,
		"zip": "8953",
		"name": "Wijtschate"
	},
	{
		"id": 2761,
		"zip": "3803",
		"name": "Wilderen"
	},
	{
		"id": 2762,
		"zip": "7904",
		"name": "Willaupuis"
	},
	{
		"id": 2763,
		"zip": "3370",
		"name": "Willebringen"
	},
	{
		"id": 2764,
		"zip": "2830",
		"name": "Willebroek"
	},
	{
		"id": 2765,
		"zip": "7506",
		"name": "Willemeau"
	},
	{
		"id": 2766,
		"zip": "5575",
		"name": "Willerzie"
	},
	{
		"id": 2767,
		"zip": "2610",
		"name": "Wilrijk (Antwerpen)"
	},
	{
		"id": 2768,
		"zip": "3012",
		"name": "Wilsele"
	},
	{
		"id": 2769,
		"zip": "8431",
		"name": "Wilskerke"
	},
	{
		"id": 2770,
		"zip": "3501",
		"name": "Wimmertingen"
	},
	{
		"id": 2771,
		"zip": "5570",
		"name": "Winenne"
	},
	{
		"id": 2772,
		"zip": "8750",
		"name": "Wingene"
	},
	{
		"id": 2773,
		"zip": "3020",
		"name": "Winksele"
	},
	{
		"id": 2774,
		"zip": "3722",
		"name": "Wintershoven"
	},
	{
		"id": 2775,
		"zip": "6860",
		"name": "Witry"
	},
	{
		"id": 2776,
		"zip": "7890",
		"name": "Wodecq"
	},
	{
		"id": 2777,
		"zip": "8640",
		"name": "Woesten"
	},
	{
		"id": 2778,
		"zip": "6780",
		"name": "Wolkrange"
	},
	{
		"id": 2779,
		"zip": "1200",
		"name": "Woluwé-Saint-Lambert"
	},
	{
		"id": 2780,
		"zip": "1150",
		"name": "Woluwé-Saint-Pierre"
	},
	{
		"id": 2781,
		"zip": "1861",
		"name": "Wolvertem"
	},
	{
		"id": 2782,
		"zip": "2160",
		"name": "Wommelgem"
	},
	{
		"id": 2783,
		"zip": "3350",
		"name": "Wommersom"
	},
	{
		"id": 2784,
		"zip": "4690",
		"name": "Wonck"
	},
	{
		"id": 2785,
		"zip": "9032",
		"name": "Wondelgem"
	},
	{
		"id": 2786,
		"zip": "9800",
		"name": "Wontergem"
	},
	{
		"id": 2787,
		"zip": "9790",
		"name": "Wortegem"
	},
	{
		"id": 2788,
		"zip": "9790",
		"name": "Wortegem-Petegem"
	},
	{
		"id": 2789,
		"zip": "2323",
		"name": "Wortel"
	},
	{
		"id": 2790,
		"zip": "9550",
		"name": "Woubrechtegem"
	},
	{
		"id": 2791,
		"zip": "8600",
		"name": "Woumen"
	},
	{
		"id": 2792,
		"zip": "8670",
		"name": "Wulpen"
	},
	{
		"id": 2793,
		"zip": "8952",
		"name": "Wulvergem"
	},
	{
		"id": 2794,
		"zip": "8630",
		"name": "Wulveringem"
	},
	{
		"id": 2795,
		"zip": "2990",
		"name": "Wuustwezel"
	},
	{
		"id": 2796,
		"zip": "4652",
		"name": "Xhendelesse"
	},
	{
		"id": 2797,
		"zip": "4432",
		"name": "Xhendremael"
	},
	{
		"id": 2798,
		"zip": "4190",
		"name": "Xhoris"
	},
	{
		"id": 2799,
		"zip": "4550",
		"name": "Yernée-Fraineux"
	},
	{
		"id": 2800,
		"zip": "5650",
		"name": "Yves-Gomezée"
	},
	{
		"id": 2801,
		"zip": "5530",
		"name": "Yvoir"
	},
	{
		"id": 2802,
		"zip": "9080",
		"name": "Zaffelare"
	},
	{
		"id": 2803,
		"zip": "9506",
		"name": "Zandbergen"
	},
	{
		"id": 2804,
		"zip": "8680",
		"name": "Zande"
	},
	{
		"id": 2805,
		"zip": "2240",
		"name": "Zandhoven"
	},
	{
		"id": 2806,
		"zip": "2040",
		"name": "Zandvliet"
	},
	{
		"id": 2807,
		"zip": "8400",
		"name": "Zandvoorde (Oostende)"
	},
	{
		"id": 2808,
		"zip": "8980",
		"name": "Zandvoorde (Zonnebeke)"
	},
	{
		"id": 2809,
		"zip": "9500",
		"name": "Zarlardinge"
	},
	{
		"id": 2810,
		"zip": "8610",
		"name": "Zarren"
	},
	{
		"id": 2811,
		"zip": "1930",
		"name": "Zaventem"
	},
	{
		"id": 2812,
		"zip": "8210",
		"name": "Zedelgem"
	},
	{
		"id": 2813,
		"zip": "8380",
		"name": "Zeebrugge (Brugge)"
	},
	{
		"id": 2814,
		"zip": "9660",
		"name": "Zegelsem"
	},
	{
		"id": 2815,
		"zip": "9240",
		"name": "Zele"
	},
	{
		"id": 2816,
		"zip": "3545",
		"name": "Zelem"
	},
	{
		"id": 2817,
		"zip": "1731",
		"name": "Zellik"
	},
	{
		"id": 2818,
		"zip": "9060",
		"name": "Zelzate"
	},
	{
		"id": 2819,
		"zip": "1980",
		"name": "Zemst"
	},
	{
		"id": 2820,
		"zip": "3800",
		"name": "Zepperen"
	},
	{
		"id": 2821,
		"zip": "8490",
		"name": "Zerkegem"
	},
	{
		"id": 2822,
		"zip": "1370",
		"name": "Zétrud-Lumay"
	},
	{
		"id": 2823,
		"zip": "8470",
		"name": "Zevekote"
	},
	{
		"id": 2824,
		"zip": "9080",
		"name": "Zeveneken"
	},
	{
		"id": 2825,
		"zip": "9800",
		"name": "Zeveren"
	},
	{
		"id": 2826,
		"zip": "9840",
		"name": "Zevergem"
	},
	{
		"id": 2827,
		"zip": "3271",
		"name": "Zichem"
	},
	{
		"id": 2828,
		"zip": "3770",
		"name": "Zichen-Zussen-Bolder"
	},
	{
		"id": 2829,
		"zip": "8902",
		"name": "Zillebeke"
	},
	{
		"id": 2830,
		"zip": "9750",
		"name": "Zingem"
	},
	{
		"id": 2831,
		"zip": "2260",
		"name": "Zoerle-Parwijs"
	},
	{
		"id": 2832,
		"zip": "2980",
		"name": "Zoersel"
	},
	{
		"id": 2833,
		"zip": "3550",
		"name": "Zolder"
	},
	{
		"id": 2834,
		"zip": "9930",
		"name": "Zomergem"
	},
	{
		"id": 2835,
		"zip": "3520",
		"name": "Zonhoven"
	},
	{
		"id": 2836,
		"zip": "8980",
		"name": "Zonnebeke"
	},
	{
		"id": 2837,
		"zip": "9520",
		"name": "Zonnegem"
	},
	{
		"id": 2838,
		"zip": "9620",
		"name": "Zottegem"
	},
	{
		"id": 2839,
		"zip": "8630",
		"name": "Zoutenaaie"
	},
	{
		"id": 2840,
		"zip": "3440",
		"name": "Zoutleeuw"
	},
	{
		"id": 2841,
		"zip": "8904",
		"name": "Zuidschote"
	},
	{
		"id": 2842,
		"zip": "8377",
		"name": "Zuienkerke"
	},
	{
		"id": 2843,
		"zip": "9870",
		"name": "Zulte"
	},
	{
		"id": 2844,
		"zip": "9690",
		"name": "Zulzeke"
	},
	{
		"id": 2845,
		"zip": "3690",
		"name": "Zutendaal"
	},
	{
		"id": 2846,
		"zip": "9630",
		"name": "Zwalm"
	},
	{
		"id": 2847,
		"zip": "8550",
		"name": "Zwevegem"
	},
	{
		"id": 2848,
		"zip": "8750",
		"name": "Zwevezele"
	},
	{
		"id": 2849,
		"zip": "9052",
		"name": "Zwijnaarde"
	},
	{
		"id": 2850,
		"zip": "2070",
		"name": "Zwijndrecht"
	}
]